[{"officename":"Along S.O","pincode":"791001","officetype":"S.O","deliverystatus":"Delivery","statename":"ARUNACHAL PRADESH","regionname":"Shillong HQ","circlename":"North Eastern","divisionname":"Arunachal Pradesh","Taluk":"Bordumsa Circle"},{"officename":"Arunachal Pradesh Secretariat S.O","pincode":"791111","officetype":"S.O","deliverystatus":"Non-Delivery","statename":"ARUNACHAL PRADESH","regionname":"Shillong HQ","circlename":"North Eastern","divisionname":"Arunachal Pradesh","Taluk":"Itanagar"},{"officename":"Anini S.O","pincode":"792101","officetype":"S.O","deliverystatus":"Delivery","statename":"ARUNACHAL PRADESH","regionname":"Shillong HQ","circlename":"North Eastern","divisionname":"Arunachal Pradesh","Taluk":"NA"},{"officename":"Banderdewa S.O","pincode":"791123","officetype":"S.O","deliverystatus":"Delivery","statename":"ARUNACHAL PRADESH","regionname":"Shillong HQ","circlename":"North Eastern","divisionname":"Arunachal Pradesh","Taluk":"Banderdewa"},{"officename":"Basar S.O (West Siang)","pincode":"791101","officetype":"S.O","deliverystatus":"Delivery","statename":"ARUNACHAL PRADESH","regionname":"Shillong HQ","circlename":"North Eastern","divisionname":"Arunachal Pradesh","Taluk":"Basar"},{"officename":"Bhalukpong S.O","pincode":"790114","officetype":"S.O","deliverystatus":"Delivery","statename":"ARUNACHAL PRADESH","regionname":"Shillong HQ","circlename":"North Eastern","divisionname":"Arunachal Pradesh","Taluk":"Bhalukpong"},{"officename":"Bordumsa S.O","pincode":"792056","officetype":"S.O","deliverystatus":"Delivery","statename":"ARUNACHAL PRADESH","regionname":"Shillong HQ","circlename":"North Eastern","divisionname":"Arunachal Pradesh","Taluk":"Bordumsa"},{"officename":"Bomdila S.O","pincode":"790001","officetype":"S.O","deliverystatus":"Delivery","statename":"ARUNACHAL PRADESH","regionname":"Shillong HQ","circlename":"North Eastern","divisionname":"Arunachal Pradesh","Taluk":"Bomdila"},{"officename":"Changlang S.O","pincode":"792120","officetype":"S.O","deliverystatus":"Delivery","statename":"ARUNACHAL PRADESH","regionname":"Shillong HQ","circlename":"North Eastern","divisionname":"Arunachal Pradesh","Taluk":"Changlang"},{"officename":"Chowkham S.O","pincode":"792102","officetype":"S.O","deliverystatus":"Delivery","statename":"ARUNACHAL PRADESH","regionname":"Shillong HQ","circlename":"North Eastern","divisionname":"Arunachal Pradesh","Taluk":"Chowkham"},{"officename":"Daporijo S.O","pincode":"791122","officetype":"S.O","deliverystatus":"Delivery","statename":"ARUNACHAL PRADESH","regionname":"Shillong HQ","circlename":"North Eastern","divisionname":"Arunachal Pradesh","Taluk":"Daporijo"},{"officename":"Deomali S.O","pincode":"792129","officetype":"S.O","deliverystatus":"Delivery","statename":"ARUNACHAL PRADESH","regionname":"Shillong HQ","circlename":"North Eastern","divisionname":"Arunachal Pradesh","Taluk":"Deomali"},{"officename":"Dirang S.O","pincode":"790101","officetype":"S.O","deliverystatus":"Delivery","statename":"ARUNACHAL PRADESH","regionname":"Shillong HQ","circlename":"North Eastern","divisionname":"Arunachal Pradesh","Taluk":"Dirang"},{"officename":"Doimukh S.O","pincode":"791112","officetype":"S.O","deliverystatus":"Delivery","statename":"ARUNACHAL PRADESH","regionname":"Shillong HQ","circlename":"North Eastern","divisionname":"Arunachal Pradesh","Taluk":"Diomukh"},{"officename":"Hayuliang S.O","pincode":"792104","officetype":"S.O","deliverystatus":"Delivery","statename":"ARUNACHAL PRADESH","regionname":"Shillong HQ","circlename":"North Eastern","divisionname":"Arunachal Pradesh","Taluk":"Hayuliang"},{"officename":"Hill Top S.O","pincode":"791103","officetype":"S.O","deliverystatus":"Delivery","statename":"ARUNACHAL PRADESH","regionname":"Shillong HQ","circlename":"North Eastern","divisionname":"Arunachal Pradesh","Taluk":"Pasighat"},{"officename":"Tezu S.O","pincode":"792001","officetype":"S.O","deliverystatus":"Delivery","statename":"ARUNACHAL PRADESH","regionname":"Shillong HQ","circlename":"North Eastern","divisionname":"Arunachal Pradesh","Taluk":"Tezu"},{"officename":"Tuting S.O","pincode":"791105","officetype":"S.O","deliverystatus":"Delivery","statename":"ARUNACHAL PRADESH","regionname":"Shillong HQ","circlename":"North Eastern","divisionname":"Arunachal Pradesh","Taluk":"Tuting"},{"officename":"Vijoynagar S.O","pincode":"792055","officetype":"S.O","deliverystatus":"Delivery","statename":"ARUNACHAL PRADESH","regionname":"Shillong HQ","circlename":"North Eastern","divisionname":"Arunachal Pradesh","Taluk":"Vijoynagar"},{"officename":"Yingkiong S.O","pincode":"791002","officetype":"S.O","deliverystatus":"Delivery","statename":"ARUNACHAL PRADESH","regionname":"Shillong HQ","circlename":"North Eastern","divisionname":"Arunachal Pradesh","Taluk":"Yingkiong"},{"officename":"Ziro S.O","pincode":"791120","officetype":"S.O","deliverystatus":"Delivery","statename":"ARUNACHAL PRADESH","regionname":"Shillong HQ","circlename":"North Eastern","divisionname":"Arunachal Pradesh","Taluk":"Ziro"},{"officename":"Roing S.O","pincode":"792110","officetype":"S.O","deliverystatus":"Delivery","statename":"ARUNACHAL PRADESH","regionname":"Shillong HQ","circlename":"North Eastern","divisionname":"Arunachal Pradesh","Taluk":"Roing"},{"officename":"Jairampur S.O (Changlang)","pincode":"792121","officetype":"S.O","deliverystatus":"Delivery","statename":"ARUNACHAL PRADESH","regionname":"Shillong HQ","circlename":"North Eastern","divisionname":"Arunachal Pradesh","Taluk":"Jairampur"},{"officename":"Jang S.O","pincode":"790105","officetype":"S.O","deliverystatus":"Delivery","statename":"ARUNACHAL PRADESH","regionname":"Shillong HQ","circlename":"North Eastern","divisionname":"Arunachal Pradesh","Taluk":"Tang"},{"officename":"Khonsa S.O","pincode":"792130","officetype":"S.O","deliverystatus":"Delivery","statename":"ARUNACHAL PRADESH","regionname":"Shillong HQ","circlename":"North Eastern","divisionname":"Arunachal Pradesh","Taluk":"Khonsa"},{"officename":"Kimin S.O","pincode":"791121","officetype":"S.O","deliverystatus":"Delivery","statename":"ARUNACHAL PRADESH","regionname":"Shillong HQ","circlename":"North Eastern","divisionname":"Arunachal Pradesh","Taluk":"Kimin"},{"officename":"Kalaktang S.O","pincode":"790002","officetype":"S.O","deliverystatus":"Delivery","statename":"ARUNACHAL PRADESH","regionname":"Shillong HQ","circlename":"North Eastern","divisionname":"Arunachal Pradesh","Taluk":"Kalaktang"},{"officename":"Likabali S.O","pincode":"791125","officetype":"S.O","deliverystatus":"Delivery","statename":"ARUNACHAL PRADESH","regionname":"Shillong HQ","circlename":"North Eastern","divisionname":"Arunachal Pradesh","Taluk":"Likabali"},{"officename":"Longding S.O","pincode":"792131","officetype":"S.O","deliverystatus":"Delivery","statename":"ARUNACHAL PRADESH","regionname":"Shillong HQ","circlename":"North Eastern","divisionname":"Arunachal Pradesh","Taluk":"Longding"},{"officename":"Lumla S.O","pincode":"790106","officetype":"S.O","deliverystatus":"Delivery","statename":"ARUNACHAL PRADESH","regionname":"Shillong HQ","circlename":"North Eastern","divisionname":"Arunachal Pradesh","Taluk":"Lumla"},{"officename":"Mahadevpur S.O (Lohit)","pincode":"792105","officetype":"S.O","deliverystatus":"Delivery","statename":"ARUNACHAL PRADESH","regionname":"Shillong HQ","circlename":"North Eastern","divisionname":"Arunachal Pradesh","Taluk":"Mahadevpur"},{"officename":"Mechuka S.O","pincode":"791003","officetype":"S.O","deliverystatus":"Delivery","statename":"ARUNACHAL PRADESH","regionname":"Shillong HQ","circlename":"North Eastern","divisionname":"Arunachal Pradesh","Taluk":"Mechuka"},{"officename":"Mebo S.O","pincode":"791104","officetype":"S.O","deliverystatus":"Delivery","statename":"ARUNACHAL PRADESH","regionname":"Shillong HQ","circlename":"North Eastern","divisionname":"Arunachal Pradesh","Taluk":"Mebo"},{"officename":"Miao S.O","pincode":"792122","officetype":"S.O","deliverystatus":"Delivery","statename":"ARUNACHAL PRADESH","regionname":"Shillong HQ","circlename":"North Eastern","divisionname":"Arunachal Pradesh","Taluk":"Miao"},{"officename":"Naharlagun S.O","pincode":"791110","officetype":"S.O","deliverystatus":"Delivery","statename":"ARUNACHAL PRADESH","regionname":"Shillong HQ","circlename":"North Eastern","divisionname":"Arunachal Pradesh","Taluk":"Naharlagun"},{"officename":"Nampong S.O","pincode":"792123","officetype":"S.O","deliverystatus":"Delivery","statename":"ARUNACHAL PRADESH","regionname":"Shillong HQ","circlename":"North Eastern","divisionname":"Arunachal Pradesh","Taluk":"Nampong"},{"officename":"Namsai S.O","pincode":"792103","officetype":"S.O","deliverystatus":"Delivery","statename":"ARUNACHAL PRADESH","regionname":"Shillong HQ","circlename":"North Eastern","divisionname":"Arunachal Pradesh","Taluk":"Namsai"},{"officename":"Nirjuli S.O","pincode":"791109","officetype":"S.O","deliverystatus":"Delivery","statename":"ARUNACHAL PRADESH","regionname":"Shillong HQ","circlename":"North Eastern","divisionname":"Arunachal Pradesh","Taluk":"Nirjuli"},{"officename":"Palin S.O","pincode":"791118","officetype":"S.O","deliverystatus":"Delivery","statename":"ARUNACHAL PRADESH","regionname":"Shillong HQ","circlename":"North Eastern","divisionname":"Arunachal Pradesh","Taluk":"Palin"},{"officename":"Pasighat S.O","pincode":"791102","officetype":"S.O","deliverystatus":"Delivery","statename":"ARUNACHAL PRADESH","regionname":"Shillong HQ","circlename":"North Eastern","divisionname":"Arunachal Pradesh","Taluk":"Pasighat"},{"officename":"Ranga Nadi Project S.O","pincode":"791119","officetype":"S.O","deliverystatus":"Delivery","statename":"ARUNACHAL PRADESH","regionname":"Shillong HQ","circlename":"North Eastern","divisionname":"Arunachal Pradesh","Taluk":"R N Project"},{"officename":"Ram Krishna Mission S.O","pincode":"791113","officetype":"S.O","deliverystatus":"Delivery","statename":"ARUNACHAL PRADESH","regionname":"Shillong HQ","circlename":"North Eastern","divisionname":"Arunachal Pradesh","Taluk":"Itanagar"},{"officename":"Rupa S.O","pincode":"790003","officetype":"S.O","deliverystatus":"Delivery","statename":"ARUNACHAL PRADESH","regionname":"Shillong HQ","circlename":"North Eastern","divisionname":"Arunachal Pradesh","Taluk":"Rupa"},{"officename":"Seppa S.O","pincode":"790102","officetype":"S.O","deliverystatus":"Delivery","statename":"ARUNACHAL PRADESH","regionname":"Shillong HQ","circlename":"North Eastern","divisionname":"Arunachal Pradesh","Taluk":"Seppa"},{"officename":"Seijosa S.O","pincode":"790103","officetype":"S.O","deliverystatus":"Delivery","statename":"ARUNACHAL PRADESH","regionname":"Shillong HQ","circlename":"North Eastern","divisionname":"Arunachal Pradesh","Taluk":"Seijosa"},{"officename":"Sunpura S.O","pincode":"792111","officetype":"S.O","deliverystatus":"Delivery","statename":"ARUNACHAL PRADESH","regionname":"Shillong HQ","circlename":"North Eastern","divisionname":"Arunachal Pradesh","Taluk":"Sunpura"},{"officename":"Tawang S.O","pincode":"790104","officetype":"S.O","deliverystatus":"Delivery","statename":"ARUNACHAL PRADESH","regionname":"Shillong HQ","circlename":"North Eastern","divisionname":"Arunachal Pradesh","Taluk":"Tawang"},{"officename":"Tenga Market S.O","pincode":"790116","officetype":"S.O","deliverystatus":"Delivery","statename":"ARUNACHAL PRADESH","regionname":"Shillong HQ","circlename":"North Eastern","divisionname":"Arunachal Pradesh","Taluk":"Tengaf Market"},{"officename":"Sagalee S.O","pincode":"791114","officetype":"S.O","deliverystatus":"Delivery","statename":"ARUNACHAL PRADESH","regionname":"Shillong HQ","circlename":"North Eastern","divisionname":"Arunachal Pradesh","Taluk":"Sagalee"},{"officename":"Itanagar H.O","pincode":"791111","officetype":"H.O","deliverystatus":"Delivery","statename":"ARUNACHAL PRADESH","regionname":"Shillong HQ","circlename":"North Eastern","divisionname":"Arunachal Pradesh","Taluk":"Itanagar"},{"officename":"Anelih B.O","pincode":"792110","officetype":"B.O","deliverystatus":"Delivery","statename":"ARUNACHAL PRADESH","regionname":"Shillong HQ","circlename":"North Eastern","divisionname":"Arunachal Pradesh","Taluk":"Roing"},{"officename":"Etalin B.O","pincode":"792101","officetype":"B.O","deliverystatus":"Delivery","statename":"ARUNACHAL PRADESH","regionname":"Shillong HQ","circlename":"North Eastern","divisionname":"Arunachal Pradesh","Taluk":"Anini"},{"officename":"Palizi B.O","pincode":"790001","officetype":"B.O","deliverystatus":"Delivery","statename":"ARUNACHAL PRADESH","regionname":"Shillong HQ","circlename":"North Eastern","divisionname":"Arunachal Pradesh","Taluk":"Bomdila"},{"officename":"Thrizino B.O","pincode":"790001","officetype":"B.O","deliverystatus":"Delivery","statename":"ARUNACHAL PRADESH","regionname":"Shillong HQ","circlename":"North Eastern","divisionname":"Arunachal Pradesh","Taluk":"Bomdila"},{"officename":"Lhou B.O","pincode":"790104","officetype":"B.O","deliverystatus":"Delivery","statename":"ARUNACHAL PRADESH","regionname":"Shillong HQ","circlename":"North Eastern","divisionname":"Arunachal Pradesh","Taluk":"Tawang"},{"officename":"Kanubari B.O B.O","pincode":"792131","officetype":"B.O","deliverystatus":"Delivery","statename":"ARUNACHAL PRADESH","regionname":"Shillong HQ","circlename":"North Eastern","divisionname":"Arunachal Pradesh","Taluk":"Longding"},{"officename":"Siiro B.O","pincode":"791120","officetype":"B.O","deliverystatus":"Delivery","statename":"ARUNACHAL PRADESH","regionname":"Shillong HQ","circlename":"North Eastern","divisionname":"Arunachal Pradesh","Taluk":"Ziro"},{"officename":"Hari B.O","pincode":"791120","officetype":"B.O","deliverystatus":"Delivery","statename":"ARUNACHAL PRADESH","regionname":"Shillong HQ","circlename":"North Eastern","divisionname":"Arunachal Pradesh","Taluk":"Ziro"},{"officename":"Hong B.O","pincode":"791120","officetype":"B.O","deliverystatus":"Delivery","statename":"ARUNACHAL PRADESH","regionname":"Shillong HQ","circlename":"North Eastern","divisionname":"Arunachal Pradesh","Taluk":"Ziro"},{"officename":"Jully B.O","pincode":"791113","officetype":"B.O","deliverystatus":"Delivery","statename":"ARUNACHAL PRADESH","regionname":"Shillong HQ","circlename":"North Eastern","divisionname":"Arunachal Pradesh","Taluk":"Itanagar"},{"officename":"Milonpur B.O","pincode":"792122","officetype":"B.O","deliverystatus":"Delivery","statename":"ARUNACHAL PRADESH","regionname":"Shillong HQ","circlename":"North Eastern","divisionname":"Arunachal Pradesh","Taluk":"Kharsang"},{"officename":"Kolaptukar B.O","pincode":"791123","officetype":"B.O","deliverystatus":"Delivery","statename":"ARUNACHAL PRADESH","regionname":"Shillong HQ","circlename":"North Eastern","divisionname":"Arunachal Pradesh","Taluk":"Raga"},{"officename":"Pessing B.O","pincode":"791001","officetype":"B.O","deliverystatus":"Delivery","statename":"ARUNACHAL PRADESH","regionname":"Shillong HQ","circlename":"North Eastern","divisionname":"Arunachal Pradesh","Taluk":"NA"},{"officename":"Rahung B.O","pincode":"790001","officetype":"B.O","deliverystatus":"Delivery","statename":"ARUNACHAL PRADESH","regionname":"Shillong HQ","circlename":"North Eastern","divisionname":"Arunachal Pradesh","Taluk":"NA"},{"officename":"Suchana Nagar B.O","pincode":"791113","officetype":"B.O","deliverystatus":"Delivery","statename":"ARUNACHAL PRADESH","regionname":"Shillong HQ","circlename":"North Eastern","divisionname":"Arunachal Pradesh","Taluk":"NA"},{"officename":"Munna Camp B.O","pincode":"790101","officetype":"B.O","deliverystatus":"Delivery","statename":"ARUNACHAL PRADESH","regionname":"Shillong HQ","circlename":"North Eastern","divisionname":"Arunachal Pradesh","Taluk":"Munna Camp"},{"officename":"Kaimai B.O","pincode":"792130","officetype":"B.O","deliverystatus":"Delivery","statename":"ARUNACHAL PRADESH","regionname":"Shillong HQ","circlename":"North Eastern","divisionname":"Arunachal Pradesh","Taluk":"Khonsa"},{"officename":"Namphai B.O","pincode":"792122","officetype":"B.O","deliverystatus":"Delivery","statename":"ARUNACHAL PRADESH","regionname":"Shillong HQ","circlename":"North Eastern","divisionname":"Arunachal Pradesh","Taluk":"Miao"},{"officename":"Kebang B.O","pincode":"791103","officetype":"B.O","deliverystatus":"Delivery","statename":"ARUNACHAL PRADESH","regionname":"Shillong HQ","circlename":"North Eastern","divisionname":"Arunachal Pradesh","Taluk":"Pasighat"},{"officename":"Paglam B.O","pincode":"792110","officetype":"B.O","deliverystatus":"Delivery","statename":"ARUNACHAL PRADESH","regionname":"Shillong HQ","circlename":"North Eastern","divisionname":"Arunachal Pradesh","Taluk":"Roing"},{"officename":"Geku B.O","pincode":"791002","officetype":"B.O","deliverystatus":"Delivery","statename":"ARUNACHAL PRADESH","regionname":"Shillong HQ","circlename":"North Eastern","divisionname":"Arunachal Pradesh","Taluk":"Yingkiong"},{"officename":"Korang B.O","pincode":"791102","officetype":"B.O","deliverystatus":"Delivery","statename":"ARUNACHAL PRADESH","regionname":"Shillong HQ","circlename":"North Eastern","divisionname":"Arunachal Pradesh","Taluk":"Pasighat"},{"officename":"Koyu B.O","pincode":"791102","officetype":"B.O","deliverystatus":"Delivery","statename":"ARUNACHAL PRADESH","regionname":"Shillong HQ","circlename":"North Eastern","divisionname":"Arunachal Pradesh","Taluk":"Pasighat"},{"officename":"Ledum B.O","pincode":"791102","officetype":"B.O","deliverystatus":"Delivery","statename":"ARUNACHAL PRADESH","regionname":"Shillong HQ","circlename":"North Eastern","divisionname":"Arunachal Pradesh","Taluk":"Pasighat"},{"officename":"Nari B.O","pincode":"791102","officetype":"B.O","deliverystatus":"Delivery","statename":"ARUNACHAL PRADESH","regionname":"Shillong HQ","circlename":"North Eastern","divisionname":"Arunachal Pradesh","Taluk":"Pasighat"},{"officename":"Oyan B.O","pincode":"791102","officetype":"B.O","deliverystatus":"Delivery","statename":"ARUNACHAL PRADESH","regionname":"Shillong HQ","circlename":"North Eastern","divisionname":"Arunachal Pradesh","Taluk":"Pasighat"},{"officename":"Pangin B.O","pincode":"791103","officetype":"B.O","deliverystatus":"Delivery","statename":"ARUNACHAL PRADESH","regionname":"Shillong HQ","circlename":"North Eastern","divisionname":"Arunachal Pradesh","Taluk":"Pasighat"},{"officename":"Ruksin B.O","pincode":"791102","officetype":"B.O","deliverystatus":"Delivery","statename":"ARUNACHAL PRADESH","regionname":"Shillong HQ","circlename":"North Eastern","divisionname":"Arunachal Pradesh","Taluk":"Pasighat"},{"officename":"Rani B.O","pincode":"791102","officetype":"B.O","deliverystatus":"Delivery","statename":"ARUNACHAL PRADESH","regionname":"Shillong HQ","circlename":"North Eastern","divisionname":"Arunachal Pradesh","Taluk":"Pasighat"},{"officename":"Renging B.O","pincode":"791103","officetype":"B.O","deliverystatus":"Delivery","statename":"ARUNACHAL PRADESH","regionname":"Shillong HQ","circlename":"North Eastern","divisionname":"Arunachal Pradesh","Taluk":"Pasighat"},{"officename":"Riga B.O","pincode":"791103","officetype":"B.O","deliverystatus":"Delivery","statename":"ARUNACHAL PRADESH","regionname":"Shillong HQ","circlename":"North Eastern","divisionname":"Arunachal Pradesh","Taluk":"Pasighat"},{"officename":"Sille B.O","pincode":"791102","officetype":"B.O","deliverystatus":"Delivery","statename":"ARUNACHAL PRADESH","regionname":"Shillong HQ","circlename":"North Eastern","divisionname":"Arunachal Pradesh","Taluk":"Pasighat"},{"officename":"Yagrung B.O","pincode":"791102","officetype":"B.O","deliverystatus":"Delivery","statename":"ARUNACHAL PRADESH","regionname":"Shillong HQ","circlename":"North Eastern","divisionname":"Arunachal Pradesh","Taluk":"Pasighat"},{"officename":"Mengio B.O","pincode":"791119","officetype":"B.O","deliverystatus":"Delivery","statename":"ARUNACHAL PRADESH","regionname":"Shillong HQ","circlename":"North Eastern","divisionname":"Arunachal Pradesh","Taluk":"Ziro"},{"officename":"Yazali B.O","pincode":"791119","officetype":"B.O","deliverystatus":"Delivery","statename":"ARUNACHAL PRADESH","regionname":"Shillong HQ","circlename":"North Eastern","divisionname":"Arunachal Pradesh","Taluk":"Ziro"},{"officename":"Chimpu B.O","pincode":"791113","officetype":"B.O","deliverystatus":"Delivery","statename":"ARUNACHAL PRADESH","regionname":"Shillong HQ","circlename":"North Eastern","divisionname":"Arunachal Pradesh","Taluk":"Itanagar"},{"officename":"Donyi Polo B.O","pincode":"791113","officetype":"B.O","deliverystatus":"Delivery","statename":"ARUNACHAL PRADESH","regionname":"Shillong HQ","circlename":"North Eastern","divisionname":"Arunachal Pradesh","Taluk":"Itanagar"},{"officename":"Vidya Vihar B.O","pincode":"791113","officetype":"B.O","deliverystatus":"Delivery","statename":"ARUNACHAL PRADESH","regionname":"Shillong HQ","circlename":"North Eastern","divisionname":"Arunachal Pradesh","Taluk":"Itanagar"},{"officename":"Shergaon B.O","pincode":"790003","officetype":"B.O","deliverystatus":"Delivery","statename":"ARUNACHAL PRADESH","regionname":"Shillong HQ","circlename":"North Eastern","divisionname":"Arunachal Pradesh","Taluk":"Rupa"},{"officename":"Abango B.O","pincode":"792110","officetype":"B.O","deliverystatus":"Delivery","statename":"ARUNACHAL PRADESH","regionname":"Shillong HQ","circlename":"North Eastern","divisionname":"Arunachal Pradesh","Taluk":"Roing"},{"officename":"Anupam B.O","pincode":"792110","officetype":"B.O","deliverystatus":"Delivery","statename":"ARUNACHAL PRADESH","regionname":"Shillong HQ","circlename":"North Eastern","divisionname":"Arunachal Pradesh","Taluk":"Roing"},{"officename":"Bolung B.O","pincode":"792110","officetype":"B.O","deliverystatus":"Delivery","statename":"ARUNACHAL PRADESH","regionname":"Shillong HQ","circlename":"North Eastern","divisionname":"Arunachal Pradesh","Taluk":"Roing"},{"officename":"Bijari B.O","pincode":"792110","officetype":"B.O","deliverystatus":"Delivery","statename":"ARUNACHAL PRADESH","regionname":"Shillong HQ","circlename":"North Eastern","divisionname":"Arunachal Pradesh","Taluk":"Roing"},{"officename":"Bomjir B.O","pincode":"792110","officetype":"B.O","deliverystatus":"Delivery","statename":"ARUNACHAL PRADESH","regionname":"Shillong HQ","circlename":"North Eastern","divisionname":"Arunachal Pradesh","Taluk":"Roing"},{"officename":"Desali B.O","pincode":"792110","officetype":"B.O","deliverystatus":"Delivery","statename":"ARUNACHAL PRADESH","regionname":"Shillong HQ","circlename":"North Eastern","divisionname":"Arunachal Pradesh","Taluk":"Roing"},{"officename":"Dambuk B.O","pincode":"792110","officetype":"B.O","deliverystatus":"Delivery","statename":"ARUNACHAL PRADESH","regionname":"Shillong HQ","circlename":"North Eastern","divisionname":"Arunachal Pradesh","Taluk":"Roing"},{"officename":"Elopa B.O","pincode":"792110","officetype":"B.O","deliverystatus":"Delivery","statename":"ARUNACHAL PRADESH","regionname":"Shillong HQ","circlename":"North Eastern","divisionname":"Arunachal Pradesh","Taluk":"Roing"},{"officename":"Hunli B.O","pincode":"792110","officetype":"B.O","deliverystatus":"Delivery","statename":"ARUNACHAL PRADESH","regionname":"Shillong HQ","circlename":"North Eastern","divisionname":"Arunachal Pradesh","Taluk":"Roing"},{"officename":"Iduli B.O","pincode":"792110","officetype":"B.O","deliverystatus":"Delivery","statename":"ARUNACHAL PRADESH","regionname":"Shillong HQ","circlename":"North Eastern","divisionname":"Arunachal Pradesh","Taluk":"Roing"},{"officename":"Jia B.O","pincode":"792110","officetype":"B.O","deliverystatus":"Delivery","statename":"ARUNACHAL PRADESH","regionname":"Shillong HQ","circlename":"North Eastern","divisionname":"Arunachal Pradesh","Taluk":"Roing"},{"officename":"Kronli B.O","pincode":"792110","officetype":"B.O","deliverystatus":"Delivery","statename":"ARUNACHAL PRADESH","regionname":"Shillong HQ","circlename":"North Eastern","divisionname":"Arunachal Pradesh","Taluk":"Roing"},{"officename":"Koronu B.O","pincode":"792110","officetype":"B.O","deliverystatus":"Delivery","statename":"ARUNACHAL PRADESH","regionname":"Shillong HQ","circlename":"North Eastern","divisionname":"Arunachal Pradesh","Taluk":"Koronu"},{"officename":"Meka B.O","pincode":"792110","officetype":"B.O","deliverystatus":"Delivery","statename":"ARUNACHAL PRADESH","regionname":"Shillong HQ","circlename":"North Eastern","divisionname":"Arunachal Pradesh","Taluk":"Roing"},{"officename":"Parbuk B.O","pincode":"792110","officetype":"B.O","deliverystatus":"Delivery","statename":"ARUNACHAL PRADESH","regionname":"Shillong HQ","circlename":"North Eastern","divisionname":"Arunachal Pradesh","Taluk":"Roing"},{"officename":"Santipur B.O","pincode":"792110","officetype":"B.O","deliverystatus":"Delivery","statename":"ARUNACHAL PRADESH","regionname":"Shillong HQ","circlename":"North Eastern","divisionname":"Arunachal Pradesh","Taluk":"Roing"},{"officename":"Bameng B.O","pincode":"790102","officetype":"B.O","deliverystatus":"Delivery","statename":"ARUNACHAL PRADESH","regionname":"Shillong HQ","circlename":"North Eastern","divisionname":"Arunachal Pradesh","Taluk":"Seppa"},{"officename":"Bana B.O","pincode":"790102","officetype":"B.O","deliverystatus":"Delivery","statename":"ARUNACHAL PRADESH","regionname":"Shillong HQ","circlename":"North Eastern","divisionname":"Arunachal Pradesh","Taluk":"Seppa"},{"officename":"Chyangtajo B.O","pincode":"790102","officetype":"B.O","deliverystatus":"Delivery","statename":"ARUNACHAL PRADESH","regionname":"Shillong HQ","circlename":"North Eastern","divisionname":"Arunachal Pradesh","Taluk":"Seppa"},{"officename":"Pipu-dipu B.O","pincode":"790102","officetype":"B.O","deliverystatus":"Delivery","statename":"ARUNACHAL PRADESH","regionname":"Shillong HQ","circlename":"North Eastern","divisionname":"Arunachal Pradesh","Taluk":"Seppa"},{"officename":"P.Kessang B.O","pincode":"790102","officetype":"B.O","deliverystatus":"Delivery","statename":"ARUNACHAL PRADESH","regionname":"Shillong HQ","circlename":"North Eastern","divisionname":"Arunachal Pradesh","Taluk":"Seppa"},{"officename":"Khenewa B.O","pincode":"790102","officetype":"B.O","deliverystatus":"Delivery","statename":"ARUNACHAL PRADESH","regionname":"Shillong HQ","circlename":"North Eastern","divisionname":"Arunachal Pradesh","Taluk":"Seppa"},{"officename":"Lada B.O","pincode":"790102","officetype":"B.O","deliverystatus":"Delivery","statename":"ARUNACHAL PRADESH","regionname":"Shillong HQ","circlename":"North Eastern","divisionname":"Arunachal Pradesh","Taluk":"Seppa"},{"officename":"Veo B.O","pincode":"790102","officetype":"B.O","deliverystatus":"Delivery","statename":"ARUNACHAL PRADESH","regionname":"Shillong HQ","circlename":"North Eastern","divisionname":"Arunachal Pradesh","Taluk":"Seppa"},{"officename":"Yealing B.O","pincode":"792111","officetype":"B.O","deliverystatus":"Delivery","statename":"ARUNACHAL PRADESH","regionname":"Shillong HQ","circlename":"North Eastern","divisionname":"Arunachal Pradesh","Taluk":"Sunpura"},{"officename":"B.Supply B.O","pincode":"790104","officetype":"B.O","deliverystatus":"Delivery","statename":"ARUNACHAL PRADESH","regionname":"Shillong HQ","circlename":"North Eastern","divisionname":"Arunachal Pradesh","Taluk":"Tawang"},{"officename":"Kitpi B.O","pincode":"790104","officetype":"B.O","deliverystatus":"Delivery","statename":"ARUNACHAL PRADESH","regionname":"Shillong HQ","circlename":"North Eastern","divisionname":"Arunachal Pradesh","Taluk":"Tawang"},{"officename":"Lumberdung B.O","pincode":"790104","officetype":"B.O","deliverystatus":"Delivery","statename":"ARUNACHAL PRADESH","regionname":"Shillong HQ","circlename":"North Eastern","divisionname":"Arunachal Pradesh","Taluk":"Tawang"},{"officename":"Sakpret B.O","pincode":"790104","officetype":"B.O","deliverystatus":"Delivery","statename":"ARUNACHAL PRADESH","regionname":"Shillong HQ","circlename":"North Eastern","divisionname":"Arunachal Pradesh","Taluk":"Tawang"},{"officename":"Temple Gompa B.O","pincode":"790104","officetype":"B.O","deliverystatus":"Delivery","statename":"ARUNACHAL PRADESH","regionname":"Shillong HQ","circlename":"North Eastern","divisionname":"Arunachal Pradesh","Taluk":"Tawang"},{"officename":"Dedza B.O","pincode":"790116","officetype":"B.O","deliverystatus":"Delivery","statename":"ARUNACHAL PRADESH","regionname":"Shillong HQ","circlename":"North Eastern","divisionname":"Arunachal Pradesh","Taluk":"Tenga Market"},{"officename":"Dahung B.O","pincode":"790116","officetype":"B.O","deliverystatus":"Delivery","statename":"ARUNACHAL PRADESH","regionname":"Shillong HQ","circlename":"North Eastern","divisionname":"Arunachal Pradesh","Taluk":"Tenga Market"},{"officename":"Singchung B.O","pincode":"790116","officetype":"B.O","deliverystatus":"Delivery","statename":"ARUNACHAL PRADESH","regionname":"Shillong HQ","circlename":"North Eastern","divisionname":"Arunachal Pradesh","Taluk":"Tenga Market"},{"officename":"Changliang B.O","pincode":"792001","officetype":"B.O","deliverystatus":"Delivery","statename":"ARUNACHAL PRADESH","regionname":"Shillong HQ","circlename":"North Eastern","divisionname":"Arunachal Pradesh","Taluk":"Tezu"},{"officename":"Gohaingaon B.O","pincode":"792001","officetype":"B.O","deliverystatus":"Delivery","statename":"ARUNACHAL PRADESH","regionname":"Shillong HQ","circlename":"North Eastern","divisionname":"Arunachal Pradesh","Taluk":"Tezu"},{"officename":"Danglat B.O","pincode":"792001","officetype":"B.O","deliverystatus":"Delivery","statename":"ARUNACHAL PRADESH","regionname":"Shillong HQ","circlename":"North Eastern","divisionname":"Arunachal Pradesh","Taluk":"Tezu"},{"officename":"Lohitpur B.O","pincode":"792001","officetype":"B.O","deliverystatus":"Delivery","statename":"ARUNACHAL PRADESH","regionname":"Shillong HQ","circlename":"North Eastern","divisionname":"Arunachal Pradesh","Taluk":"Tezu"},{"officename":"Tindolong B.O","pincode":"792001","officetype":"B.O","deliverystatus":"Delivery","statename":"ARUNACHAL PRADESH","regionname":"Shillong HQ","circlename":"North Eastern","divisionname":"Arunachal Pradesh","Taluk":"Tezu"},{"officename":"Tafragam B.O","pincode":"792001","officetype":"B.O","deliverystatus":"Delivery","statename":"ARUNACHAL PRADESH","regionname":"Shillong HQ","circlename":"North Eastern","divisionname":"Arunachal Pradesh","Taluk":"Tezu"},{"officename":"Loiliang B.O","pincode":"792001","officetype":"B.O","deliverystatus":"Delivery","statename":"ARUNACHAL PRADESH","regionname":"Shillong HQ","circlename":"North Eastern","divisionname":"Arunachal Pradesh","Taluk":"Tezu"},{"officename":"Tezu Govt. College B.O","pincode":"792001","officetype":"B.O","deliverystatus":"Delivery","statename":"ARUNACHAL PRADESH","regionname":"Shillong HQ","circlename":"North Eastern","divisionname":"Arunachal Pradesh","Taluk":"Tezu"},{"officename":"Gelling B.O","pincode":"791105","officetype":"B.O","deliverystatus":"Delivery","statename":"ARUNACHAL PRADESH","regionname":"Shillong HQ","circlename":"North Eastern","divisionname":"Arunachal Pradesh","Taluk":"Tuting"},{"officename":"Migging B.O","pincode":"791105","officetype":"B.O","deliverystatus":"Delivery","statename":"ARUNACHAL PRADESH","regionname":"Shillong HQ","circlename":"North Eastern","divisionname":"Arunachal Pradesh","Taluk":"Tuting"},{"officename":"Singa B.O","pincode":"791105","officetype":"B.O","deliverystatus":"Delivery","statename":"ARUNACHAL PRADESH","regionname":"Shillong HQ","circlename":"North Eastern","divisionname":"Arunachal Pradesh","Taluk":"Tuting"},{"officename":"Gandhigram B.O","pincode":"792055","officetype":"B.O","deliverystatus":"Delivery","statename":"ARUNACHAL PRADESH","regionname":"Shillong HQ","circlename":"North Eastern","divisionname":"Arunachal Pradesh","Taluk":"Vijoynagar"},{"officename":"Two Hut B.O","pincode":"792055","officetype":"B.O","deliverystatus":"Delivery","statename":"ARUNACHAL PRADESH","regionname":"Shillong HQ","circlename":"North Eastern","divisionname":"Arunachal Pradesh","Taluk":"Vijoynagar"},{"officename":"Karko B.O","pincode":"791002","officetype":"B.O","deliverystatus":"Delivery","statename":"ARUNACHAL PRADESH","regionname":"Shillong HQ","circlename":"North Eastern","divisionname":"Arunachal Pradesh","Taluk":"Yingkiong"},{"officename":"Mariyang B.O","pincode":"791002","officetype":"B.O","deliverystatus":"Delivery","statename":"ARUNACHAL PRADESH","regionname":"Shillong HQ","circlename":"North Eastern","divisionname":"Arunachal Pradesh","Taluk":"Yingkiong"},{"officename":"Shimong B.O","pincode":"791002","officetype":"B.O","deliverystatus":"Delivery","statename":"ARUNACHAL PRADESH","regionname":"Shillong HQ","circlename":"North Eastern","divisionname":"Arunachal Pradesh","Taluk":"Yingkiong"},{"officename":"Boasimla B.O","pincode":"791120","officetype":"B.O","deliverystatus":"Delivery","statename":"ARUNACHAL PRADESH","regionname":"Shillong HQ","circlename":"North Eastern","divisionname":"Arunachal Pradesh","Taluk":"Ziro"},{"officename":"Deed B.O","pincode":"791120","officetype":"B.O","deliverystatus":"Delivery","statename":"ARUNACHAL PRADESH","regionname":"Shillong HQ","circlename":"North Eastern","divisionname":"Arunachal Pradesh","Taluk":"Ziro"},{"officename":"Godak B.O","pincode":"791120","officetype":"B.O","deliverystatus":"Delivery","statename":"ARUNACHAL PRADESH","regionname":"Shillong HQ","circlename":"North Eastern","divisionname":"Arunachal Pradesh","Taluk":"Ziro"},{"officename":"Hija B.O","pincode":"791120","officetype":"B.O","deliverystatus":"Delivery","statename":"ARUNACHAL PRADESH","regionname":"Shillong HQ","circlename":"North Eastern","divisionname":"Arunachal Pradesh","Taluk":"Ziro"},{"officename":"Joram B.O","pincode":"791120","officetype":"B.O","deliverystatus":"Delivery","statename":"ARUNACHAL PRADESH","regionname":"Shillong HQ","circlename":"North Eastern","divisionname":"Arunachal Pradesh","Taluk":"Ziro"},{"officename":"Old Ziro B.O","pincode":"791120","officetype":"B.O","deliverystatus":"Delivery","statename":"ARUNACHAL PRADESH","regionname":"Shillong HQ","circlename":"North Eastern","divisionname":"Arunachal Pradesh","Taluk":"Ziro"},{"officename":"Raga B.O","pincode":"791120","officetype":"B.O","deliverystatus":"Delivery","statename":"ARUNACHAL PRADESH","regionname":"Shillong HQ","circlename":"North Eastern","divisionname":"Arunachal Pradesh","Taluk":"Ziro"},{"officename":"Talo B.O","pincode":"791120","officetype":"B.O","deliverystatus":"Delivery","statename":"ARUNACHAL PRADESH","regionname":"Shillong HQ","circlename":"North Eastern","divisionname":"Arunachal Pradesh","Taluk":"Ziro"},{"officename":"Yachuli B.O","pincode":"791120","officetype":"B.O","deliverystatus":"Delivery","statename":"ARUNACHAL PRADESH","regionname":"Shillong HQ","circlename":"North Eastern","divisionname":"Arunachal Pradesh","Taluk":"Ziro"},{"officename":"Yangkang B.O","pincode":"792120","officetype":"B.O","deliverystatus":"Delivery","statename":"ARUNACHAL PRADESH","regionname":"Shillong HQ","circlename":"North Eastern","divisionname":"Arunachal Pradesh","Taluk":"Yangkang"},{"officename":"Alubari B.O","pincode":"792102","officetype":"B.O","deliverystatus":"Delivery","statename":"ARUNACHAL PRADESH","regionname":"Shillong HQ","circlename":"North Eastern","divisionname":"Arunachal Pradesh","Taluk":"Chowkham"},{"officename":"Chakma B.O","pincode":"792102","officetype":"B.O","deliverystatus":"Delivery","statename":"ARUNACHAL PRADESH","regionname":"Shillong HQ","circlename":"North Eastern","divisionname":"Arunachal Pradesh","Taluk":"Chowkham"},{"officename":"Kamlang Nagar B.O","pincode":"792102","officetype":"B.O","deliverystatus":"Delivery","statename":"ARUNACHAL PRADESH","regionname":"Shillong HQ","circlename":"North Eastern","divisionname":"Arunachal Pradesh","Taluk":"Kamlang Nagar"},{"officename":"Kherem B.O","pincode":"792102","officetype":"B.O","deliverystatus":"Delivery","statename":"ARUNACHAL PRADESH","regionname":"Shillong HQ","circlename":"North Eastern","divisionname":"Arunachal Pradesh","Taluk":"Chowkham"},{"officename":"Medo B.O","pincode":"792102","officetype":"B.O","deliverystatus":"Delivery","statename":"ARUNACHAL PRADESH","regionname":"Shillong HQ","circlename":"North Eastern","divisionname":"Arunachal Pradesh","Taluk":"Medo"},{"officename":"Momong B.O","pincode":"792102","officetype":"B.O","deliverystatus":"Delivery","statename":"ARUNACHAL PRADESH","regionname":"Shillong HQ","circlename":"North Eastern","divisionname":"Arunachal Pradesh","Taluk":"Momong"},{"officename":"Wakro B.O","pincode":"792102","officetype":"B.O","deliverystatus":"Delivery","statename":"ARUNACHAL PRADESH","regionname":"Shillong HQ","circlename":"North Eastern","divisionname":"Arunachal Pradesh","Taluk":"Wakro"},{"officename":"Dumporijo B.O","pincode":"791122","officetype":"B.O","deliverystatus":"Delivery","statename":"ARUNACHAL PRADESH","regionname":"Shillong HQ","circlename":"North Eastern","divisionname":"Arunachal Pradesh","Taluk":"Dumporijo"},{"officename":"Giba B.O","pincode":"791122","officetype":"B.O","deliverystatus":"Delivery","statename":"ARUNACHAL PRADESH","regionname":"Shillong HQ","circlename":"North Eastern","divisionname":"Arunachal Pradesh","Taluk":"Giba"},{"officename":"Maro B.O","pincode":"791122","officetype":"B.O","deliverystatus":"Delivery","statename":"ARUNACHAL PRADESH","regionname":"Shillong HQ","circlename":"North Eastern","divisionname":"Arunachal Pradesh","Taluk":"Maro"},{"officename":"Muri B.O","pincode":"791122","officetype":"B.O","deliverystatus":"Delivery","statename":"ARUNACHAL PRADESH","regionname":"Shillong HQ","circlename":"North Eastern","divisionname":"Arunachal Pradesh","Taluk":"Muri"},{"officename":"Nacho B.O","pincode":"791122","officetype":"B.O","deliverystatus":"Delivery","statename":"ARUNACHAL PRADESH","regionname":"Shillong HQ","circlename":"North Eastern","divisionname":"Arunachal Pradesh","Taluk":"Nacho"},{"officename":"Sippi B.O","pincode":"791122","officetype":"B.O","deliverystatus":"Delivery","statename":"ARUNACHAL PRADESH","regionname":"Shillong HQ","circlename":"North Eastern","divisionname":"Arunachal Pradesh","Taluk":"Sippi"},{"officename":"Siyum B.O","pincode":"791122","officetype":"B.O","deliverystatus":"Delivery","statename":"ARUNACHAL PRADESH","regionname":"Shillong HQ","circlename":"North Eastern","divisionname":"Arunachal Pradesh","Taluk":"Siyum"},{"officename":"Taksing B.O","pincode":"791122","officetype":"B.O","deliverystatus":"Delivery","statename":"ARUNACHAL PRADESH","regionname":"Shillong HQ","circlename":"North Eastern","divisionname":"Arunachal Pradesh","Taluk":"Taksing"},{"officename":"Taliha B.O","pincode":"791122","officetype":"B.O","deliverystatus":"Delivery","statename":"ARUNACHAL PRADESH","regionname":"Shillong HQ","circlename":"North Eastern","divisionname":"Arunachal Pradesh","Taluk":"Taliha"},{"officename":"Bagra B.O","pincode":"791001","officetype":"B.O","deliverystatus":"Delivery","statename":"ARUNACHAL PRADESH","regionname":"Shillong HQ","circlename":"North Eastern","divisionname":"Arunachal Pradesh","Taluk":"Bagra"},{"officename":"Bene B.O","pincode":"791001","officetype":"B.O","deliverystatus":"Delivery","statename":"ARUNACHAL PRADESH","regionname":"Shillong HQ","circlename":"North Eastern","divisionname":"Arunachal Pradesh","Taluk":"Bene"},{"officename":"Darka B.O","pincode":"791001","officetype":"B.O","deliverystatus":"Delivery","statename":"ARUNACHAL PRADESH","regionname":"Shillong HQ","circlename":"North Eastern","divisionname":"Arunachal Pradesh","Taluk":"Darka"},{"officename":"Kombo B.O","pincode":"791001","officetype":"B.O","deliverystatus":"Delivery","statename":"ARUNACHAL PRADESH","regionname":"Shillong HQ","circlename":"North Eastern","divisionname":"Arunachal Pradesh","Taluk":"Kombo"},{"officename":"Darak B.O","pincode":"791001","officetype":"B.O","deliverystatus":"Delivery","statename":"ARUNACHAL PRADESH","regionname":"Shillong HQ","circlename":"North Eastern","divisionname":"Arunachal Pradesh","Taluk":"Darak"},{"officename":"Kambang B.O","pincode":"791001","officetype":"B.O","deliverystatus":"Delivery","statename":"ARUNACHAL PRADESH","regionname":"Shillong HQ","circlename":"North Eastern","divisionname":"Arunachal Pradesh","Taluk":"Kambang"},{"officename":"Kaying B.O","pincode":"791001","officetype":"B.O","deliverystatus":"Delivery","statename":"ARUNACHAL PRADESH","regionname":"Shillong HQ","circlename":"North Eastern","divisionname":"Arunachal Pradesh","Taluk":"Kaying"},{"officename":"Logum Jining B.O","pincode":"791001","officetype":"B.O","deliverystatus":"Delivery","statename":"ARUNACHAL PRADESH","regionname":"Shillong HQ","circlename":"North Eastern","divisionname":"Arunachal Pradesh","Taluk":"Logum Jining"},{"officename":"Monigong B.O","pincode":"791001","officetype":"B.O","deliverystatus":"Delivery","statename":"ARUNACHAL PRADESH","regionname":"Shillong HQ","circlename":"North Eastern","divisionname":"Arunachal Pradesh","Taluk":"Monigong"},{"officename":"Nikte B.O","pincode":"791001","officetype":"B.O","deliverystatus":"Delivery","statename":"ARUNACHAL PRADESH","regionname":"Shillong HQ","circlename":"North Eastern","divisionname":"Arunachal Pradesh","Taluk":"Nikte"},{"officename":"Payum B.O","pincode":"791001","officetype":"B.O","deliverystatus":"Delivery","statename":"ARUNACHAL PRADESH","regionname":"Shillong HQ","circlename":"North Eastern","divisionname":"Arunachal Pradesh","Taluk":"Payum"},{"officename":"Rumgong B.O","pincode":"791001","officetype":"B.O","deliverystatus":"Delivery","statename":"ARUNACHAL PRADESH","regionname":"Shillong HQ","circlename":"North Eastern","divisionname":"Arunachal Pradesh","Taluk":"Gumgong"},{"officename":"Tato B.O","pincode":"791001","officetype":"B.O","deliverystatus":"Delivery","statename":"ARUNACHAL PRADESH","regionname":"Shillong HQ","circlename":"North Eastern","divisionname":"Arunachal Pradesh","Taluk":"Tato"},{"officename":"Vivek Nagar B.O","pincode":"791001","officetype":"B.O","deliverystatus":"Delivery","statename":"ARUNACHAL PRADESH","regionname":"Shillong HQ","circlename":"North Eastern","divisionname":"Arunachal Pradesh","Taluk":"Vivek Nagar"},{"officename":"Yomcha B.O","pincode":"791001","officetype":"B.O","deliverystatus":"Delivery","statename":"ARUNACHAL PRADESH","regionname":"Shillong HQ","circlename":"North Eastern","divisionname":"Arunachal Pradesh","Taluk":"Yomcha"},{"officename":"Yoji Yora B.O","pincode":"791001","officetype":"B.O","deliverystatus":"Delivery","statename":"ARUNACHAL PRADESH","regionname":"Shillong HQ","circlename":"North Eastern","divisionname":"Arunachal Pradesh","Taluk":"Yoji Yora"},{"officename":"Alinye B.O","pincode":"792101","officetype":"B.O","deliverystatus":"Delivery","statename":"ARUNACHAL PRADESH","regionname":"Shillong HQ","circlename":"North Eastern","divisionname":"Arunachal Pradesh","Taluk":"Alinye"},{"officename":"Balijan B.O","pincode":"791123","officetype":"B.O","deliverystatus":"Delivery","statename":"ARUNACHAL PRADESH","regionname":"Shillong HQ","circlename":"North Eastern","divisionname":"Arunachal Pradesh","Taluk":"Balijan"},{"officename":"Kokila B.O","pincode":"791123","officetype":"B.O","deliverystatus":"Delivery","statename":"ARUNACHAL PRADESH","regionname":"Shillong HQ","circlename":"North Eastern","divisionname":"Arunachal Pradesh","Taluk":"Kokila"},{"officename":"Sonajuli B.O","pincode":"791123","officetype":"B.O","deliverystatus":"Delivery","statename":"ARUNACHAL PRADESH","regionname":"Shillong HQ","circlename":"North Eastern","divisionname":"Arunachal Pradesh","Taluk":"Sonajuli"},{"officename":"Bame B.O","pincode":"791101","officetype":"B.O","deliverystatus":"Delivery","statename":"ARUNACHAL PRADESH","regionname":"Shillong HQ","circlename":"North Eastern","divisionname":"Arunachal Pradesh","Taluk":"Bame"},{"officename":"Daring B.O","pincode":"791101","officetype":"B.O","deliverystatus":"Delivery","statename":"ARUNACHAL PRADESH","regionname":"Shillong HQ","circlename":"North Eastern","divisionname":"Arunachal Pradesh","Taluk":"Daring"},{"officename":"Dali B.O","pincode":"791101","officetype":"B.O","deliverystatus":"Delivery","statename":"ARUNACHAL PRADESH","regionname":"Shillong HQ","circlename":"North Eastern","divisionname":"Arunachal Pradesh","Taluk":"Dali"},{"officename":"Liromoba B.O","pincode":"791101","officetype":"B.O","deliverystatus":"Delivery","statename":"ARUNACHAL PRADESH","regionname":"Shillong HQ","circlename":"North Eastern","divisionname":"Arunachal Pradesh","Taluk":"Liromoba"},{"officename":"Tirbin B.O","pincode":"791101","officetype":"B.O","deliverystatus":"Delivery","statename":"ARUNACHAL PRADESH","regionname":"Shillong HQ","circlename":"North Eastern","divisionname":"Arunachal Pradesh","Taluk":"Tirbin"},{"officename":"Khellong B.O","pincode":"790114","officetype":"B.O","deliverystatus":"Delivery","statename":"ARUNACHAL PRADESH","regionname":"Shillong HQ","circlename":"North Eastern","divisionname":"Arunachal Pradesh","Taluk":"Khellong"},{"officename":"Tippi B.O","pincode":"790114","officetype":"B.O","deliverystatus":"Delivery","statename":"ARUNACHAL PRADESH","regionname":"Shillong HQ","circlename":"North Eastern","divisionname":"Arunachal Pradesh","Taluk":"Tippi"},{"officename":"Kherem Bisa B.O","pincode":"792056","officetype":"B.O","deliverystatus":"Delivery","statename":"ARUNACHAL PRADESH","regionname":"Shillong HQ","circlename":"North Eastern","divisionname":"Arunachal Pradesh","Taluk":"Kherem Bisa"},{"officename":"Lallung B.O","pincode":"792056","officetype":"B.O","deliverystatus":"Delivery","statename":"ARUNACHAL PRADESH","regionname":"Shillong HQ","circlename":"North Eastern","divisionname":"Arunachal Pradesh","Taluk":"Lallung"},{"officename":"Rajanagar B.O","pincode":"792056","officetype":"B.O","deliverystatus":"Delivery","statename":"ARUNACHAL PRADESH","regionname":"Shillong HQ","circlename":"North Eastern","divisionname":"Arunachal Pradesh","Taluk":"Rajanagar"},{"officename":"New Mohong B.O","pincode":"792056","officetype":"B.O","deliverystatus":"Delivery","statename":"ARUNACHAL PRADESH","regionname":"Shillong HQ","circlename":"North Eastern","divisionname":"Arunachal Pradesh","Taluk":"Lekang"},{"officename":"Vijoypur B.O","pincode":"792056","officetype":"B.O","deliverystatus":"Delivery","statename":"ARUNACHAL PRADESH","regionname":"Shillong HQ","circlename":"North Eastern","divisionname":"Arunachal Pradesh","Taluk":"Vijoypur"},{"officename":"Nafra B.O","pincode":"790001","officetype":"B.O","deliverystatus":"Delivery","statename":"ARUNACHAL PRADESH","regionname":"Shillong HQ","circlename":"North Eastern","divisionname":"Arunachal Pradesh","Taluk":"Nafra"},{"officename":"Salari B.O","pincode":"790001","officetype":"B.O","deliverystatus":"Delivery","statename":"ARUNACHAL PRADESH","regionname":"Shillong HQ","circlename":"North Eastern","divisionname":"Arunachal Pradesh","Taluk":"Salari"},{"officename":"Bubang B.O","pincode":"792120","officetype":"B.O","deliverystatus":"Delivery","statename":"ARUNACHAL PRADESH","regionname":"Shillong HQ","circlename":"North Eastern","divisionname":"Arunachal Pradesh","Taluk":"Bubang"},{"officename":"Khemiyong B.O","pincode":"792120","officetype":"B.O","deliverystatus":"Delivery","statename":"ARUNACHAL PRADESH","regionname":"Shillong HQ","circlename":"North Eastern","divisionname":"Arunachal Pradesh","Taluk":"Khemiyong"},{"officename":"Namdang B.O","pincode":"792120","officetype":"B.O","deliverystatus":"Delivery","statename":"ARUNACHAL PRADESH","regionname":"Shillong HQ","circlename":"North Eastern","divisionname":"Arunachal Pradesh","Taluk":"Namdang"},{"officename":"Namtok B.O","pincode":"792120","officetype":"B.O","deliverystatus":"Delivery","statename":"ARUNACHAL PRADESH","regionname":"Shillong HQ","circlename":"North Eastern","divisionname":"Arunachal Pradesh","Taluk":"Namtok"},{"officename":"Rangfra Govt.College B.O","pincode":"792120","officetype":"B.O","deliverystatus":"Delivery","statename":"ARUNACHAL PRADESH","regionname":"Shillong HQ","circlename":"North Eastern","divisionname":"Arunachal Pradesh","Taluk":"Changlang"},{"officename":"Ranglum B.O","pincode":"792120","officetype":"B.O","deliverystatus":"Delivery","statename":"ARUNACHAL PRADESH","regionname":"Shillong HQ","circlename":"North Eastern","divisionname":"Arunachal Pradesh","Taluk":"Ranglum"},{"officename":"Tabarijo B.O","pincode":"791122","officetype":"B.O","deliverystatus":"Delivery","statename":"ARUNACHAL PRADESH","regionname":"Shillong HQ","circlename":"North Eastern","divisionname":"Arunachal Pradesh","Taluk":"Tabarijo"},{"officename":"Lemiking B.O","pincode":"791122","officetype":"B.O","deliverystatus":"Delivery","statename":"ARUNACHAL PRADESH","regionname":"Shillong HQ","circlename":"North Eastern","divisionname":"Arunachal Pradesh","Taluk":"Lemiking"},{"officename":"Lepajaring B.O","pincode":"791122","officetype":"B.O","deliverystatus":"Delivery","statename":"ARUNACHAL PRADESH","regionname":"Shillong HQ","circlename":"North Eastern","divisionname":"Arunachal Pradesh","Taluk":"Lepajaring"},{"officename":"Hukanjuri B.O","pincode":"792129","officetype":"B.O","deliverystatus":"Delivery","statename":"ARUNACHAL PRADESH","regionname":"Shillong HQ","circlename":"North Eastern","divisionname":"Arunachal Pradesh","Taluk":"Deomali"},{"officename":"Namsang B.O","pincode":"792129","officetype":"B.O","deliverystatus":"Delivery","statename":"ARUNACHAL PRADESH","regionname":"Shillong HQ","circlename":"North Eastern","divisionname":"Arunachal Pradesh","Taluk":"Deomali"},{"officename":"Namsang Mukh B.O","pincode":"792129","officetype":"B.O","deliverystatus":"Delivery","statename":"ARUNACHAL PRADESH","regionname":"Shillong HQ","circlename":"North Eastern","divisionname":"Arunachal Pradesh","Taluk":"Deomali"},{"officename":"Narottam Nagar B.O","pincode":"792129","officetype":"B.O","deliverystatus":"Delivery","statename":"ARUNACHAL PRADESH","regionname":"Shillong HQ","circlename":"North Eastern","divisionname":"Arunachal Pradesh","Taluk":"Deomali"},{"officename":"Soha B.O","pincode":"792129","officetype":"B.O","deliverystatus":"Delivery","statename":"ARUNACHAL PRADESH","regionname":"Shillong HQ","circlename":"North Eastern","divisionname":"Arunachal Pradesh","Taluk":"Deomali"},{"officename":"Dirang Basti B.O","pincode":"790101","officetype":"B.O","deliverystatus":"Delivery","statename":"ARUNACHAL PRADESH","regionname":"Shillong HQ","circlename":"North Eastern","divisionname":"Arunachal Pradesh","Taluk":"Dirang Basti"},{"officename":"Lish B.O","pincode":"790101","officetype":"B.O","deliverystatus":"Delivery","statename":"ARUNACHAL PRADESH","regionname":"Shillong HQ","circlename":"North Eastern","divisionname":"Arunachal Pradesh","Taluk":"Lish"},{"officename":"Sangti B.O","pincode":"790101","officetype":"B.O","deliverystatus":"Delivery","statename":"ARUNACHAL PRADESH","regionname":"Shillong HQ","circlename":"North Eastern","divisionname":"Arunachal Pradesh","Taluk":"Sangti"},{"officename":"Senge B.O","pincode":"790101","officetype":"B.O","deliverystatus":"Delivery","statename":"ARUNACHAL PRADESH","regionname":"Shillong HQ","circlename":"North Eastern","divisionname":"Arunachal Pradesh","Taluk":"Senge"},{"officename":"Arunachal University B.O","pincode":"791112","officetype":"B.O","deliverystatus":"Delivery","statename":"ARUNACHAL PRADESH","regionname":"Shillong HQ","circlename":"North Eastern","divisionname":"Arunachal Pradesh","Taluk":"Yupia"},{"officename":"Kheel B.O","pincode":"791112","officetype":"B.O","deliverystatus":"Delivery","statename":"ARUNACHAL PRADESH","regionname":"Shillong HQ","circlename":"North Eastern","divisionname":"Arunachal Pradesh","Taluk":"Doimukh"},{"officename":"Midpu B.O","pincode":"791112","officetype":"B.O","deliverystatus":"Delivery","statename":"ARUNACHAL PRADESH","regionname":"Shillong HQ","circlename":"North Eastern","divisionname":"Arunachal Pradesh","Taluk":"Doimukh"},{"officename":"Chaglagam B.O","pincode":"792104","officetype":"B.O","deliverystatus":"Delivery","statename":"ARUNACHAL PRADESH","regionname":"Shillong HQ","circlename":"North Eastern","divisionname":"Arunachal Pradesh","Taluk":"Hayuliang"},{"officename":"Goiliang B.O","pincode":"792104","officetype":"B.O","deliverystatus":"Delivery","statename":"ARUNACHAL PRADESH","regionname":"Shillong HQ","circlename":"North Eastern","divisionname":"Arunachal Pradesh","Taluk":"Hayuliang"},{"officename":"Hawai B.O","pincode":"792104","officetype":"B.O","deliverystatus":"Delivery","statename":"ARUNACHAL PRADESH","regionname":"Shillong HQ","circlename":"North Eastern","divisionname":"Arunachal Pradesh","Taluk":"Hayuliang"},{"officename":"Kibitho B.O","pincode":"792104","officetype":"B.O","deliverystatus":"Delivery","statename":"ARUNACHAL PRADESH","regionname":"Shillong HQ","circlename":"North Eastern","divisionname":"Arunachal Pradesh","Taluk":"Hayuliang"},{"officename":"Khopa B.O","pincode":"792104","officetype":"B.O","deliverystatus":"Delivery","statename":"ARUNACHAL PRADESH","regionname":"Shillong HQ","circlename":"North Eastern","divisionname":"Arunachal Pradesh","Taluk":"Hayulinag"},{"officename":"Meteliang B.O","pincode":"792104","officetype":"B.O","deliverystatus":"Delivery","statename":"ARUNACHAL PRADESH","regionname":"Shillong HQ","circlename":"North Eastern","divisionname":"Arunachal Pradesh","Taluk":"Hayuliang"},{"officename":"Wallong B.O","pincode":"792104","officetype":"B.O","deliverystatus":"Delivery","statename":"ARUNACHAL PRADESH","regionname":"Shillong HQ","circlename":"North Eastern","divisionname":"Arunachal Pradesh","Taluk":"Hayuliang"},{"officename":"Yatong B.O","pincode":"792104","officetype":"B.O","deliverystatus":"Delivery","statename":"ARUNACHAL PRADESH","regionname":"Shillong HQ","circlename":"North Eastern","divisionname":"Arunachal Pradesh","Taluk":"Hayuliang"},{"officename":"Manmao B.O","pincode":"792121","officetype":"B.O","deliverystatus":"Delivery","statename":"ARUNACHAL PRADESH","regionname":"Shillong HQ","circlename":"North Eastern","divisionname":"Arunachal Pradesh","Taluk":"Jairampur"},{"officename":"Thingbu B.O","pincode":"790105","officetype":"B.O","deliverystatus":"Delivery","statename":"ARUNACHAL PRADESH","regionname":"Shillong HQ","circlename":"North Eastern","divisionname":"Arunachal Pradesh","Taluk":"Jang"},{"officename":"Mukto B.O","pincode":"790105","officetype":"B.O","deliverystatus":"Delivery","statename":"ARUNACHAL PRADESH","regionname":"Shillong HQ","circlename":"North Eastern","divisionname":"Arunachal Pradesh","Taluk":"Jang"},{"officename":"Balemu B.O","pincode":"790002","officetype":"B.O","deliverystatus":"Delivery","statename":"ARUNACHAL PRADESH","regionname":"Shillong HQ","circlename":"North Eastern","divisionname":"Arunachal Pradesh","Taluk":"Kalaktang"},{"officename":"Tenzingaon B.O","pincode":"790002","officetype":"B.O","deliverystatus":"Delivery","statename":"ARUNACHAL PRADESH","regionname":"Shillong HQ","circlename":"North Eastern","divisionname":"Arunachal Pradesh","Taluk":"Kalaktang"},{"officename":"Borduria B.O","pincode":"792130","officetype":"B.O","deliverystatus":"Delivery","statename":"ARUNACHAL PRADESH","regionname":"Shillong HQ","circlename":"North Eastern","divisionname":"Arunachal Pradesh","Taluk":"Khonsa"},{"officename":"Dadam B.O","pincode":"792130","officetype":"B.O","deliverystatus":"Delivery","statename":"ARUNACHAL PRADESH","regionname":"Shillong HQ","circlename":"North Eastern","divisionname":"Arunachal Pradesh","Taluk":"Khonsa"},{"officename":"Kapu B.O","pincode":"792130","officetype":"B.O","deliverystatus":"Delivery","statename":"ARUNACHAL PRADESH","regionname":"Shillong HQ","circlename":"North Eastern","divisionname":"Arunachal Pradesh","Taluk":"Khonsa"},{"officename":"Kanubari B.O","pincode":"792130","officetype":"B.O","deliverystatus":"Delivery","statename":"ARUNACHAL PRADESH","regionname":"Shillong HQ","circlename":"North Eastern","divisionname":"Arunachal Pradesh","Taluk":"Kanubari"},{"officename":"Khonsa Basti B.O","pincode":"792130","officetype":"B.O","deliverystatus":"Delivery","statename":"ARUNACHAL PRADESH","regionname":"Shillong HQ","circlename":"North Eastern","divisionname":"Arunachal Pradesh","Taluk":"Khonsa"},{"officename":"Khela B.O","pincode":"792130","officetype":"B.O","deliverystatus":"Delivery","statename":"ARUNACHAL PRADESH","regionname":"Shillong HQ","circlename":"North Eastern","divisionname":"Arunachal Pradesh","Taluk":"Khonsa"},{"officename":"Kheti B.O","pincode":"792130","officetype":"B.O","deliverystatus":"Delivery","statename":"ARUNACHAL PRADESH","regionname":"Shillong HQ","circlename":"North Eastern","divisionname":"Arunachal Pradesh","Taluk":"Khonsa"},{"officename":"Lazu B.O","pincode":"792130","officetype":"B.O","deliverystatus":"Delivery","statename":"ARUNACHAL PRADESH","regionname":"Shillong HQ","circlename":"North Eastern","divisionname":"Arunachal Pradesh","Taluk":"Khonsa"},{"officename":"Thinsa B.O","pincode":"792130","officetype":"B.O","deliverystatus":"Delivery","statename":"ARUNACHAL PRADESH","regionname":"Shillong HQ","circlename":"North Eastern","divisionname":"Arunachal Pradesh","Taluk":"Khonsa"},{"officename":"Tupi B.O","pincode":"792130","officetype":"B.O","deliverystatus":"Delivery","statename":"ARUNACHAL PRADESH","regionname":"Shillong HQ","circlename":"North Eastern","divisionname":"Arunachal Pradesh","Taluk":"Khonsa"},{"officename":"Valley view B.O","pincode":"792130","officetype":"B.O","deliverystatus":"Delivery","statename":"ARUNACHAL PRADESH","regionname":"Shillong HQ","circlename":"North Eastern","divisionname":"Arunachal Pradesh","Taluk":"Khonsa"},{"officename":"Hawa Camp B.O","pincode":"791121","officetype":"B.O","deliverystatus":"Delivery","statename":"ARUNACHAL PRADESH","regionname":"Shillong HQ","circlename":"North Eastern","divisionname":"Arunachal Pradesh","Taluk":"Kimin"},{"officename":"Garu B.O","pincode":"791125","officetype":"B.O","deliverystatus":"Delivery","statename":"ARUNACHAL PRADESH","regionname":"Shillong HQ","circlename":"North Eastern","divisionname":"Arunachal Pradesh","Taluk":"Likabali"},{"officename":"Gensi B.O","pincode":"791125","officetype":"B.O","deliverystatus":"Delivery","statename":"ARUNACHAL PRADESH","regionname":"Shillong HQ","circlename":"North Eastern","divisionname":"Arunachal Pradesh","Taluk":"Likabali"},{"officename":"Khotnu B.O","pincode":"792131","officetype":"B.O","deliverystatus":"Delivery","statename":"ARUNACHAL PRADESH","regionname":"Shillong HQ","circlename":"North Eastern","divisionname":"Arunachal Pradesh","Taluk":"Longding"},{"officename":"K/nokno B.O","pincode":"792131","officetype":"B.O","deliverystatus":"Delivery","statename":"ARUNACHAL PRADESH","regionname":"Shillong HQ","circlename":"North Eastern","divisionname":"Arunachal Pradesh","Taluk":"Longding"},{"officename":"Longfong B.O","pincode":"792131","officetype":"B.O","deliverystatus":"Delivery","statename":"ARUNACHAL PRADESH","regionname":"Shillong HQ","circlename":"North Eastern","divisionname":"Arunachal Pradesh","Taluk":"Longding"},{"officename":"Niausa B.O","pincode":"792131","officetype":"B.O","deliverystatus":"Delivery","statename":"ARUNACHAL PRADESH","regionname":"Shillong HQ","circlename":"North Eastern","divisionname":"Arunachal Pradesh","Taluk":"Longding"},{"officename":"Nginu B.O","pincode":"792131","officetype":"B.O","deliverystatus":"Delivery","statename":"ARUNACHAL PRADESH","regionname":"Shillong HQ","circlename":"North Eastern","divisionname":"Arunachal Pradesh","Taluk":"Longding"},{"officename":"Minthong B.O","pincode":"792131","officetype":"B.O","deliverystatus":"Delivery","statename":"ARUNACHAL PRADESH","regionname":"Shillong HQ","circlename":"North Eastern","divisionname":"Arunachal Pradesh","Taluk":"Longding"},{"officename":"Pangchou B.O","pincode":"792131","officetype":"B.O","deliverystatus":"Delivery","statename":"ARUNACHAL PRADESH","regionname":"Shillong HQ","circlename":"North Eastern","divisionname":"Arunachal Pradesh","Taluk":"Longding"},{"officename":"Senewa B.O","pincode":"792131","officetype":"B.O","deliverystatus":"Delivery","statename":"ARUNACHAL PRADESH","regionname":"Shillong HQ","circlename":"North Eastern","divisionname":"Arunachal Pradesh","Taluk":"Longding"},{"officename":"Tissa B.O","pincode":"792131","officetype":"B.O","deliverystatus":"Delivery","statename":"ARUNACHAL PRADESH","regionname":"Shillong HQ","circlename":"North Eastern","divisionname":"Arunachal Pradesh","Taluk":"Longding"},{"officename":"Wakka B.O","pincode":"792131","officetype":"B.O","deliverystatus":"Delivery","statename":"ARUNACHAL PRADESH","regionname":"Shillong HQ","circlename":"North Eastern","divisionname":"Arunachal Pradesh","Taluk":"Longding"},{"officename":"Gispu B.O","pincode":"790106","officetype":"B.O","deliverystatus":"Delivery","statename":"ARUNACHAL PRADESH","regionname":"Shillong HQ","circlename":"North Eastern","divisionname":"Arunachal Pradesh","Taluk":"Lumla"},{"officename":"Zemithang B.O","pincode":"790106","officetype":"B.O","deliverystatus":"Delivery","statename":"ARUNACHAL PRADESH","regionname":"Shillong HQ","circlename":"North Eastern","divisionname":"Arunachal Pradesh","Taluk":"Zemithang"},{"officename":"Kumari Kachari B.O","pincode":"792105","officetype":"B.O","deliverystatus":"Delivery","statename":"ARUNACHAL PRADESH","regionname":"Shillong HQ","circlename":"North Eastern","divisionname":"Arunachal Pradesh","Taluk":"Mahadevpur"},{"officename":"Padumani B.O","pincode":"792105","officetype":"B.O","deliverystatus":"Delivery","statename":"ARUNACHAL PRADESH","regionname":"Shillong HQ","circlename":"North Eastern","divisionname":"Arunachal Pradesh","Taluk":"Lekang"},{"officename":"Ayeng B.O","pincode":"791104","officetype":"B.O","deliverystatus":"Delivery","statename":"ARUNACHAL PRADESH","regionname":"Shillong HQ","circlename":"North Eastern","divisionname":"Arunachal Pradesh","Taluk":"Mebo"},{"officename":"Borguli B.O","pincode":"791104","officetype":"B.O","deliverystatus":"Delivery","statename":"ARUNACHAL PRADESH","regionname":"Shillong HQ","circlename":"North Eastern","divisionname":"Arunachal Pradesh","Taluk":"Mebo"},{"officename":"Namsing B.O","pincode":"791104","officetype":"B.O","deliverystatus":"Delivery","statename":"ARUNACHAL PRADESH","regionname":"Shillong HQ","circlename":"North Eastern","divisionname":"Arunachal Pradesh","Taluk":"Mebo"},{"officename":"Ngopok B.O","pincode":"791104","officetype":"B.O","deliverystatus":"Delivery","statename":"ARUNACHAL PRADESH","regionname":"Shillong HQ","circlename":"North Eastern","divisionname":"Arunachal Pradesh","Taluk":"Mebo"},{"officename":"Silluk B.O","pincode":"791104","officetype":"B.O","deliverystatus":"Delivery","statename":"ARUNACHAL PRADESH","regionname":"Shillong HQ","circlename":"North Eastern","divisionname":"Arunachal Pradesh","Taluk":"Mebo"},{"officename":"Sirem B.O","pincode":"791104","officetype":"B.O","deliverystatus":"Delivery","statename":"ARUNACHAL PRADESH","regionname":"Shillong HQ","circlename":"North Eastern","divisionname":"Arunachal Pradesh","Taluk":"Mebo"},{"officename":"Chopelling B.O","pincode":"792122","officetype":"B.O","deliverystatus":"Delivery","statename":"ARUNACHAL PRADESH","regionname":"Shillong HQ","circlename":"North Eastern","divisionname":"Arunachal Pradesh","Taluk":"Miao"},{"officename":"Deban B.O","pincode":"792122","officetype":"B.O","deliverystatus":"Delivery","statename":"ARUNACHAL PRADESH","regionname":"Shillong HQ","circlename":"North Eastern","divisionname":"Arunachal Pradesh","Taluk":"Miao"},{"officename":"Kharsang B.O","pincode":"792122","officetype":"B.O","deliverystatus":"Delivery","statename":"ARUNACHAL PRADESH","regionname":"Shillong HQ","circlename":"North Eastern","divisionname":"Arunachal Pradesh","Taluk":"Miao"},{"officename":"Kutum Basti B.O","pincode":"792122","officetype":"B.O","deliverystatus":"Delivery","statename":"ARUNACHAL PRADESH","regionname":"Shillong HQ","circlename":"North Eastern","divisionname":"Arunachal Pradesh","Taluk":"Miao"},{"officename":"Manabhum B.O","pincode":"792122","officetype":"B.O","deliverystatus":"Delivery","statename":"ARUNACHAL PRADESH","regionname":"Shillong HQ","circlename":"North Eastern","divisionname":"Arunachal Pradesh","Taluk":"Miao"},{"officename":"Namchik B.O","pincode":"792122","officetype":"B.O","deliverystatus":"Delivery","statename":"ARUNACHAL PRADESH","regionname":"Shillong HQ","circlename":"North Eastern","divisionname":"Arunachal Pradesh","Taluk":"Miao"},{"officename":"Dharampur B.O","pincode":"792122","officetype":"B.O","deliverystatus":"Delivery","statename":"ARUNACHAL PRADESH","regionname":"Shillong HQ","circlename":"North Eastern","divisionname":"Arunachal Pradesh","Taluk":"Miao"},{"officename":"Model Village B.O","pincode":"791110","officetype":"B.O","deliverystatus":"Delivery","statename":"ARUNACHAL PRADESH","regionname":"Shillong HQ","circlename":"North Eastern","divisionname":"Arunachal Pradesh","Taluk":"Naharlagun"},{"officename":"Yupia B.O","pincode":"791110","officetype":"B.O","deliverystatus":"Delivery","statename":"ARUNACHAL PRADESH","regionname":"Shillong HQ","circlename":"North Eastern","divisionname":"Arunachal Pradesh","Taluk":"Yupia"},{"officename":"Diyun B.O","pincode":"792103","officetype":"B.O","deliverystatus":"Delivery","statename":"ARUNACHAL PRADESH","regionname":"Shillong HQ","circlename":"North Eastern","divisionname":"Arunachal Pradesh","Taluk":"Namsai"},{"officename":"Innao B.O","pincode":"792103","officetype":"B.O","deliverystatus":"Delivery","statename":"ARUNACHAL PRADESH","regionname":"Shillong HQ","circlename":"North Eastern","divisionname":"Arunachal Pradesh","Taluk":"Namsai"},{"officename":"Jaipur B.O","pincode":"792103","officetype":"B.O","deliverystatus":"Delivery","statename":"ARUNACHAL PRADESH","regionname":"Shillong HQ","circlename":"North Eastern","divisionname":"Arunachal Pradesh","Taluk":"Namsai"},{"officename":"Kumsai B.O","pincode":"792103","officetype":"B.O","deliverystatus":"Delivery","statename":"ARUNACHAL PRADESH","regionname":"Shillong HQ","circlename":"North Eastern","divisionname":"Arunachal Pradesh","Taluk":"Namsai"},{"officename":"Lathao B.O","pincode":"792103","officetype":"B.O","deliverystatus":"Delivery","statename":"ARUNACHAL PRADESH","regionname":"Shillong HQ","circlename":"North Eastern","divisionname":"Arunachal Pradesh","Taluk":"Namsai"},{"officename":"Manmao B.O","pincode":"792103","officetype":"B.O","deliverystatus":"Delivery","statename":"ARUNACHAL PRADESH","regionname":"Shillong HQ","circlename":"North Eastern","divisionname":"Arunachal Pradesh","Taluk":"Namsai"},{"officename":"Nampong B.O","pincode":"792103","officetype":"B.O","deliverystatus":"Delivery","statename":"ARUNACHAL PRADESH","regionname":"Shillong HQ","circlename":"North Eastern","divisionname":"Arunachal Pradesh","Taluk":"Namsai"},{"officename":"Nanam B.O","pincode":"792103","officetype":"B.O","deliverystatus":"Delivery","statename":"ARUNACHAL PRADESH","regionname":"Shillong HQ","circlename":"North Eastern","divisionname":"Arunachal Pradesh","Taluk":"Namsai"},{"officename":"Piyong B.O","pincode":"792103","officetype":"B.O","deliverystatus":"Delivery","statename":"ARUNACHAL PRADESH","regionname":"Shillong HQ","circlename":"North Eastern","divisionname":"Arunachal Pradesh","Taluk":"Piyong"},{"officename":"Udaipur B.O","pincode":"792103","officetype":"B.O","deliverystatus":"Delivery","statename":"ARUNACHAL PRADESH","regionname":"Shillong HQ","circlename":"North Eastern","divisionname":"Arunachal Pradesh","Taluk":"Namsai"},{"officename":"Wingko B.O","pincode":"792103","officetype":"B.O","deliverystatus":"Delivery","statename":"ARUNACHAL PRADESH","regionname":"Shillong HQ","circlename":"North Eastern","divisionname":"Arunachal Pradesh","Taluk":"Namsai"},{"officename":"Chambang B.O","pincode":"791118","officetype":"B.O","deliverystatus":"Delivery","statename":"ARUNACHAL PRADESH","regionname":"Shillong HQ","circlename":"North Eastern","divisionname":"Arunachal Pradesh","Taluk":"Chambang"},{"officename":"Damin B.O","pincode":"791118","officetype":"B.O","deliverystatus":"Delivery","statename":"ARUNACHAL PRADESH","regionname":"Shillong HQ","circlename":"North Eastern","divisionname":"Arunachal Pradesh","Taluk":"Damin"},{"officename":"Hiya B.O","pincode":"791118","officetype":"B.O","deliverystatus":"Delivery","statename":"ARUNACHAL PRADESH","regionname":"Shillong HQ","circlename":"North Eastern","divisionname":"Arunachal Pradesh","Taluk":"Nyapin"},{"officename":"Koloriang B.O","pincode":"791118","officetype":"B.O","deliverystatus":"Delivery","statename":"ARUNACHAL PRADESH","regionname":"Shillong HQ","circlename":"North Eastern","divisionname":"Arunachal Pradesh","Taluk":"Koloriang"},{"officename":"Nyapin B.O","pincode":"791118","officetype":"B.O","deliverystatus":"Delivery","statename":"ARUNACHAL PRADESH","regionname":"Shillong HQ","circlename":"North Eastern","divisionname":"Arunachal Pradesh","Taluk":"Nyapin"},{"officename":"Sarli B.O","pincode":"791118","officetype":"B.O","deliverystatus":"Delivery","statename":"ARUNACHAL PRADESH","regionname":"Shillong HQ","circlename":"North Eastern","divisionname":"Arunachal Pradesh","Taluk":"Koloriang"},{"officename":"Sangram B.O","pincode":"791118","officetype":"B.O","deliverystatus":"Delivery","statename":"ARUNACHAL PRADESH","regionname":"Shillong HQ","circlename":"North Eastern","divisionname":"Arunachal Pradesh","Taluk":"Koloriang"},{"officename":"Tali B.O","pincode":"791118","officetype":"B.O","deliverystatus":"Delivery","statename":"ARUNACHAL PRADESH","regionname":"Shillong HQ","circlename":"North Eastern","divisionname":"Arunachal Pradesh","Taluk":"Tali"},{"officename":"Adipassi B.O","pincode":"791103","officetype":"B.O","deliverystatus":"Delivery","statename":"ARUNACHAL PRADESH","regionname":"Shillong HQ","circlename":"North Eastern","divisionname":"Arunachal Pradesh","Taluk":"Pasighat"},{"officename":"Balek B.O","pincode":"791102","officetype":"B.O","deliverystatus":"Delivery","statename":"ARUNACHAL PRADESH","regionname":"Shillong HQ","circlename":"North Eastern","divisionname":"Arunachal Pradesh","Taluk":"Pasighat"},{"officename":"Bilat B.O","pincode":"791102","officetype":"B.O","deliverystatus":"Delivery","statename":"ARUNACHAL PRADESH","regionname":"Shillong HQ","circlename":"North Eastern","divisionname":"Arunachal Pradesh","Taluk":"Pasighat"},{"officename":"Boleng B.O","pincode":"791103","officetype":"B.O","deliverystatus":"Delivery","statename":"ARUNACHAL PRADESH","regionname":"Shillong HQ","circlename":"North Eastern","divisionname":"Arunachal Pradesh","Taluk":"Pasighat"},{"officename":"Dalbing B.O","pincode":"791103","officetype":"B.O","deliverystatus":"Delivery","statename":"ARUNACHAL PRADESH","regionname":"Shillong HQ","circlename":"North Eastern","divisionname":"Arunachal Pradesh","Taluk":"Mariyang"},{"officename":"Damro B.O","pincode":"791103","officetype":"B.O","deliverystatus":"Delivery","statename":"ARUNACHAL PRADESH","regionname":"Shillong HQ","circlename":"North Eastern","divisionname":"Arunachal Pradesh","Taluk":"Pasighat"},{"officename":"Debing B.O","pincode":"791102","officetype":"B.O","deliverystatus":"Delivery","statename":"ARUNACHAL PRADESH","regionname":"Shillong HQ","circlename":"North Eastern","divisionname":"Arunachal Pradesh","Taluk":"Pasighat"},{"officename":"GTC B.O","pincode":"791103","officetype":"B.O","deliverystatus":"Delivery","statename":"ARUNACHAL PRADESH","regionname":"Shillong HQ","circlename":"North Eastern","divisionname":"Arunachal Pradesh","Taluk":"Pasight"}]