[{"officename":"Sector 31 (Chandigarh) S.O","pincode":"160030","officetype":"S.O","deliverystatus":"Non-Delivery","statename":"CHANDIGARH","regionname":"Chandigarh HQ","circlename":"Punjab","divisionname":"Chandigarh","Taluk":"Chandigarh"},{"officename":"Aerodrome S.O","pincode":"160003","officetype":"S.O","deliverystatus":"Delivery","statename":"CHANDIGARH","regionname":"Chandigarh HQ","circlename":"Punjab","divisionname":"Chandigarh","Taluk":"Chandigarh"},{"officename":"Airforce Highground S.O","pincode":"160004","officetype":"S.O","deliverystatus":"Delivery","statename":"CHANDIGARH","regionname":"Chandigarh HQ","circlename":"Punjab","divisionname":"Chandigarh","Taluk":"Chandigarh"},{"officename":"Dadu Majra Colony S.O","pincode":"160014","officetype":"S.O","deliverystatus":"Non-Delivery","statename":"CHANDIGARH","regionname":"Chandigarh HQ","circlename":"Punjab","divisionname":"Chandigarh","Taluk":"Chandigarh"},{"officename":"Engg College S.O","pincode":"160012","officetype":"S.O","deliverystatus":"Non-Delivery","statename":"CHANDIGARH","regionname":"Chandigarh HQ","circlename":"Punjab","divisionname":"Chandigarh","Taluk":"Chandigarh"},{"officename":"Govt Press Chandigarh S.O","pincode":"160018","officetype":"S.O","deliverystatus":"Non-Delivery","statename":"CHANDIGARH","regionname":"Chandigarh HQ","circlename":"Punjab","divisionname":"Chandigarh","Taluk":"Chandigarh"},{"officename":"High Court S.O (Chandigarh)","pincode":"160001","officetype":"S.O","deliverystatus":"Non-Delivery","statename":"CHANDIGARH","regionname":"Chandigarh HQ","circlename":"Punjab","divisionname":"Chandigarh","Taluk":"Chandigarh"},{"officename":"Ind Area Chandigarh S.O","pincode":"160002","officetype":"S.O","deliverystatus":"Delivery","statename":"CHANDIGARH","regionname":"Chandigarh HQ","circlename":"Punjab","divisionname":"Chandigarh","Taluk":"Chandigarh"},{"officename":"Manimajra S.O","pincode":"160101","officetype":"S.O","deliverystatus":"Delivery","statename":"CHANDIGARH","regionname":"Chandigarh HQ","circlename":"Punjab","divisionname":"Chandigarh","Taluk":"Chandigarh"},{"officename":"Mhc Manimajra S.O","pincode":"160101","officetype":"S.O","deliverystatus":"Non-Delivery","statename":"CHANDIGARH","regionname":"Chandigarh HQ","circlename":"Punjab","divisionname":"Chandigarh","Taluk":"Chandigarh"},{"officename":"New Sectt Chandigarh S.O","pincode":"160001","officetype":"S.O","deliverystatus":"Delivery","statename":"CHANDIGARH","regionname":"Chandigarh HQ","circlename":"Punjab","divisionname":"Chandigarh","Taluk":"Chandigarh"},{"officename":"Raj Bhawan S.O (Chandigarh)","pincode":"160019","officetype":"S.O","deliverystatus":"Non-Delivery","statename":"CHANDIGARH","regionname":"Chandigarh HQ","circlename":"Punjab","divisionname":"Chandigarh","Taluk":"Chandigarh"},{"officename":"Ram Darbar S.O","pincode":"160002","officetype":"S.O","deliverystatus":"Non-Delivery","statename":"CHANDIGARH","regionname":"Chandigarh HQ","circlename":"Punjab","divisionname":"Chandigarh","Taluk":"Chandigarh"},{"officename":"Sector 8(Chandgarh) S.O","pincode":"160009","officetype":"S.O","deliverystatus":"Non-Delivery","statename":"CHANDIGARH","regionname":"Chandigarh HQ","circlename":"Punjab","divisionname":"Chandigarh","Taluk":"Chandigarh"},{"officename":"Sector 9 (Chandigarh) S.O","pincode":"160009","officetype":"S.O","deliverystatus":"Delivery","statename":"CHANDIGARH","regionname":"Chandigarh HQ","circlename":"Punjab","divisionname":"Chandigarh","Taluk":"Chandigarh"},{"officename":"Sector 10 (Chandigarh) S.O","pincode":"160011","officetype":"S.O","deliverystatus":"Non-Delivery","statename":"CHANDIGARH","regionname":"Chandigarh HQ","circlename":"Punjab","divisionname":"Chandigarh","Taluk":"Chandigarh"},{"officename":"Sector 11( Chandigarh) S.O","pincode":"160011","officetype":"S.O","deliverystatus":"Delivery","statename":"CHANDIGARH","regionname":"Chandigarh HQ","circlename":"Punjab","divisionname":"Chandigarh","Taluk":"Chandigarh"},{"officename":"Sector 12 (Chandigarh) S.O","pincode":"160012","officetype":"S.O","deliverystatus":"Delivery","statename":"CHANDIGARH","regionname":"Chandigarh HQ","circlename":"Punjab","divisionname":"Chandigarh","Taluk":"Chandigarh"},{"officename":"Sector 14 (Chandigarh) S.O","pincode":"160014","officetype":"S.O","deliverystatus":"Delivery","statename":"CHANDIGARH","regionname":"Chandigarh HQ","circlename":"Punjab","divisionname":"Chandigarh","Taluk":"Chandigarh"},{"officename":"Sector 15 Chandigarh S.O","pincode":"160015","officetype":"S.O","deliverystatus":"Delivery","statename":"CHANDIGARH","regionname":"Chandigarh HQ","circlename":"Punjab","divisionname":"Chandigarh","Taluk":"Chandigarh"},{"officename":"Sector 16 (Chandigarh) S.O","pincode":"160015","officetype":"S.O","deliverystatus":"Non-Delivery","statename":"CHANDIGARH","regionname":"Chandigarh HQ","circlename":"Punjab","divisionname":"Chandigarh","Taluk":"Chandigarh"},{"officename":"Sector 18 (Chandigarh) S.O","pincode":"160018","officetype":"S.O","deliverystatus":"Delivery","statename":"CHANDIGARH","regionname":"Chandigarh HQ","circlename":"Punjab","divisionname":"Chandigarh","Taluk":"Chandigarh"},{"officename":"Sector 19 (Chandigarh) S.O","pincode":"160019","officetype":"S.O","deliverystatus":"Delivery","statename":"CHANDIGARH","regionname":"Chandigarh HQ","circlename":"Punjab","divisionname":"Chandigarh","Taluk":"Chandigarh"},{"officename":"Sector 21 (Chandigarh) S.O","pincode":"160022","officetype":"S.O","deliverystatus":"Non-Delivery","statename":"CHANDIGARH","regionname":"Chandigarh HQ","circlename":"Punjab","divisionname":"Chandigarh","Taluk":"Chandigarh"},{"officename":"Sector 22 (Chandigarh) S.O","pincode":"160022","officetype":"S.O","deliverystatus":"Delivery","statename":"CHANDIGARH","regionname":"Chandigarh HQ","circlename":"Punjab","divisionname":"Chandigarh","Taluk":"Chandigarh"},{"officename":"Sector 23 ( Chandigarh) S.O","pincode":"160023","officetype":"S.O","deliverystatus":"Delivery","statename":"CHANDIGARH","regionname":"Chandigarh HQ","circlename":"Punjab","divisionname":"Chandigarh","Taluk":"Chandigarh"},{"officename":"Sector 26 (Chandigarh) S.O","pincode":"160019","officetype":"S.O","deliverystatus":"Non-Delivery","statename":"CHANDIGARH","regionname":"Chandigarh HQ","circlename":"Punjab","divisionname":"Chandigarh","Taluk":"Chandigarh"},{"officename":"Sector 29 (Chandigarh) S.O","pincode":"160030","officetype":"S.O","deliverystatus":"Non-Delivery","statename":"CHANDIGARH","regionname":"Chandigarh HQ","circlename":"Punjab","divisionname":"Chandigarh","Taluk":"Chandigarh"},{"officename":"Sector 30 (Chandigarh) S.O","pincode":"160030","officetype":"S.O","deliverystatus":"Delivery","statename":"CHANDIGARH","regionname":"Chandigarh HQ","circlename":"Punjab","divisionname":"Chandigarh","Taluk":"Chandigarh"},{"officename":"Sector 34(Chandigarh) S.O","pincode":"160022","officetype":"S.O","deliverystatus":"Non-Delivery","statename":"CHANDIGARH","regionname":"Chandigarh HQ","circlename":"Punjab","divisionname":"Chandigarh","Taluk":"Chandigarh"},{"officename":"Sector 35 (Chandigarh) S.O","pincode":"160022","officetype":"S.O","deliverystatus":"Non-Delivery","statename":"CHANDIGARH","regionname":"Chandigarh HQ","circlename":"Punjab","divisionname":"Chandigarh","Taluk":"Chandigarh"},{"officename":"Sector 36 (Chandigarh) S.O","pincode":"160036","officetype":"S.O","deliverystatus":"Delivery","statename":"CHANDIGARH","regionname":"Chandigarh HQ","circlename":"Punjab","divisionname":"Chandigarh","Taluk":"Chandigarh"},{"officename":"Sector 40 (Chandigarh) S.O","pincode":"160036","officetype":"S.O","deliverystatus":"Non-Delivery","statename":"CHANDIGARH","regionname":"Chandigarh HQ","circlename":"Punjab","divisionname":"Chandigarh","Taluk":"Chandigarh"},{"officename":"Sector 44 (Chandigarh) S.O","pincode":"160047","officetype":"S.O","deliverystatus":"Non-Delivery","statename":"CHANDIGARH","regionname":"Chandigarh HQ","circlename":"Punjab","divisionname":"Chandigarh","Taluk":"Chandigarh"},{"officename":"Sector 47 Chandigarh S.O","pincode":"160047","officetype":"S.O","deliverystatus":"Delivery","statename":"CHANDIGARH","regionname":"Chandigarh HQ","circlename":"Punjab","divisionname":"Chandigarh","Taluk":"Chandigarh"},{"officename":"Vidhansadan S.O","pincode":"160001","officetype":"S.O","deliverystatus":"Non-Delivery","statename":"CHANDIGARH","regionname":"Chandigarh HQ","circlename":"Punjab","divisionname":"Chandigarh","Taluk":"Chandigarh"},{"officename":"Maloya Colony S.O","pincode":"160025","officetype":"S.O","deliverystatus":"Delivery","statename":"CHANDIGARH","regionname":"Chandigarh HQ","circlename":"Punjab","divisionname":"Chandigarh","Taluk":"NA"},{"officename":"Mauli Jagran S.O","pincode":"160102","officetype":"S.O","deliverystatus":"Delivery","statename":"CHANDIGARH","regionname":"Chandigarh HQ","circlename":"Punjab","divisionname":"Chandigarh","Taluk":"NA"},{"officename":"Sector 20 (Chandigarh) S.O","pincode":"160020","officetype":"S.O","deliverystatus":"Delivery","statename":"CHANDIGARH","regionname":"Chandigarh HQ","circlename":"Punjab","divisionname":"Chandigarh","Taluk":"Chandigarh"},{"officename":"Sector 27(Chandigarh)S.O","pincode":"160019","officetype":"S.O","deliverystatus":"Non-Delivery","statename":"CHANDIGARH","regionname":"Chandigarh HQ","circlename":"Punjab","divisionname":"Chandigarh","Taluk":"Chandigarh"},{"officename":"Nodal Delivery Office Chandigarh S.O","pincode":"160016","officetype":"S.O","deliverystatus":"Delivery","statename":"CHANDIGARH","regionname":"Chandigarh HQ","circlename":"Punjab","divisionname":"Chandigarh","Taluk":"Chandigarh"},{"officename":"IBC Chandigarh S.O","pincode":"160005","officetype":"S.O","deliverystatus":"Delivery","statename":"CHANDIGARH","regionname":"Chandigarh HQ","circlename":"Punjab","divisionname":"Chandigarh","Taluk":"Chandigarh"},{"officename":"District Court Sector-43, Chandigar","pincode":"160043","officetype":"S.O","deliverystatus":"Delivery","statename":"CHANDIGARH","regionname":"Chandigarh HQ","circlename":"Punjab","divisionname":"Chandigarh","Taluk":"NA"},{"officename":"Chandigarh G.P.O.","pincode":"160017","officetype":"H.O","deliverystatus":"Delivery","statename":"CHANDIGARH","regionname":"Chandigarh HQ","circlename":"Punjab","divisionname":"Chandigarh","Taluk":"Chandigarh"},{"officename":"Burail B.O","pincode":"160047","officetype":"B.O","deliverystatus":"Delivery","statename":"CHANDIGARH","regionname":"Chandigarh HQ","circlename":"Punjab","divisionname":"Chandigarh","Taluk":"Chandigarh"},{"officename":"Hallomajra B.O","pincode":"160002","officetype":"B.O","deliverystatus":"Delivery","statename":"CHANDIGARH","regionname":"Chandigarh HQ","circlename":"Punjab","divisionname":"Chandigarh","Taluk":"NA"},{"officename":"Daria B.O","pincode":"160101","officetype":"B.O","deliverystatus":"Delivery","statename":"CHANDIGARH","regionname":"Chandigarh HQ","circlename":"Punjab","divisionname":"Chandigarh","Taluk":"NA"},{"officename":"Raipur Kalan B.O","pincode":"160102","officetype":"B.O","deliverystatus":"Delivery","statename":"CHANDIGARH","regionname":"Chandigarh HQ","circlename":"Punjab","divisionname":"Chandigarh","Taluk":"Chandigarh"},{"officename":"Badheri B.O","pincode":"160036","officetype":"B.O","deliverystatus":"Delivery","statename":"CHANDIGARH","regionname":"Chandigarh HQ","circlename":"Punjab","divisionname":"Chandigarh","Taluk":"NA"},{"officename":"Babhat B.O","pincode":"140603","officetype":"B.O","deliverystatus":"Delivery","statename":"CHANDIGARH","regionname":"Chandigarh HQ","circlename":"Punjab","divisionname":"Chandigarh","Taluk":"chandigarh"},{"officename":"Kishangarh B.O","pincode":"160101","officetype":"B.O","deliverystatus":"Delivery","statename":"CHANDIGARH","regionname":"Chandigarh HQ","circlename":"Punjab","divisionname":"Chandigarh","Taluk":"Chandigarh"},{"officename":"Ajauli B.O","pincode":"140125","officetype":"B.O","deliverystatus":"Delivery","statename":"CHANDIGARH","regionname":"Chandigarh HQ","circlename":"Punjab","divisionname":"Chandigarh","Taluk":"Ropar"},{"officename":"Dhanas B.O","pincode":"160014","officetype":"B.O","deliverystatus":"Delivery","statename":"CHANDIGARH","regionname":"Chandigarh HQ","circlename":"Punjab","divisionname":"Chandigarh","Taluk":"Chandigarh"},{"officename":"Kalitran B.O","pincode":"140133","officetype":"B.O","deliverystatus":"Delivery","statename":"CHANDIGARH","regionname":"Chandigarh HQ","circlename":"Punjab","divisionname":"Chandigarh","Taluk":"Ropar"},{"officename":"Abiana B.O","pincode":"140119","officetype":"B.O","deliverystatus":"Delivery","statename":"CHANDIGARH","regionname":"Chandigarh HQ","circlename":"Punjab","divisionname":"Chandigarh","Taluk":"Ropar"},{"officename":"Behlana B.O","pincode":"160003","officetype":"B.O","deliverystatus":"Delivery","statename":"CHANDIGARH","regionname":"Chandigarh HQ","circlename":"Punjab","divisionname":"Chandigarh","Taluk":"NA"}]