[{"officename":"IP Extension S.O","pincode":"110092","officetype":"S.O","deliverystatus":"Non-Delivery","statename":"DELHI","regionname":"Delhi","circlename":"Delhi","divisionname":"Delhi East","Taluk":"NA"},{"officename":"Rohini Sector-7 S.O","pincode":"110085","officetype":"S.O","deliverystatus":"Delivery","statename":"DELHI","regionname":"Delhi","circlename":"Delhi","divisionname":"Delhi North","Taluk":"NA"},{"officename":"R K Puram Sector - 6 Postal SB S.O","pincode":"110022","officetype":"S.O","deliverystatus":"Non-Delivery","statename":"DELHI","regionname":"Delhi","circlename":"Delhi","divisionname":"New Delhi South West","Taluk":"NA"},{"officename":"Abul Fazal Enclave-I S.O","pincode":"110025","officetype":"S.O","deliverystatus":"Non-Delivery","statename":"DELHI","regionname":"Delhi","circlename":"Delhi","divisionname":"New Delhi South","Taluk":"NA"},{"officename":"Jaitpur S.O (South Delhi)","pincode":"110044","officetype":"S.O","deliverystatus":"Non-Delivery","statename":"DELHI","regionname":"Delhi","circlename":"Delhi","divisionname":"New Delhi South","Taluk":"NA"},{"officename":"Babarpur S.O (North East Delhi)","pincode":"110032","officetype":"S.O","deliverystatus":"Non-Delivery","statename":"DELHI","regionname":"Delhi","circlename":"Delhi","divisionname":"Delhi East","Taluk":"NA"},{"officename":"Brahampuri S.O","pincode":"110053","officetype":"S.O","deliverystatus":"Non-Delivery","statename":"DELHI","regionname":"Delhi","circlename":"Delhi","divisionname":"Delhi East","Taluk":"NA"},{"officename":"Baratooti S.O","pincode":"110006","officetype":"S.O","deliverystatus":"Non-Delivery","statename":"DELHI","regionname":"Delhi","circlename":"Delhi","divisionname":"Delhi North","Taluk":"NA"},{"officename":"Jawahar Nagar S.O (North Delhi)","pincode":"110007","officetype":"S.O","deliverystatus":"Non-Delivery","statename":"DELHI","regionname":"Delhi","circlename":"Delhi","divisionname":"Delhi North","Taluk":"NA"},{"officename":"Rana Pratap Bagh S.O","pincode":"110007","officetype":"S.O","deliverystatus":"Non-Delivery","statename":"DELHI","regionname":"Delhi","circlename":"Delhi","divisionname":"Delhi North","Taluk":"NA"},{"officename":"Mangolpuri S Block S.O","pincode":"110083","officetype":"S.O","deliverystatus":"Non-Delivery","statename":"DELHI","regionname":"Delhi","circlename":"Delhi","divisionname":"Delhi North","Taluk":"NA"},{"officename":"Rohini Courts S.O","pincode":"110085","officetype":"S.O","deliverystatus":"Non-Delivery","statename":"DELHI","regionname":"Delhi","circlename":"Delhi","divisionname":"Delhi North","Taluk":"NA"},{"officename":"Pooth Kalan Resettlement S.O","pincode":"110086","officetype":"S.O","deliverystatus":"Non-Delivery","statename":"DELHI","regionname":"Delhi","circlename":"Delhi","divisionname":"Delhi North","Taluk":"NA"},{"officename":"Rohini Sector 15 S.O","pincode":"110089","officetype":"S.O","deliverystatus":"Delivery","statename":"DELHI","regionname":"Delhi","circlename":"Delhi","divisionname":"Delhi North","Taluk":"NA"},{"officename":"Dr.Mukerjee Nagar S.O","pincode":"110009","officetype":"S.O","deliverystatus":"Non-Delivery","statename":"DELHI","regionname":"Delhi","circlename":"Delhi","divisionname":"Delhi North","Taluk":"NA"},{"officename":"Hari Nagar S.O (West Delhi)","pincode":"110064","officetype":"S.O","deliverystatus":"Non-Delivery","statename":"DELHI","regionname":"Delhi","circlename":"Delhi","divisionname":"New Delhi West","Taluk":"New Delhi"},{"officename":"Hari Nagar BE Block S.O","pincode":"110064","officetype":"S.O","deliverystatus":"Non-Delivery","statename":"DELHI","regionname":"Delhi","circlename":"Delhi","divisionname":"New Delhi West","Taluk":"New Delhi"},{"officename":"Hari Nagar Dadb Block S.O","pincode":"110064","officetype":"S.O","deliverystatus":"Non-Delivery","statename":"DELHI","regionname":"Delhi","circlename":"Delhi","divisionname":"New Delhi West","Taluk":"New Delhi"},{"officename":"A.K.Market S.O","pincode":"110055","officetype":"S.O","deliverystatus":"Non-Delivery","statename":"DELHI","regionname":"Delhi","circlename":"Delhi","divisionname":"New Delhi Central","Taluk":"New Delhi"},{"officename":"Krishi Bhawan S.O","pincode":"110001","officetype":"S.O","deliverystatus":"Non-Delivery","statename":"DELHI","regionname":"Delhi","circlename":"Delhi","divisionname":"New Delhi Central","Taluk":"New Delhi"},{"officename":"Lady Harding Medical College S.O","pincode":"110001","officetype":"S.O","deliverystatus":"Non-Delivery","statename":"DELHI","regionname":"Delhi","circlename":"Delhi","divisionname":"New Delhi Central","Taluk":"New Delhi"},{"officename":"North Avenue S.O","pincode":"110001","officetype":"S.O","deliverystatus":"Non-Delivery","statename":"DELHI","regionname":"Delhi","circlename":"Delhi","divisionname":"New Delhi Central","Taluk":"New Delhi"},{"officename":"South Avenue S.O","pincode":"110011","officetype":"S.O","deliverystatus":"Non-Delivery","statename":"DELHI","regionname":"Delhi","circlename":"Delhi","divisionname":"New Delhi Central","Taluk":"New Delhi"},{"officename":"Election Commission S.O","pincode":"110001","officetype":"S.O","deliverystatus":"Non-Delivery","statename":"DELHI","regionname":"Delhi","circlename":"Delhi","divisionname":"New Delhi Central","Taluk":"New Delhi"},{"officename":"Nirman Bhawan S.O","pincode":"110011","officetype":"S.O","deliverystatus":"Delivery","statename":"DELHI","regionname":"Delhi","circlename":"Delhi","divisionname":"New Delhi Central","Taluk":"New Delhi"},{"officename":"Parliament House S.O","pincode":"110001","officetype":"S.O","deliverystatus":"Non-Delivery","statename":"DELHI","regionname":"Delhi","circlename":"Delhi","divisionname":"New Delhi Central","Taluk":"New Delhi"},{"officename":"Rashtrapati Bhawan S.O","pincode":"110004","officetype":"S.O","deliverystatus":"Delivery","statename":"DELHI","regionname":"Delhi","circlename":"Delhi","divisionname":"New Delhi Central","Taluk":"New Delhi"},{"officename":"Rail Bhawan S.O","pincode":"110001","officetype":"S.O","deliverystatus":"Non-Delivery","statename":"DELHI","regionname":"Delhi","circlename":"Delhi","divisionname":"New Delhi Central","Taluk":"New Delhi"},{"officename":"Shastri Bhawan S.O","pincode":"110001","officetype":"S.O","deliverystatus":"Non-Delivery","statename":"DELHI","regionname":"Delhi","circlename":"Delhi","divisionname":"New Delhi Central","Taluk":"New Delhi"},{"officename":"Secretariat North S.O","pincode":"110001","officetype":"S.O","deliverystatus":"Non-Delivery","statename":"DELHI","regionname":"Delhi","circlename":"Delhi","divisionname":"New Delhi Central","Taluk":"New Delhi"},{"officename":"Union Public Service Commission S.O","pincode":"110069","officetype":"S.O","deliverystatus":"Delivery","statename":"DELHI","regionname":"Delhi","circlename":"Delhi","divisionname":"New Delhi Central","Taluk":"New Delhi"},{"officename":"Sansadiya Soudh S.O","pincode":"110001","officetype":"S.O","deliverystatus":"Non-Delivery","statename":"DELHI","regionname":"Delhi","circlename":"Delhi","divisionname":"New Delhi Central","Taluk":"New Delhi"},{"officename":"Udyog Bhawan S.O","pincode":"110011","officetype":"S.O","deliverystatus":"Non-Delivery","statename":"DELHI","regionname":"Delhi","circlename":"Delhi","divisionname":"New Delhi Central","Taluk":"New Delhi"},{"officename":"Alipur S.O","pincode":"110036","officetype":"S.O","deliverystatus":"Delivery","statename":"DELHI","regionname":"Delhi","circlename":"Delhi","divisionname":"Delhi North","Taluk":"Delhi"},{"officename":"Burari S.O","pincode":"110084","officetype":"S.O","deliverystatus":"Delivery","statename":"DELHI","regionname":"Delhi","circlename":"Delhi","divisionname":"Delhi North","Taluk":"Delhi"},{"officename":"Bawana S.O","pincode":"110039","officetype":"S.O","deliverystatus":"Delivery","statename":"DELHI","regionname":"Delhi","circlename":"Delhi","divisionname":"Delhi North","Taluk":"Delhi"},{"officename":"Civil Lines S.O (North Delhi)","pincode":"110054","officetype":"S.O","deliverystatus":"Delivery","statename":"DELHI","regionname":"Delhi","circlename":"Delhi","divisionname":"Delhi North","Taluk":"Delhi"},{"officename":"Kanjhawla S.O","pincode":"110081","officetype":"S.O","deliverystatus":"Delivery","statename":"DELHI","regionname":"Delhi","circlename":"Delhi","divisionname":"Delhi North","Taluk":"Delhi"},{"officename":"Khera Kalan S.O","pincode":"110082","officetype":"S.O","deliverystatus":"Delivery","statename":"DELHI","regionname":"Delhi","circlename":"Delhi","divisionname":"Delhi North","Taluk":"Delhi"},{"officename":"Mangolpuri N Block S.O","pincode":"110083","officetype":"S.O","deliverystatus":"Delivery","statename":"DELHI","regionname":"Delhi","circlename":"Delhi","divisionname":"Delhi North","Taluk":"Delhi"},{"officename":"Malka Ganj S.O","pincode":"110007","officetype":"S.O","deliverystatus":"Delivery","statename":"DELHI","regionname":"Delhi","circlename":"Delhi","divisionname":"Delhi North","Taluk":"Delhi"},{"officename":"N.S.Mandi S.O","pincode":"110033","officetype":"S.O","deliverystatus":"Delivery","statename":"DELHI","regionname":"Delhi","circlename":"Delhi","divisionname":"Delhi North","Taluk":"Delhi"},{"officename":"Narela S.O","pincode":"110040","officetype":"S.O","deliverystatus":"Delivery","statename":"DELHI","regionname":"Delhi","circlename":"Delhi","divisionname":"Delhi North","Taluk":"Delhi"},{"officename":"Onkar Nagar S.O","pincode":"110035","officetype":"S.O","deliverystatus":"Delivery","statename":"DELHI","regionname":"Delhi","circlename":"Delhi","divisionname":"Delhi North","Taluk":"Delhi"},{"officename":"Rohini Sector 5 S.O","pincode":"110085","officetype":"S.O","deliverystatus":"Non-Delivery","statename":"DELHI","regionname":"Delhi","circlename":"Delhi","divisionname":"Delhi North","Taluk":"Delhi"},{"officename":"Samai Pur S.O","pincode":"110042","officetype":"S.O","deliverystatus":"Delivery","statename":"DELHI","regionname":"Delhi","circlename":"Delhi","divisionname":"Delhi North","Taluk":"Delhi"},{"officename":"Shakurbasti Rs S.O","pincode":"110034","officetype":"S.O","deliverystatus":"Non-Delivery","statename":"DELHI","regionname":"Delhi","circlename":"Delhi","divisionname":"Delhi North","Taluk":"Delhi"},{"officename":"Shakur Basti Depot S.O","pincode":"110056","officetype":"S.O","deliverystatus":"Delivery","statename":"DELHI","regionname":"Delhi","circlename":"Delhi","divisionname":"Delhi North","Taluk":"Delhi"},{"officename":"Sultanpuri C Block S.O","pincode":"110086","officetype":"S.O","deliverystatus":"Delivery","statename":"DELHI","regionname":"Delhi","circlename":"Delhi","divisionname":"Delhi North","Taluk":"Delhi"},{"officename":"Anandvas Shakurpur S.O","pincode":"110034","officetype":"S.O","deliverystatus":"Non-Delivery","statename":"DELHI","regionname":"Delhi","circlename":"Delhi","divisionname":"Delhi North","Taluk":"Delhi"},{"officename":"Adrash Nagar S.O","pincode":"110033","officetype":"S.O","deliverystatus":"Non-Delivery","statename":"DELHI","regionname":"Delhi","circlename":"Delhi","divisionname":"Delhi North","Taluk":"Delhi"},{"officename":"Badli S.O (North West Delhi)","pincode":"110042","officetype":"S.O","deliverystatus":"Non-Delivery","statename":"DELHI","regionname":"Delhi","circlename":"Delhi","divisionname":"Delhi North","Taluk":"Delhi"},{"officename":"C.C.I. S.O","pincode":"110007","officetype":"S.O","deliverystatus":"Non-Delivery","statename":"DELHI","regionname":"Delhi","circlename":"Delhi","divisionname":"Delhi North","Taluk":"Delhi"},{"officename":"District Courts S.O (North Delhi)","pincode":"110054","officetype":"S.O","deliverystatus":"Non-Delivery","statename":"DELHI","regionname":"Delhi","circlename":"Delhi","divisionname":"Delhi North","Taluk":"Delhi"},{"officename":"Delhi Sadar Bazar S.O","pincode":"110006","officetype":"S.O","deliverystatus":"Non-Delivery","statename":"DELHI","regionname":"Delhi","circlename":"Delhi","divisionname":"Delhi North","Taluk":"Delhi"},{"officename":"Delhi University S.O","pincode":"110007","officetype":"S.O","deliverystatus":"Non-Delivery","statename":"DELHI","regionname":"Delhi","circlename":"Delhi","divisionname":"Delhi North","Taluk":"Delhi"},{"officename":"Delhi Engg. College S.O","pincode":"110042","officetype":"S.O","deliverystatus":"Non-Delivery","statename":"DELHI","regionname":"Delhi","circlename":"Delhi","divisionname":"Delhi North","Taluk":"Delhi"},{"officename":"G.T.B.Nagar S.O","pincode":"110009","officetype":"S.O","deliverystatus":"Delivery","statename":"DELHI","regionname":"Delhi","circlename":"Delhi","divisionname":"Delhi North","Taluk":"Delhi"},{"officename":"Ganeshpura S.O","pincode":"110035","officetype":"S.O","deliverystatus":"Non-Delivery","statename":"DELHI","regionname":"Delhi","circlename":"Delhi","divisionname":"Delhi North","Taluk":"Delhi"},{"officename":"Gujranwala Colony S.O","pincode":"110009","officetype":"S.O","deliverystatus":"Non-Delivery","statename":"DELHI","regionname":"Delhi","circlename":"Delhi","divisionname":"Delhi North","Taluk":"Delhi"},{"officename":"Gulabi Bagh S.O","pincode":"110007","officetype":"S.O","deliverystatus":"Non-Delivery","statename":"DELHI","regionname":"Delhi","circlename":"Delhi","divisionname":"Delhi North","Taluk":"Delhi"},{"officename":"H.S.Sangh S.O","pincode":"110009","officetype":"S.O","deliverystatus":"Non-Delivery","statename":"DELHI","regionname":"Delhi","circlename":"Delhi","divisionname":"Delhi North","Taluk":"Delhi"},{"officename":"Haiderpur S.O","pincode":"110088","officetype":"S.O","deliverystatus":"Non-Delivery","statename":"DELHI","regionname":"Delhi","circlename":"Delhi","divisionname":"Delhi North","Taluk":"Delhi"},{"officename":"Jahangir Puri A Block S.O","pincode":"110033","officetype":"S.O","deliverystatus":"Non-Delivery","statename":"DELHI","regionname":"Delhi","circlename":"Delhi","divisionname":"Delhi North","Taluk":"Delhi"},{"officename":"Jahangir Puri D Block S.O","pincode":"110033","officetype":"S.O","deliverystatus":"Non-Delivery","statename":"DELHI","regionname":"Delhi","circlename":"Delhi","divisionname":"Delhi North","Taluk":"Delhi"},{"officename":"Jahangir Puri H Block S.O","pincode":"110033","officetype":"S.O","deliverystatus":"Non-Delivery","statename":"DELHI","regionname":"Delhi","circlename":"Delhi","divisionname":"Delhi North","Taluk":"Delhi"},{"officename":"Keshav Puram S.O (North West Delhi)","pincode":"110035","officetype":"S.O","deliverystatus":"Non-Delivery","statename":"DELHI","regionname":"Delhi","circlename":"Delhi","divisionname":"Delhi North","Taluk":"Delhi"},{"officename":"Kamla Nagar S.O (North Delhi)","pincode":"110007","officetype":"S.O","deliverystatus":"Non-Delivery","statename":"DELHI","regionname":"Delhi","circlename":"Delhi","divisionname":"Delhi North","Taluk":"Delhi"},{"officename":"Model Town II S.O","pincode":"110009","officetype":"S.O","deliverystatus":"Non-Delivery","statename":"DELHI","regionname":"Delhi","circlename":"Delhi","divisionname":"Delhi North","Taluk":"Delhi"},{"officename":"Model Town III S.O","pincode":"110009","officetype":"S.O","deliverystatus":"Non-Delivery","statename":"DELHI","regionname":"Delhi","circlename":"Delhi","divisionname":"Delhi North","Taluk":"Delhi"},{"officename":"Maurya Enclave S.O","pincode":"110034","officetype":"S.O","deliverystatus":"Non-Delivery","statename":"DELHI","regionname":"Delhi","circlename":"Delhi","divisionname":"Delhi North","Taluk":"Delhi"},{"officename":"Mangolpuri I  Block S.O","pincode":"110083","officetype":"S.O","deliverystatus":"Non-Delivery","statename":"DELHI","regionname":"Delhi","circlename":"Delhi","divisionname":"Delhi North","Taluk":"Delhi"},{"officename":"Mangolpuri A Block S.O","pincode":"110083","officetype":"S.O","deliverystatus":"Non-Delivery","statename":"DELHI","regionname":"Delhi","circlename":"Delhi","divisionname":"Delhi North","Taluk":"Delhi"},{"officename":"Nirankari Colony S.O","pincode":"110009","officetype":"S.O","deliverystatus":"Non-Delivery","statename":"DELHI","regionname":"Delhi","circlename":"Delhi","divisionname":"Delhi North","Taluk":"Delhi"},{"officename":"Nimri S.O","pincode":"110052","officetype":"S.O","deliverystatus":"Non-Delivery","statename":"DELHI","regionname":"Delhi","circlename":"Delhi","divisionname":"Delhi North","Taluk":"Delhi"},{"officename":"Power House S.O","pincode":"110035","officetype":"S.O","deliverystatus":"Non-Delivery","statename":"DELHI","regionname":"Delhi","circlename":"Delhi","divisionname":"Delhi North","Taluk":"Delhi"},{"officename":"Padam Nagar S.O (North Delhi)","pincode":"110007","officetype":"S.O","deliverystatus":"Non-Delivery","statename":"DELHI","regionname":"Delhi","circlename":"Delhi","divisionname":"Delhi North","Taluk":"Delhi"},{"officename":"Prashant Vihar S.O","pincode":"110085","officetype":"S.O","deliverystatus":"Non-Delivery","statename":"DELHI","regionname":"Delhi","circlename":"Delhi","divisionname":"Delhi North","Taluk":"Delhi"},{"officename":"Patrachar Vidyalay S.O","pincode":"110054","officetype":"S.O","deliverystatus":"Non-Delivery","statename":"DELHI","regionname":"Delhi","circlename":"Delhi","divisionname":"Delhi North","Taluk":"Delhi"},{"officename":"Roshan Ara Road S.O","pincode":"110007","officetype":"S.O","deliverystatus":"Non-Delivery","statename":"DELHI","regionname":"Delhi","circlename":"Delhi","divisionname":"Delhi North","Taluk":"Delhi"},{"officename":"Roop Nagar S.O","pincode":"110007","officetype":"S.O","deliverystatus":"Non-Delivery","statename":"DELHI","regionname":"Delhi","circlename":"Delhi","divisionname":"Delhi North","Taluk":"Delhi"},{"officename":"R.C.A.O. S.O","pincode":"110007","officetype":"S.O","deliverystatus":"Non-Delivery","statename":"DELHI","regionname":"Delhi","circlename":"Delhi","divisionname":"Delhi North","Taluk":"Delhi"},{"officename":"Rani Bagh S.O","pincode":"110034","officetype":"S.O","deliverystatus":"Non-Delivery","statename":"DELHI","regionname":"Delhi","circlename":"Delhi","divisionname":"Delhi North","Taluk":"Delhi"},{"officename":"Sarai Rohilla S.O","pincode":"110035","officetype":"S.O","deliverystatus":"Non-Delivery","statename":"DELHI","regionname":"Delhi","circlename":"Delhi","divisionname":"Delhi North","Taluk":"Delhi"},{"officename":"Satyawati Nagar S.O","pincode":"110052","officetype":"S.O","deliverystatus":"Non-Delivery","statename":"DELHI","regionname":"Delhi","circlename":"Delhi","divisionname":"Delhi North","Taluk":"Delhi"},{"officename":"Sultanpuri B Block S.O","pincode":"110086","officetype":"S.O","deliverystatus":"Non-Delivery","statename":"DELHI","regionname":"Delhi","circlename":"Delhi","divisionname":"Delhi North","Taluk":"Delhi"},{"officename":"Sultanpuri F Block S.O","pincode":"110086","officetype":"S.O","deliverystatus":"Non-Delivery","statename":"DELHI","regionname":"Delhi","circlename":"Delhi","divisionname":"Delhi North","Taluk":"Delhi"},{"officename":"Sri Nagar Colony S.O","pincode":"110034","officetype":"S.O","deliverystatus":"Non-Delivery","statename":"DELHI","regionname":"Delhi","circlename":"Delhi","divisionname":"Delhi North","Taluk":"Delhi"},{"officename":"Shakur Pur I  Block S.O","pincode":"110034","officetype":"S.O","deliverystatus":"Non-Delivery","statename":"DELHI","regionname":"Delhi","circlename":"Delhi","divisionname":"Delhi North","Taluk":"Delhi"},{"officename":"Shastri Nagar S.O (North West Delhi)","pincode":"110052","officetype":"S.O","deliverystatus":"Non-Delivery","statename":"DELHI","regionname":"Delhi","circlename":"Delhi","divisionname":"Delhi North","Taluk":"Delhi"},{"officename":"Saraswati Vihar S.O","pincode":"110034","officetype":"S.O","deliverystatus":"Delivery","statename":"DELHI","regionname":"Delhi","circlename":"Delhi","divisionname":"Delhi North","Taluk":"Delhi"},{"officename":"S.T. Road S.O","pincode":"110006","officetype":"S.O","deliverystatus":"Non-Delivery","statename":"DELHI","regionname":"Delhi","circlename":"Delhi","divisionname":"Delhi North","Taluk":"Delhi"},{"officename":"Shakti Nagar S.O (North Delhi)","pincode":"110007","officetype":"S.O","deliverystatus":"Non-Delivery","statename":"DELHI","regionname":"Delhi","circlename":"Delhi","divisionname":"Delhi North","Taluk":"Delhi"},{"officename":"Timarpur S.O","pincode":"110054","officetype":"S.O","deliverystatus":"Non-Delivery","statename":"DELHI","regionname":"Delhi","circlename":"Delhi","divisionname":"Delhi North","Taluk":"Delhi"},{"officename":"Wazir Pur III S.O","pincode":"110052","officetype":"S.O","deliverystatus":"Non-Delivery","statename":"DELHI","regionname":"Delhi","circlename":"Delhi","divisionname":"Delhi North","Taluk":"Delhi"},{"officename":"Shalimar Bagh S.O (North West Delhi)","pincode":"110088","officetype":"S.O","deliverystatus":"Delivery","statename":"DELHI","regionname":"Delhi","circlename":"Delhi","divisionname":"Delhi North","Taluk":"Delhi"},{"officename":"Chandni Chowk S.O","pincode":"110006","officetype":"S.O","deliverystatus":"Non-Delivery","statename":"DELHI","regionname":"Delhi","circlename":"Delhi","divisionname":"Delhi North","Taluk":"Delhi"},{"officename":"Chawri Bazar S.O","pincode":"110006","officetype":"S.O","deliverystatus":"Non-Delivery","statename":"DELHI","regionname":"Delhi","circlename":"Delhi","divisionname":"Delhi North","Taluk":"Delhi"},{"officename":"Dareeba S.O","pincode":"110006","officetype":"S.O","deliverystatus":"Non-Delivery","statename":"DELHI","regionname":"Delhi","circlename":"Delhi","divisionname":"Delhi North","Taluk":"Delhi"},{"officename":"Andrewsganj S.O","pincode":"110049","officetype":"S.O","deliverystatus":"Delivery","statename":"DELHI","regionname":"Delhi","circlename":"Delhi","divisionname":"New Delhi South","Taluk":"New Delhi"},{"officename":"Lajpat Nagar (South Delhi) S.O","pincode":"110024","officetype":"S.O","deliverystatus":"Delivery","statename":"DELHI","regionname":"Delhi","circlename":"Delhi","divisionname":"New Delhi South","Taluk":"New Delhi"},{"officename":"Hazrat Nizamuddin S.O","pincode":"110013","officetype":"S.O","deliverystatus":"Delivery","statename":"DELHI","regionname":"Delhi","circlename":"Delhi","divisionname":"New Delhi South","Taluk":"New Delhi"},{"officename":"Malviya Nagar S.O (South Delhi)","pincode":"110017","officetype":"S.O","deliverystatus":"Delivery","statename":"DELHI","regionname":"Delhi","circlename":"Delhi","divisionname":"New Delhi South","Taluk":"New Delhi"},{"officename":"Sriniwaspuri S.O","pincode":"110065","officetype":"S.O","deliverystatus":"Delivery","statename":"DELHI","regionname":"Delhi","circlename":"Delhi","divisionname":"New Delhi South","Taluk":"New Delhi"},{"officename":"Greater Kailash S.O","pincode":"110048","officetype":"S.O","deliverystatus":"Delivery","statename":"DELHI","regionname":"Delhi","circlename":"Delhi","divisionname":"New Delhi South","Taluk":"New Delhi"},{"officename":"Okhla Industrial Estate S.O","pincode":"110020","officetype":"S.O","deliverystatus":"Delivery","statename":"DELHI","regionname":"Delhi","circlename":"Delhi","divisionname":"New Delhi South","Taluk":"New Delhi"},{"officename":"Badarpur S.O (South Delhi)","pincode":"110044","officetype":"S.O","deliverystatus":"Delivery","statename":"DELHI","regionname":"Delhi","circlename":"Delhi","divisionname":"New Delhi South","Taluk":"New Delhi"},{"officename":"Sarita Vihar S.O","pincode":"110076","officetype":"S.O","deliverystatus":"Delivery","statename":"DELHI","regionname":"Delhi","circlename":"Delhi","divisionname":"New Delhi South","Taluk":"New Delhi"},{"officename":"Pushpa Bhawan S.O","pincode":"110062","officetype":"S.O","deliverystatus":"Delivery","statename":"DELHI","regionname":"Delhi","circlename":"Delhi","divisionname":"New Delhi South","Taluk":"New Delhi"},{"officename":"Jamia Nagar S.O","pincode":"110025","officetype":"S.O","deliverystatus":"Non-Delivery","statename":"DELHI","regionname":"Delhi","circlename":"Delhi","divisionname":"New Delhi South","Taluk":"New Delhi"},{"officename":"Jungpura S.O","pincode":"110014","officetype":"S.O","deliverystatus":"Delivery","statename":"DELHI","regionname":"Delhi","circlename":"Delhi","divisionname":"New Delhi South","Taluk":"New Delhi"},{"officename":"Aliganj S.O (South Delhi)","pincode":"110003","officetype":"S.O","deliverystatus":"Non-Delivery","statename":"DELHI","regionname":"Delhi","circlename":"Delhi","divisionname":"New Delhi South","Taluk":"New Delhi"},{"officename":"C G O Complex S.O","pincode":"110003","officetype":"S.O","deliverystatus":"Non-Delivery","statename":"DELHI","regionname":"Delhi","circlename":"Delhi","divisionname":"New Delhi South","Taluk":"New Delhi"},{"officename":"Kasturba Nagar S.O (South Delhi)","pincode":"110003","officetype":"S.O","deliverystatus":"Non-Delivery","statename":"DELHI","regionname":"Delhi","circlename":"Delhi","divisionname":"New Delhi South","Taluk":"New Delhi"},{"officename":"Golf Links S.O","pincode":"110003","officetype":"S.O","deliverystatus":"Non-Delivery","statename":"DELHI","regionname":"Delhi","circlename":"Delhi","divisionname":"New Delhi South","Taluk":"New Delhi"},{"officename":"Pragati Vihar S.O","pincode":"110003","officetype":"S.O","deliverystatus":"Non-Delivery","statename":"DELHI","regionname":"Delhi","circlename":"Delhi","divisionname":"New Delhi South","Taluk":"New Delhi"},{"officename":"Safdarjung Air Port S.O","pincode":"110003","officetype":"S.O","deliverystatus":"Non-Delivery","statename":"DELHI","regionname":"Delhi","circlename":"Delhi","divisionname":"New Delhi South","Taluk":"New Delhi"},{"officename":"Dargah Sharif S.O","pincode":"110013","officetype":"S.O","deliverystatus":"Non-Delivery","statename":"DELHI","regionname":"Delhi","circlename":"Delhi","divisionname":"New Delhi South","Taluk":"New Delhi"},{"officename":"Hari Nagar Ashram S.O","pincode":"110014","officetype":"S.O","deliverystatus":"Non-Delivery","statename":"DELHI","regionname":"Delhi","circlename":"Delhi","divisionname":"New Delhi South","Taluk":"New Delhi"},{"officename":"Pratap Market S.O","pincode":"110014","officetype":"S.O","deliverystatus":"Non-Delivery","statename":"DELHI","regionname":"Delhi","circlename":"Delhi","divisionname":"New Delhi South","Taluk":"New Delhi"},{"officename":"MMTC/STC Colony S.O","pincode":"110017","officetype":"S.O","deliverystatus":"Non-Delivery","statename":"DELHI","regionname":"Delhi","circlename":"Delhi","divisionname":"New Delhi South","Taluk":"New Delhi"},{"officename":"Alaknanda S.O","pincode":"110019","officetype":"S.O","deliverystatus":"Non-Delivery","statename":"DELHI","regionname":"Delhi","circlename":"Delhi","divisionname":"New Delhi South","Taluk":"New Delhi"},{"officename":"Panchsheel Enclave S.O","pincode":"110017","officetype":"S.O","deliverystatus":"Non-Delivery","statename":"DELHI","regionname":"Delhi","circlename":"Delhi","divisionname":"New Delhi South","Taluk":"New Delhi"},{"officename":"Pushp Vihar S.O","pincode":"110017","officetype":"S.O","deliverystatus":"Non-Delivery","statename":"DELHI","regionname":"Delhi","circlename":"Delhi","divisionname":"New Delhi South","Taluk":"New Delhi"},{"officename":"South Malviya Nagar S.O","pincode":"110017","officetype":"S.O","deliverystatus":"Non-Delivery","statename":"DELHI","regionname":"Delhi","circlename":"Delhi","divisionname":"New Delhi South","Taluk":"New Delhi"},{"officename":"Saket S.O (South Delhi)","pincode":"110017","officetype":"S.O","deliverystatus":"Non-Delivery","statename":"DELHI","regionname":"Delhi","circlename":"Delhi","divisionname":"New Delhi South","Taluk":"New Delhi"},{"officename":"Sarvodya Enclave S.O","pincode":"110017","officetype":"S.O","deliverystatus":"Non-Delivery","statename":"DELHI","regionname":"Delhi","circlename":"Delhi","divisionname":"New Delhi South","Taluk":"New Delhi"},{"officename":"Chittranjan Park S.O","pincode":"110019","officetype":"S.O","deliverystatus":"Non-Delivery","statename":"DELHI","regionname":"Delhi","circlename":"Delhi","divisionname":"New Delhi South","Taluk":"New Delhi"},{"officename":"Nehru Place S.O","pincode":"110019","officetype":"S.O","deliverystatus":"Non-Delivery","statename":"DELHI","regionname":"Delhi","circlename":"Delhi","divisionname":"New Delhi South","Taluk":"New Delhi"},{"officename":"C R R I S.O (South Delhi)","pincode":"110020","officetype":"S.O","deliverystatus":"Non-Delivery","statename":"DELHI","regionname":"Delhi","circlename":"Delhi","divisionname":"New Delhi South","Taluk":"New Delhi"},{"officename":"F F C Okhla S.O","pincode":"110020","officetype":"S.O","deliverystatus":"Non-Delivery","statename":"DELHI","regionname":"Delhi","circlename":"Delhi","divisionname":"New Delhi South","Taluk":"New Delhi"},{"officename":"Amar Colony S.O","pincode":"110024","officetype":"S.O","deliverystatus":"Non-Delivery","statename":"DELHI","regionname":"Delhi","circlename":"Delhi","divisionname":"New Delhi South","Taluk":"New Delhi"},{"officename":"Defence Colony S.O (South Delhi)","pincode":"110024","officetype":"S.O","deliverystatus":"Non-Delivery","statename":"DELHI","regionname":"Delhi","circlename":"Delhi","divisionname":"New Delhi South","Taluk":"New Delhi"},{"officename":"Okhla Industrial Area Phase-i S.O","pincode":"110020","officetype":"S.O","deliverystatus":"Non-Delivery","statename":"DELHI","regionname":"Delhi","circlename":"Delhi","divisionname":"New Delhi South","Taluk":"New Delhi"},{"officename":"Krishna Market S.O","pincode":"110024","officetype":"S.O","deliverystatus":"Non-Delivery","statename":"DELHI","regionname":"Delhi","circlename":"Delhi","divisionname":"New Delhi South","Taluk":"New Delhi"},{"officename":"Sukhdev Vihar S.O","pincode":"110025","officetype":"S.O","deliverystatus":"Non-Delivery","statename":"DELHI","regionname":"Delhi","circlename":"Delhi","divisionname":"New Delhi South","Taluk":"New Delhi"},{"officename":"Zakir Nagar S.O","pincode":"110025","officetype":"S.O","deliverystatus":"Non-Delivery","statename":"DELHI","regionname":"Delhi","circlename":"Delhi","divisionname":"New Delhi South","Taluk":"New Delhi"},{"officename":"BTPS S.O (South Delhi)","pincode":"110044","officetype":"S.O","deliverystatus":"Non-Delivery","statename":"DELHI","regionname":"Delhi","circlename":"Delhi","divisionname":"New Delhi South","Taluk":"New Delhi"},{"officename":"Tugalkabad Railway Colony S.O","pincode":"110044","officetype":"S.O","deliverystatus":"Non-Delivery","statename":"DELHI","regionname":"Delhi","circlename":"Delhi","divisionname":"New Delhi South","Taluk":"New Delhi"},{"officename":"Kailash Colony S.O","pincode":"110048","officetype":"S.O","deliverystatus":"Non-Delivery","statename":"DELHI","regionname":"Delhi","circlename":"Delhi","divisionname":"New Delhi South","Taluk":"New Delhi"},{"officename":"Masjid Moth S.O","pincode":"110048","officetype":"S.O","deliverystatus":"Non-Delivery","statename":"DELHI","regionname":"Delhi","circlename":"Delhi","divisionname":"New Delhi South","Taluk":"New Delhi"},{"officename":"Gautam Nagar S.O","pincode":"110049","officetype":"S.O","deliverystatus":"Non-Delivery","statename":"DELHI","regionname":"Delhi","circlename":"Delhi","divisionname":"New Delhi South","Taluk":"New Delhi"},{"officename":"Gulmohar Park S.O","pincode":"110049","officetype":"S.O","deliverystatus":"Non-Delivery","statename":"DELHI","regionname":"Delhi","circlename":"Delhi","divisionname":"New Delhi South","Taluk":"New Delhi"},{"officename":"Sadiq Nagar S.O","pincode":"110049","officetype":"S.O","deliverystatus":"Non-Delivery","statename":"DELHI","regionname":"Delhi","circlename":"Delhi","divisionname":"New Delhi South","Taluk":"New Delhi"},{"officename":"New Delhi South Ext-II S.O","pincode":"110049","officetype":"S.O","deliverystatus":"Non-Delivery","statename":"DELHI","regionname":"Delhi","circlename":"Delhi","divisionname":"New Delhi South","Taluk":"New Delhi"},{"officename":"Air Force Station Tugalkabad S.O","pincode":"110062","officetype":"S.O","deliverystatus":"Non-Delivery","statename":"DELHI","regionname":"Delhi","circlename":"Delhi","divisionname":"New Delhi South","Taluk":"New Delhi"},{"officename":"Dr. Ambedkar Nagar S.O (South Delhi)","pincode":"110062","officetype":"S.O","deliverystatus":"Non-Delivery","statename":"DELHI","regionname":"Delhi","circlename":"Delhi","divisionname":"New Delhi South","Taluk":"New Delhi"},{"officename":"BSF Camp Tigri S.O","pincode":"110062","officetype":"S.O","deliverystatus":"Non-Delivery","statename":"DELHI","regionname":"Delhi","circlename":"Delhi","divisionname":"New Delhi South","Taluk":"New Delhi"},{"officename":"Dakshinpuri Phase-I S.O","pincode":"110062","officetype":"S.O","deliverystatus":"Non-Delivery","statename":"DELHI","regionname":"Delhi","circlename":"Delhi","divisionname":"New Delhi South","Taluk":"New Delhi"},{"officename":"Dakshinpuri Phase-II S.O","pincode":"110062","officetype":"S.O","deliverystatus":"Non-Delivery","statename":"DELHI","regionname":"Delhi","circlename":"Delhi","divisionname":"New Delhi South","Taluk":"New Delhi"},{"officename":"Dakshinpuri Phase-III S.O","pincode":"110062","officetype":"S.O","deliverystatus":"Non-Delivery","statename":"DELHI","regionname":"Delhi","circlename":"Delhi","divisionname":"New Delhi South","Taluk":"New Delhi"},{"officename":"Hamdard Nagar S.O","pincode":"110062","officetype":"S.O","deliverystatus":"Non-Delivery","statename":"DELHI","regionname":"Delhi","circlename":"Delhi","divisionname":"New Delhi South","Taluk":"New Delhi"},{"officename":"Khanpur S.O (South Delhi)","pincode":"110062","officetype":"S.O","deliverystatus":"Non-Delivery","statename":"DELHI","regionname":"Delhi","circlename":"Delhi","divisionname":"New Delhi South","Taluk":"New Delhi"},{"officename":"Talimabad S.O","pincode":"110062","officetype":"S.O","deliverystatus":"Non-Delivery","statename":"DELHI","regionname":"Delhi","circlename":"Delhi","divisionname":"New Delhi South","Taluk":"New Delhi"},{"officename":"East Of Kailash S.O","pincode":"110065","officetype":"S.O","deliverystatus":"Non-Delivery","statename":"DELHI","regionname":"Delhi","circlename":"Delhi","divisionname":"New Delhi South","Taluk":"New Delhi"},{"officename":"East Of Kailash Phase-I S.O","pincode":"110065","officetype":"S.O","deliverystatus":"Non-Delivery","statename":"DELHI","regionname":"Delhi","circlename":"Delhi","divisionname":"New Delhi South","Taluk":"New Delhi"},{"officename":"New Friends Colony S.O","pincode":"110025","officetype":"S.O","deliverystatus":"Delivery","statename":"DELHI","regionname":"Delhi","circlename":"Delhi","divisionname":"New Delhi South","Taluk":"New Delhi"},{"officename":"Nehru Nagar S.O (South Delhi)","pincode":"110065","officetype":"S.O","deliverystatus":"Non-Delivery","statename":"DELHI","regionname":"Delhi","circlename":"Delhi","divisionname":"New Delhi South","Taluk":"New Delhi"},{"officename":"Sant Nagar S.O (South Delhi)","pincode":"110065","officetype":"S.O","deliverystatus":"Non-Delivery","statename":"DELHI","regionname":"Delhi","circlename":"Delhi","divisionname":"New Delhi South","Taluk":"New Delhi"},{"officename":"Raj Nagar - II S.O","pincode":"110077","officetype":"S.O","deliverystatus":"Delivery","statename":"DELHI","regionname":"Delhi","circlename":"Delhi","divisionname":"New Delhi West","Taluk":"New Delhi"},{"officename":"Sagarpur S.O","pincode":"110046","officetype":"S.O","deliverystatus":"Non-Delivery","statename":"DELHI","regionname":"Delhi","circlename":"Delhi","divisionname":"New Delhi West","Taluk":"New Delhi"},{"officename":"Mayapuri Shopping Centre S.O","pincode":"110064","officetype":"S.O","deliverystatus":"Non-Delivery","statename":"DELHI","regionname":"Delhi","circlename":"Delhi","divisionname":"New Delhi West","Taluk":"New Delhi"},{"officename":"Ujwa S.O","pincode":"110073","officetype":"S.O","deliverystatus":"Delivery","statename":"DELHI","regionname":"Delhi","circlename":"Delhi","divisionname":"New Delhi West","Taluk":"New Delhi"},{"officename":"Ashok Nagar S.O (West Delhi)","pincode":"110018","officetype":"S.O","deliverystatus":"Non-Delivery","statename":"DELHI","regionname":"Delhi","circlename":"Delhi","divisionname":"New Delhi West","Taluk":"New Delhi"},{"officename":"Ashoka Park Extn. S.O","pincode":"110026","officetype":"S.O","deliverystatus":"Non-Delivery","statename":"DELHI","regionname":"Delhi","circlename":"Delhi","divisionname":"New Delhi West","Taluk":"New Delhi"},{"officename":"Janakpuri A-3 S.O","pincode":"110058","officetype":"S.O","deliverystatus":"Non-Delivery","statename":"DELHI","regionname":"Delhi","circlename":"Delhi","divisionname":"New Delhi West","Taluk":"New Delhi"},{"officename":"Janakpuri B-1 S.O","pincode":"110058","officetype":"S.O","deliverystatus":"Delivery","statename":"DELHI","regionname":"Delhi","circlename":"Delhi","divisionname":"New Delhi West","Taluk":"New Delhi"},{"officename":"Chand Nagar S.O","pincode":"110018","officetype":"S.O","deliverystatus":"Non-Delivery","statename":"DELHI","regionname":"Delhi","circlename":"Delhi","divisionname":"New Delhi West","Taluk":"New Delhi"},{"officename":"Chhawla S.O","pincode":"110071","officetype":"S.O","deliverystatus":"Delivery","statename":"DELHI","regionname":"Delhi","circlename":"Delhi","divisionname":"New Delhi West","Taluk":"New Delhi"},{"officename":"CRPF Jharoda Kalan S.O","pincode":"110072","officetype":"S.O","deliverystatus":"Delivery","statename":"DELHI","regionname":"Delhi","circlename":"Delhi","divisionname":"New Delhi West","Taluk":"NA"},{"officename":"Janakpuri C-4 S.O","pincode":"110058","officetype":"S.O","deliverystatus":"Non-Delivery","statename":"DELHI","regionname":"Delhi","circlename":"Delhi","divisionname":"New Delhi West","Taluk":"New Delhi"},{"officename":"D. K. Mohan Garden S.O","pincode":"110059","officetype":"S.O","deliverystatus":"Delivery","statename":"DELHI","regionname":"Delhi","circlename":"Delhi","divisionname":"New Delhi West","Taluk":"New Delhi"},{"officename":"D.E.S.U. Colony S.O","pincode":"110058","officetype":"S.O","deliverystatus":"Non-Delivery","statename":"DELHI","regionname":"Delhi","circlename":"Delhi","divisionname":"New Delhi West","Taluk":"New Delhi"},{"officename":"Dwarka Sec-6 S.O","pincode":"110075","officetype":"S.O","deliverystatus":"Delivery","statename":"DELHI","regionname":"Delhi","circlename":"Delhi","divisionname":"New Delhi West","Taluk":"New Delhi"},{"officename":"ESI S.O","pincode":"110015","officetype":"S.O","deliverystatus":"Non-Delivery","statename":"DELHI","regionname":"Delhi","circlename":"Delhi","divisionname":"New Delhi West","Taluk":"New Delhi"},{"officename":"Fateh Nagar S.O","pincode":"110018","officetype":"S.O","deliverystatus":"Non-Delivery","statename":"DELHI","regionname":"Delhi","circlename":"Delhi","divisionname":"New Delhi West","Taluk":"New Delhi"},{"officename":"Jail Road S.O (West Delhi)","pincode":"110058","officetype":"S.O","deliverystatus":"Non-Delivery","statename":"DELHI","regionname":"Delhi","circlename":"Delhi","divisionname":"New Delhi West","Taluk":"New Delhi"},{"officename":"Janta Market S.O","pincode":"110027","officetype":"S.O","deliverystatus":"Non-Delivery","statename":"DELHI","regionname":"Delhi","circlename":"Delhi","divisionname":"New Delhi West","Taluk":"New Delhi"},{"officename":"Rajouri Garden J-6 S.O","pincode":"110027","officetype":"S.O","deliverystatus":"Non-Delivery","statename":"DELHI","regionname":"Delhi","circlename":"Delhi","divisionname":"New Delhi West","Taluk":"New Delhi"},{"officename":"Jwala Puri S.O","pincode":"110087","officetype":"S.O","deliverystatus":"Non-Delivery","statename":"DELHI","regionname":"Delhi","circlename":"Delhi","divisionname":"New Delhi West","Taluk":"New Delhi"},{"officename":"Karam Pura S.O","pincode":"110015","officetype":"S.O","deliverystatus":"Non-Delivery","statename":"DELHI","regionname":"Delhi","circlename":"Delhi","divisionname":"New Delhi West","Taluk":"New Delhi"},{"officename":"Khyala Phase -  I S.O","pincode":"110018","officetype":"S.O","deliverystatus":"Non-Delivery","statename":"DELHI","regionname":"Delhi","circlename":"Delhi","divisionname":"New Delhi West","Taluk":"New Delhi"},{"officename":"Khyala Phase - II S.O","pincode":"110018","officetype":"S.O","deliverystatus":"Non-Delivery","statename":"DELHI","regionname":"Delhi","circlename":"Delhi","divisionname":"New Delhi West","Taluk":"New Delhi"},{"officename":"L. M. Nagar Indl. Area S.O","pincode":"110015","officetype":"S.O","deliverystatus":"Non-Delivery","statename":"DELHI","regionname":"Delhi","circlename":"Delhi","divisionname":"New Delhi West","Taluk":"New Delhi"},{"officename":"Maya Puri S.O","pincode":"110064","officetype":"S.O","deliverystatus":"Delivery","statename":"DELHI","regionname":"Delhi","circlename":"Delhi","divisionname":"New Delhi West","Taluk":"New Delhi"},{"officename":"Mahabir Nagar S.O","pincode":"110018","officetype":"S.O","deliverystatus":"Non-Delivery","statename":"DELHI","regionname":"Delhi","circlename":"Delhi","divisionname":"New Delhi West","Taluk":"New Delhi"},{"officename":"Madipur Village S.O","pincode":"110063","officetype":"S.O","deliverystatus":"Non-Delivery","statename":"DELHI","regionname":"Delhi","circlename":"Delhi","divisionname":"New Delhi West","Taluk":"New Delhi"},{"officename":"Madipur Slum Quarter S.O","pincode":"110063","officetype":"S.O","deliverystatus":"Non-Delivery","statename":"DELHI","regionname":"Delhi","circlename":"Delhi","divisionname":"New Delhi West","Taluk":"New Delhi"},{"officename":"M.B.S. Nagar S.O","pincode":"110018","officetype":"S.O","deliverystatus":"Non-Delivery","statename":"DELHI","regionname":"Delhi","circlename":"Delhi","divisionname":"New Delhi West","Taluk":"New Delhi"},{"officename":"Mansarover Garden S.O","pincode":"110015","officetype":"S.O","deliverystatus":"Non-Delivery","statename":"DELHI","regionname":"Delhi","circlename":"Delhi","divisionname":"New Delhi West","Taluk":"New Delhi"},{"officename":"Nangal Raya S.O","pincode":"110046","officetype":"S.O","deliverystatus":"Delivery","statename":"DELHI","regionname":"Delhi","circlename":"Delhi","divisionname":"New Delhi West","Taluk":"New Delhi"},{"officename":"Najafgarh S.O","pincode":"110043","officetype":"S.O","deliverystatus":"Delivery","statename":"DELHI","regionname":"Delhi","circlename":"Delhi","divisionname":"New Delhi West","Taluk":"New Delhi"},{"officename":"Nangloi S.O","pincode":"110041","officetype":"S.O","deliverystatus":"Delivery","statename":"DELHI","regionname":"Delhi","circlename":"Delhi","divisionname":"New Delhi West","Taluk":"New Delhi"},{"officename":"N.S.I.T. Dwarka S.O","pincode":"110078","officetype":"S.O","deliverystatus":"Delivery","statename":"DELHI","regionname":"Delhi","circlename":"Delhi","divisionname":"New Delhi West","Taluk":"New Delhi"},{"officename":"Naraina Village S.O","pincode":"110028","officetype":"S.O","deliverystatus":"Non-Delivery","statename":"DELHI","regionname":"Delhi","circlename":"Delhi","divisionname":"New Delhi West","Taluk":"New Delhi"},{"officename":"Nangloi - III S.O","pincode":"110041","officetype":"S.O","deliverystatus":"Non-Delivery","statename":"DELHI","regionname":"Delhi","circlename":"Delhi","divisionname":"New Delhi West","Taluk":"New Delhi"},{"officename":"Palam Village S.O","pincode":"110045","officetype":"S.O","deliverystatus":"Delivery","statename":"DELHI","regionname":"Delhi","circlename":"Delhi","divisionname":"New Delhi West","Taluk":"New Delhi"},{"officename":"Punjabi Bagh S.O","pincode":"110026","officetype":"S.O","deliverystatus":"Delivery","statename":"DELHI","regionname":"Delhi","circlename":"Delhi","divisionname":"New Delhi West","Taluk":"NA"},{"officename":"Paschim Vihar S.O","pincode":"110063","officetype":"S.O","deliverystatus":"Delivery","statename":"DELHI","regionname":"Delhi","circlename":"Delhi","divisionname":"New Delhi West","Taluk":"New Delhi"},{"officename":"Punjabi Bagh Sec - III S.O","pincode":"110026","officetype":"S.O","deliverystatus":"Non-Delivery","statename":"DELHI","regionname":"Delhi","circlename":"Delhi","divisionname":"New Delhi West","Taluk":"New Delhi"},{"officename":"Paschim Vihar B Block S.O","pincode":"110063","officetype":"S.O","deliverystatus":"Non-Delivery","statename":"DELHI","regionname":"Delhi","circlename":"Delhi","divisionname":"New Delhi West","Taluk":"New Delhi"},{"officename":"Tagore Garden S.O","pincode":"110027","officetype":"S.O","deliverystatus":"Delivery","statename":"DELHI","regionname":"Delhi","circlename":"Delhi","divisionname":"New Delhi West","Taluk":"New Delhi"},{"officename":"Rajouri Market S.O","pincode":"110027","officetype":"S.O","deliverystatus":"Non-Delivery","statename":"DELHI","regionname":"Delhi","circlename":"Delhi","divisionname":"New Delhi West","Taluk":"New Delhi"},{"officename":"Subhash Nagar S.O (West Delhi)","pincode":"110027","officetype":"S.O","deliverystatus":"Non-Delivery","statename":"DELHI","regionname":"Delhi","circlename":"Delhi","divisionname":"New Delhi West","Taluk":"New Delhi"},{"officename":"Subhash Nagar West S.O","pincode":"110027","officetype":"S.O","deliverystatus":"Non-Delivery","statename":"DELHI","regionname":"Delhi","circlename":"Delhi","divisionname":"New Delhi West","Taluk":"New Delhi"},{"officename":"Shivaji Park S.O (West Delhi)","pincode":"110026","officetype":"S.O","deliverystatus":"Non-Delivery","statename":"DELHI","regionname":"Delhi","circlename":"Delhi","divisionname":"New Delhi West","Taluk":"New Delhi"},{"officename":"Sunder Vihar S.O","pincode":"110087","officetype":"S.O","deliverystatus":"Delivery","statename":"DELHI","regionname":"Delhi","circlename":"Delhi","divisionname":"New Delhi West","Taluk":"New Delhi"},{"officename":"Tilak Nagar S.O (West Delhi)","pincode":"110018","officetype":"S.O","deliverystatus":"Delivery","statename":"DELHI","regionname":"Delhi","circlename":"Delhi","divisionname":"New Delhi West","Taluk":"New Delhi"},{"officename":"Tilak Nagar East S.O","pincode":"110018","officetype":"S.O","deliverystatus":"Non-Delivery","statename":"DELHI","regionname":"Delhi","circlename":"Delhi","divisionname":"New Delhi West","Taluk":"New Delhi"},{"officename":"Uttam Nagar S.O","pincode":"110059","officetype":"S.O","deliverystatus":"Non-Delivery","statename":"DELHI","regionname":"Delhi","circlename":"Delhi","divisionname":"New Delhi West","Taluk":"New Delhi"},{"officename":"Vikas Puri S.O","pincode":"110018","officetype":"S.O","deliverystatus":"Non-Delivery","statename":"DELHI","regionname":"Delhi","circlename":"Delhi","divisionname":"New Delhi West","Taluk":"New Delhi"},{"officename":"Vishnu Garden S.O","pincode":"110018","officetype":"S.O","deliverystatus":"Non-Delivery","statename":"DELHI","regionname":"Delhi","circlename":"Delhi","divisionname":"New Delhi West","Taluk":"New Delhi"},{"officename":"Zakhira S.O","pincode":"110015","officetype":"S.O","deliverystatus":"Non-Delivery","statename":"DELHI","regionname":"Delhi","circlename":"Delhi","divisionname":"New Delhi West","Taluk":"New Delhi"},{"officename":"Gopal Nagar S.O","pincode":"110043","officetype":"S.O","deliverystatus":"Non-Delivery","statename":"DELHI","regionname":"Delhi","circlename":"Delhi","divisionname":"New Delhi West","Taluk":"Delhi"},{"officename":"Foreign Post Delhi IBC","pincode":"110100","officetype":"S.O","deliverystatus":"Delivery","statename":"DELHI","regionname":"Delhi","circlename":"Delhi","divisionname":"New Delhi Central","Taluk":"Delhi"},{"officename":"Kirari Suleman Nagar S.O","pincode":"110086","officetype":"S.O","deliverystatus":"Non-Delivery","statename":"DELHI","regionname":"Delhi","circlename":"Delhi","divisionname":"Delhi North","Taluk":"Delhi"},{"officename":"Rohini Sector-16 S.O","pincode":"110085","officetype":"S.O","deliverystatus":"Non-Delivery","statename":"DELHI","regionname":"Delhi","circlename":"Delhi","divisionname":"Delhi North","Taluk":"Delhi"},{"officename":"Nauroji Nagar S.O","pincode":"110029","officetype":"S.O","deliverystatus":"Non-Delivery","statename":"DELHI","regionname":"Delhi","circlename":"Delhi","divisionname":"New Delhi South West","Taluk":"New Delhi"},{"officename":"Rohini sec-11 S.O","pincode":"110085","officetype":"S.O","deliverystatus":"Non-Delivery","statename":"DELHI","regionname":"Delhi","circlename":"Delhi","divisionname":"Delhi North","Taluk":"Delhi"},{"officename":"Pragati Maidan Camp S.O","pincode":"110001","officetype":"S.O","deliverystatus":"Non-Delivery","statename":"DELHI","regionname":"Delhi","circlename":"Delhi","divisionname":"New Delhi Central","Taluk":"New Delhi"},{"officename":"Shaheed Bhagat Singh Colony S.O","pincode":"110090","officetype":"S.O","deliverystatus":"Non-Delivery","statename":"DELHI","regionname":"Delhi","circlename":"Delhi","divisionname":"Delhi East","Taluk":"NA"},{"officename":"Distt. Court Complex, Saket S.O","pincode":"110017","officetype":"S.O","deliverystatus":"Non-Delivery","statename":"DELHI","regionname":"Delhi","circlename":"Delhi","divisionname":"New Delhi South","Taluk":"NA"},{"officename":"Sangam Vihar S.O","pincode":"110080","officetype":"S.O","deliverystatus":"Delivery","statename":"DELHI","regionname":"Delhi","circlename":"Delhi","divisionname":"New Delhi South","Taluk":"South Delhi"},{"officename":"Harsh Vihar S.O","pincode":"110093","officetype":"S.O","deliverystatus":"Non-Delivery","statename":"DELHI","regionname":"Delhi","circlename":"Delhi","divisionname":"Delhi East","Taluk":"NA"},{"officename":"Avantika S.O","pincode":"110085","officetype":"S.O","deliverystatus":"Non-Delivery","statename":"DELHI","regionname":"Delhi","circlename":"Delhi","divisionname":"Delhi North","Taluk":"NA"},{"officename":"Distt. Court Complex, Dwarka S.O","pincode":"110078","officetype":"S.O","deliverystatus":"Non-Delivery","statename":"DELHI","regionname":"Delhi","circlename":"Delhi","divisionname":"New Delhi West","Taluk":"NA"},{"officename":"Palam Extn (Harijan Basti) S.O","pincode":"110077","officetype":"S.O","deliverystatus":"Non-Delivery","statename":"DELHI","regionname":"Delhi","circlename":"Delhi","divisionname":"New Delhi West","Taluk":"NA"},{"officename":"Wazirabad Village S.O","pincode":"110084","officetype":"S.O","deliverystatus":"Non-Delivery","statename":"DELHI","regionname":"Delhi","circlename":"Delhi","divisionname":"Delhi North","Taluk":"North"},{"officename":"Aruna Nagar S.O","pincode":"110054","officetype":"S.O","deliverystatus":"Non-Delivery","statename":"DELHI","regionname":"Delhi","circlename":"Delhi","divisionname":"Delhi North","Taluk":"North"},{"officename":"Shriram Colony Rajeev Nagar S.O","pincode":"110090","officetype":"S.O","deliverystatus":"Non-Delivery","statename":"DELHI","regionname":"Delhi","circlename":"Delhi","divisionname":"Delhi East","Taluk":"NA"},{"officename":"Kapashera S.O.","pincode":"110097","officetype":"S.O","deliverystatus":"Delivery","statename":"DELHI","regionname":"Delhi","circlename":"Delhi","divisionname":"New Delhi South West","Taluk":"NA"},{"officename":"Delhi High Court Extension Counter S.O","pincode":"110003","officetype":"S.O","deliverystatus":"Non-Delivery","statename":"DELHI","regionname":"Delhi","circlename":"Delhi","divisionname":"New Delhi Central","Taluk":"Delhi"},{"officename":"GGSIP University S.O","pincode":"110078","officetype":"S.O","deliverystatus":"Non-Delivery","statename":"DELHI","regionname":"Delhi","circlename":"Delhi","divisionname":"New Delhi West","Taluk":"NA"},{"officename":"District Court Complex Dwarka S.O","pincode":"110075","officetype":"S.O","deliverystatus":"Non-Delivery","statename":"DELHI","regionname":"Delhi","circlename":"Delhi","divisionname":"New Delhi West","Taluk":"Delhi"},{"officename":"Sunder Nagari S.O","pincode":"110093","officetype":"S.O","deliverystatus":"Non-Delivery","statename":"DELHI","regionname":"Delhi","circlename":"Delhi","divisionname":"Delhi East","Taluk":"NA"},{"officename":"AMPC Delivery S.O","pincode":"110098","officetype":"S.O","deliverystatus":"Delivery","statename":"DELHI","regionname":"Delhi","circlename":"Delhi","divisionname":"New Delhi South West","Taluk":"New Delhi"},{"officename":"Moti Nagar S.O","pincode":"110015","officetype":"S.O","deliverystatus":"Non-Delivery","statename":"DELHI","regionname":"Delhi","circlename":"Delhi","divisionname":"New Delhi West","Taluk":"Delhi"},{"officename":"Dhansa S.O","pincode":"110073","officetype":"S.O","deliverystatus":"Non-Delivery","statename":"DELHI","regionname":"Delhi","circlename":"Delhi","divisionname":"New Delhi West","Taluk":"Delhi"},{"officename":"INDERLOK","pincode":"110035","officetype":"S.O","deliverystatus":"Non-Delivery","statename":"DELHI","regionname":"Delhi","circlename":"Delhi","divisionname":"Delhi North","Taluk":"NA"},{"officename":"Meethapur S.O","pincode":"110044","officetype":"S.O","deliverystatus":"Non-Delivery","statename":"DELHI","regionname":"Delhi","circlename":"Delhi","divisionname":"New Delhi South","Taluk":"New Delhi"},{"officename":"Nathupura Village S.O","pincode":"110084","officetype":"S.O","deliverystatus":"Non-Delivery","statename":"DELHI","regionname":"Delhi","circlename":"Delhi","divisionname":"Delhi North","Taluk":"New Delhi"},{"officename":"Safdarjung Sorting Delivery Office","pincode":"110050","officetype":"S.O","deliverystatus":"Delivery","statename":"DELHI","regionname":"Delhi","circlename":"Delhi","divisionname":"New Delhi South","Taluk":"South Delhi"},{"officename":"Arjun Park S.O","pincode":"110043","officetype":"S.O","deliverystatus":"Non-Delivery","statename":"DELHI","regionname":"Delhi","circlename":"Delhi","divisionname":"New Delhi West","Taluk":"New Delhi"},{"officename":"Shyam Vihar S.O","pincode":"110043","officetype":"S.O","deliverystatus":"Non-Delivery","statename":"DELHI","regionname":"Delhi","circlename":"Delhi","divisionname":"New Delhi West","Taluk":"New Delhi"},{"officename":"Durga Park S.O","pincode":"110045","officetype":"S.O","deliverystatus":"Non-Delivery","statename":"DELHI","regionname":"Delhi","circlename":"Delhi","divisionname":"New Delhi West","Taluk":"New Delhi"},{"officename":"K-5 Extension Mohan  Garden S.O","pincode":"110059","officetype":"S.O","deliverystatus":"Non-Delivery","statename":"DELHI","regionname":"Delhi","circlename":"Delhi","divisionname":"New Delhi West","Taluk":"New Delhi"},{"officename":"Kunwar Singh Nagar S.O","pincode":"110041","officetype":"S.O","deliverystatus":"Non-Delivery","statename":"DELHI","regionname":"Delhi","circlename":"Delhi","divisionname":"New Delhi West","Taluk":"New Delhi"},{"officename":"Mahavir Enclave S.O","pincode":"110045","officetype":"S.O","deliverystatus":"Non-Delivery","statename":"DELHI","regionname":"Delhi","circlename":"Delhi","divisionname":"New Delhi West","Taluk":"New Delhi"},{"officename":"Qutub Vihar S.O","pincode":"110071","officetype":"S.O","deliverystatus":"Non-Delivery","statename":"DELHI","regionname":"Delhi","circlename":"Delhi","divisionname":"New Delhi West","Taluk":"New Delhi"},{"officename":"Sanjay Enclave S.O","pincode":"110059","officetype":"S.O","deliverystatus":"Non-Delivery","statename":"DELHI","regionname":"Delhi","circlename":"Delhi","divisionname":"New Delhi West","Taluk":"New Delhi"},{"officename":"Civic Centre S.O","pincode":"110002","officetype":"S.O","deliverystatus":"Non-Delivery","statename":"DELHI","regionname":"Delhi","circlename":"Delhi","divisionname":"New Delhi Central","Taluk":"New Delhi Central"},{"officename":"New Delhi G.P.O.","pincode":"110001","officetype":"H.O","deliverystatus":"Delivery","statename":"DELHI","regionname":"Delhi","circlename":"Delhi","divisionname":"New Delhi GPO","Taluk":"New Delhi"},{"officename":"Delhi G.P.O.","pincode":"110006","officetype":"H.O","deliverystatus":"Delivery","statename":"DELHI","regionname":"Delhi","circlename":"Delhi","divisionname":"Delhi GPO","Taluk":"Delhi"},{"officename":"Krishna Nagar H.O","pincode":"110051","officetype":"H.O","deliverystatus":"Delivery","statename":"DELHI","regionname":"Delhi","circlename":"Delhi","divisionname":"Delhi East","Taluk":"NA"},{"officename":"Jhilmil H.O","pincode":"110095","officetype":"H.O","deliverystatus":"Delivery","statename":"DELHI","regionname":"Delhi","circlename":"Delhi","divisionname":"Delhi East","Taluk":"NA"},{"officename":"Sarojini Nagar H.O","pincode":"110023","officetype":"H.O","deliverystatus":"Delivery","statename":"DELHI","regionname":"Delhi","circlename":"Delhi","divisionname":"New Delhi South West","Taluk":"Delhi"},{"officename":"Sansad Marg H.O","pincode":"110001","officetype":"H.O","deliverystatus":"Non-Delivery","statename":"DELHI","regionname":"Delhi","circlename":"Delhi","divisionname":"New Delhi Central","Taluk":"New Delhi"},{"officename":"Indraprastha H.O","pincode":"110002","officetype":"H.O","deliverystatus":"Delivery","statename":"DELHI","regionname":"Delhi","circlename":"Delhi","divisionname":"New Delhi Central","Taluk":"New Delhi"},{"officename":"Ashok Vihar H.O","pincode":"110052","officetype":"H.O","deliverystatus":"Delivery","statename":"DELHI","regionname":"Delhi","circlename":"Delhi","divisionname":"Delhi North","Taluk":"Delhi"},{"officename":"Lodi Road H.O","pincode":"110003","officetype":"H.O","deliverystatus":"Delivery","statename":"DELHI","regionname":"Delhi","circlename":"Delhi","divisionname":"New Delhi South","Taluk":"New Delhi"},{"officename":"Kalkaji H.O","pincode":"110019","officetype":"H.O","deliverystatus":"Delivery","statename":"DELHI","regionname":"Delhi","circlename":"Delhi","divisionname":"New Delhi South","Taluk":"New Delhi"},{"officename":"Ramesh Nagar H.O","pincode":"110015","officetype":"H.O","deliverystatus":"Delivery","statename":"DELHI","regionname":"Delhi","circlename":"Delhi","divisionname":"New Delhi West","Taluk":"New Delhi"},{"officename":"Naraina Industrial Estate H.O","pincode":"110028","officetype":"H.O","deliverystatus":"Delivery","statename":"DELHI","regionname":"Delhi","circlename":"Delhi","divisionname":"New Delhi West","Taluk":"New Delhi"},{"officename":"Nilwal B.O","pincode":"110041","officetype":"B.O","deliverystatus":"Delivery","statename":"DELHI","regionname":"Delhi","circlename":"Delhi","divisionname":"New Delhi West","Taluk":"New Delhi"},{"officename":"Tikri Khurd B.O","pincode":"110040","officetype":"B.O","deliverystatus":"Delivery","statename":"DELHI","regionname":"Delhi","circlename":"Delhi","divisionname":"Delhi North","Taluk":"Delhi"},{"officename":"Prem Nagar B.O","pincode":"110086","officetype":"B.O","deliverystatus":"Delivery","statename":"DELHI","regionname":"Delhi","circlename":"Delhi","divisionname":"Delhi North","Taluk":"Delhi"},{"officename":"Mungeshpur B.O","pincode":"110039","officetype":"B.O","deliverystatus":"Delivery","statename":"DELHI","regionname":"Delhi","circlename":"Delhi","divisionname":"Delhi North","Taluk":"Delhi"},{"officename":"Shahbad Daulatpur B.O","pincode":"110042","officetype":"B.O","deliverystatus":"Delivery","statename":"DELHI","regionname":"Delhi","circlename":"Delhi","divisionname":"Delhi North","Taluk":"Delhi"},{"officename":"Sanoth B.O B.O","pincode":"110040","officetype":"B.O","deliverystatus":"Delivery","statename":"DELHI","regionname":"Delhi","circlename":"Delhi","divisionname":"Delhi North","Taluk":"Delhi"},{"officename":"New Multan Nagar B.O","pincode":"110056","officetype":"B.O","deliverystatus":"Delivery","statename":"DELHI","regionname":"Delhi","circlename":"Delhi","divisionname":"Delhi North","Taluk":"Delhi"},{"officename":"Daryapur Kalan B.O","pincode":"110039","officetype":"B.O","deliverystatus":"Delivery","statename":"DELHI","regionname":"Delhi","circlename":"Delhi","divisionname":"Delhi North","Taluk":"Delhi"},{"officename":"Majnu ka Tila B.O","pincode":"110054","officetype":"B.O","deliverystatus":"Delivery","statename":"DELHI","regionname":"Delhi","circlename":"Delhi","divisionname":"Delhi North","Taluk":"Delhi"},{"officename":"Naharpur B.O","pincode":"110085","officetype":"B.O","deliverystatus":"Delivery","statename":"DELHI","regionname":"Delhi","circlename":"Delhi","divisionname":"Delhi North","Taluk":"North West Delhi"},{"officename":"Badarpur Khadar B.O","pincode":"110090","officetype":"B.O","deliverystatus":"Delivery","statename":"DELHI","regionname":"Delhi","circlename":"Delhi","divisionname":"Delhi East","Taluk":"East Delhi"},{"officename":"Garhi Mandu B.O","pincode":"110053","officetype":"B.O","deliverystatus":"Delivery","statename":"DELHI","regionname":"Delhi","circlename":"Delhi","divisionname":"Delhi East","Taluk":"East Delhi"},{"officename":"Sawan Public School B.O","pincode":"110074","officetype":"B.O","deliverystatus":"Delivery","statename":"DELHI","regionname":"Delhi","circlename":"Delhi","divisionname":"New Delhi South West","Taluk":"South West Delhi"},{"officename":"Sanjay Colony Bhati Mines B.O","pincode":"110074","officetype":"B.O","deliverystatus":"Delivery","statename":"DELHI","regionname":"Delhi","circlename":"Delhi","divisionname":"New Delhi South West","Taluk":"South West Delhi"},{"officename":"DC Goyla B.O","pincode":"110071","officetype":"B.O","deliverystatus":"Delivery","statename":"DELHI","regionname":"Delhi","circlename":"Delhi","divisionname":"New Delhi West","Taluk":"South West Delhi"},{"officename":"Govind Pura S.O","pincode":"110051","officetype":"S.O","deliverystatus":"Non-Delivery","statename":"DELHI","regionname":"Delhi","circlename":"Delhi","divisionname":"Delhi East","Taluk":"NA"},{"officename":"Patparganj S.O","pincode":"110091","officetype":"S.O","deliverystatus":"Delivery","statename":"DELHI","regionname":"Delhi","circlename":"Delhi","divisionname":"Delhi East","Taluk":"NA"},{"officename":"Mayur Vihar Ph-I S.O","pincode":"110091","officetype":"S.O","deliverystatus":"Non-Delivery","statename":"DELHI","regionname":"Delhi","circlename":"Delhi","divisionname":"Delhi East","Taluk":"NA"},{"officename":"Himmatpuri S.O","pincode":"110091","officetype":"S.O","deliverystatus":"Non-Delivery","statename":"DELHI","regionname":"Delhi","circlename":"Delhi","divisionname":"Delhi East","Taluk":"NA"},{"officename":"Gandhi Nagar S.O (East Delhi)","pincode":"110031","officetype":"S.O","deliverystatus":"Delivery","statename":"DELHI","regionname":"Delhi","circlename":"Delhi","divisionname":"Delhi East","Taluk":"NA"},{"officename":"Laxmi Nagar S.O (East Delhi)","pincode":"110092","officetype":"S.O","deliverystatus":"Delivery","statename":"DELHI","regionname":"Delhi","circlename":"Delhi","divisionname":"Delhi East","Taluk":"NA"},{"officename":"Seelampur S.O","pincode":"110053","officetype":"S.O","deliverystatus":"Delivery","statename":"DELHI","regionname":"Delhi","circlename":"Delhi","divisionname":"Delhi East","Taluk":"NA"},{"officename":"Nand Nagri \"C\" S.O","pincode":"110093","officetype":"S.O","deliverystatus":"Delivery","statename":"DELHI","regionname":"Delhi","circlename":"Delhi","divisionname":"Delhi East","Taluk":"NA"},{"officename":"Gokal Puri S.O","pincode":"110094","officetype":"S.O","deliverystatus":"Delivery","statename":"DELHI","regionname":"Delhi","circlename":"Delhi","divisionname":"Delhi East","Taluk":"NA"},{"officename":"Shahdara S.O","pincode":"110032","officetype":"S.O","deliverystatus":"Delivery","statename":"DELHI","regionname":"Delhi","circlename":"Delhi","divisionname":"Delhi East","Taluk":"NA"},{"officename":"Vasundhra Enclave S.O","pincode":"110096","officetype":"S.O","deliverystatus":"Delivery","statename":"DELHI","regionname":"Delhi","circlename":"Delhi","divisionname":"Delhi East","Taluk":"NA"},{"officename":"Kalyanpuri S.O","pincode":"110091","officetype":"S.O","deliverystatus":"Non-Delivery","statename":"DELHI","regionname":"Delhi","circlename":"Delhi","divisionname":"Delhi East","Taluk":"NA"},{"officename":"Kalyanvas S.O","pincode":"110091","officetype":"S.O","deliverystatus":"Non-Delivery","statename":"DELHI","regionname":"Delhi","circlename":"Delhi","divisionname":"Delhi East","Taluk":"NA"},{"officename":"Trilok Puri S.O","pincode":"110091","officetype":"S.O","deliverystatus":"Non-Delivery","statename":"DELHI","regionname":"Delhi","circlename":"Delhi","divisionname":"Delhi East","Taluk":"NA"},{"officename":"Mayur Vihar Ph-III S.O","pincode":"110096","officetype":"S.O","deliverystatus":"Non-Delivery","statename":"DELHI","regionname":"Delhi","circlename":"Delhi","divisionname":"Delhi East","Taluk":"NA"},{"officename":"Distt. Court (KKD) S.O","pincode":"110032","officetype":"S.O","deliverystatus":"Non-Delivery","statename":"DELHI","regionname":"Delhi","circlename":"Delhi","divisionname":"Delhi East","Taluk":"NA"},{"officename":"Ram Nagar S.O (East Delhi)","pincode":"110051","officetype":"S.O","deliverystatus":"Non-Delivery","statename":"DELHI","regionname":"Delhi","circlename":"Delhi","divisionname":"Delhi East","Taluk":"NA"},{"officename":"V.K. Nagar S.O","pincode":"110095","officetype":"S.O","deliverystatus":"Non-Delivery","statename":"DELHI","regionname":"Delhi","circlename":"Delhi","divisionname":"Delhi East","Taluk":"NA"},{"officename":"Vishwas Nagar S.O","pincode":"110032","officetype":"S.O","deliverystatus":"Non-Delivery","statename":"DELHI","regionname":"Delhi","circlename":"Delhi","divisionname":"Delhi East","Taluk":"NA"},{"officename":"Vivek Vihar S.O","pincode":"110095","officetype":"S.O","deliverystatus":"Non-Delivery","statename":"DELHI","regionname":"Delhi","circlename":"Delhi","divisionname":"Delhi East","Taluk":"NA"},{"officename":"Gandhi Nagar Bazar S.O","pincode":"110031","officetype":"S.O","deliverystatus":"Non-Delivery","statename":"DELHI","regionname":"Delhi","circlename":"Delhi","divisionname":"Delhi East","Taluk":"NA"},{"officename":"Geeta Colony S.O","pincode":"110031","officetype":"S.O","deliverystatus":"Non-Delivery","statename":"DELHI","regionname":"Delhi","circlename":"Delhi","divisionname":"Delhi East","Taluk":"NA"},{"officename":"Kailash Nagar S.O","pincode":"110031","officetype":"S.O","deliverystatus":"Non-Delivery","statename":"DELHI","regionname":"Delhi","circlename":"Delhi","divisionname":"Delhi East","Taluk":"NA"},{"officename":"Shastri Nagar S.O (East Delhi)","pincode":"110031","officetype":"S.O","deliverystatus":"Non-Delivery","statename":"DELHI","regionname":"Delhi","circlename":"Delhi","divisionname":"Delhi East","Taluk":"NA"},{"officename":"Raghubar Pura S.O","pincode":"110031","officetype":"S.O","deliverystatus":"Non-Delivery","statename":"DELHI","regionname":"Delhi","circlename":"Delhi","divisionname":"Delhi East","Taluk":"NA"},{"officename":"Rajgarh Colony S.O","pincode":"110031","officetype":"S.O","deliverystatus":"Non-Delivery","statename":"DELHI","regionname":"Delhi","circlename":"Delhi","divisionname":"Delhi East","Taluk":"NA"},{"officename":"Azad Nagar S.O (East Delhi)","pincode":"110051","officetype":"S.O","deliverystatus":"Non-Delivery","statename":"DELHI","regionname":"Delhi","circlename":"Delhi","divisionname":"Delhi East","Taluk":"NA"},{"officename":"Shakarpur S.O","pincode":"110092","officetype":"S.O","deliverystatus":"Non-Delivery","statename":"DELHI","regionname":"Delhi","circlename":"Delhi","divisionname":"Delhi East","Taluk":"NA"},{"officename":"Mandawali Fazalpur S.O","pincode":"110092","officetype":"S.O","deliverystatus":"Non-Delivery","statename":"DELHI","regionname":"Delhi","circlename":"Delhi","divisionname":"Delhi East","Taluk":"NA"},{"officename":"Nirman Vihar S.O","pincode":"110092","officetype":"S.O","deliverystatus":"Non-Delivery","statename":"DELHI","regionname":"Delhi","circlename":"Delhi","divisionname":"Delhi East","Taluk":"NA"},{"officename":"Anand Vihar S.O","pincode":"110092","officetype":"S.O","deliverystatus":"Non-Delivery","statename":"DELHI","regionname":"Delhi","circlename":"Delhi","divisionname":"Delhi East","Taluk":"NA"},{"officename":"Surajmal Vihar S.O","pincode":"110092","officetype":"S.O","deliverystatus":"Non-Delivery","statename":"DELHI","regionname":"Delhi","circlename":"Delhi","divisionname":"Delhi East","Taluk":"NA"},{"officename":"Yozna Vihar S.O","pincode":"110092","officetype":"S.O","deliverystatus":"Non-Delivery","statename":"DELHI","regionname":"Delhi","circlename":"Delhi","divisionname":"Delhi East","Taluk":"NA"},{"officename":"Dilshad Garden S.O","pincode":"110095","officetype":"S.O","deliverystatus":"Non-Delivery","statename":"DELHI","regionname":"Delhi","circlename":"Delhi","divisionname":"Delhi East","Taluk":"NA"},{"officename":"New Seemapuri S.O","pincode":"110095","officetype":"S.O","deliverystatus":"Non-Delivery","statename":"DELHI","regionname":"Delhi","circlename":"Delhi","divisionname":"Delhi East","Taluk":"NA"},{"officename":"Old Seemapuri S.O","pincode":"110095","officetype":"S.O","deliverystatus":"Non-Delivery","statename":"DELHI","regionname":"Delhi","circlename":"Delhi","divisionname":"Delhi East","Taluk":"NA"},{"officename":"Jafrabad S.O (East Delhi)","pincode":"110053","officetype":"S.O","deliverystatus":"Non-Delivery","statename":"DELHI","regionname":"Delhi","circlename":"Delhi","divisionname":"Delhi East","Taluk":"NA"},{"officename":"Maujpur S.O","pincode":"110053","officetype":"S.O","deliverystatus":"Non-Delivery","statename":"DELHI","regionname":"Delhi","circlename":"Delhi","divisionname":"Delhi East","Taluk":"NA"},{"officename":"Jagjit Nagar S.O","pincode":"110053","officetype":"S.O","deliverystatus":"Non-Delivery","statename":"DELHI","regionname":"Delhi","circlename":"Delhi","divisionname":"Delhi East","Taluk":"NA"},{"officename":"Nand Nagri \"A\" S.O","pincode":"110093","officetype":"S.O","deliverystatus":"Non-Delivery","statename":"DELHI","regionname":"Delhi","circlename":"Delhi","divisionname":"Delhi East","Taluk":"NA"},{"officename":"G.T.B. Hospital S.O","pincode":"110095","officetype":"S.O","deliverystatus":"Non-Delivery","statename":"DELHI","regionname":"Delhi","circlename":"Delhi","divisionname":"Delhi East","Taluk":"NA"},{"officename":"Loni Road Housing Complex S.O","pincode":"110093","officetype":"S.O","deliverystatus":"Non-Delivery","statename":"DELHI","regionname":"Delhi","circlename":"Delhi","divisionname":"Delhi East","Taluk":"NA"},{"officename":"Yamuna Vihar S.O","pincode":"110053","officetype":"S.O","deliverystatus":"Non-Delivery","statename":"DELHI","regionname":"Delhi","circlename":"Delhi","divisionname":"Delhi East","Taluk":"NA"},{"officename":"Sonia Vihar S.O","pincode":"110090","officetype":"S.O","deliverystatus":"Non-Delivery","statename":"DELHI","regionname":"Delhi","circlename":"Delhi","divisionname":"Delhi East","Taluk":"NA"},{"officename":"Bhajan Pura S.O","pincode":"110053","officetype":"S.O","deliverystatus":"Non-Delivery","statename":"DELHI","regionname":"Delhi","circlename":"Delhi","divisionname":"Delhi East","Taluk":"NA"},{"officename":"Karawal Nagar S.O","pincode":"110090","officetype":"S.O","deliverystatus":"Delivery","statename":"DELHI","regionname":"Delhi","circlename":"Delhi","divisionname":"Delhi East","Taluk":"NA"},{"officename":"Shahdara Mandi S.O","pincode":"110032","officetype":"S.O","deliverystatus":"Non-Delivery","statename":"DELHI","regionname":"Delhi","circlename":"Delhi","divisionname":"Delhi East","Taluk":"NA"},{"officename":"Bhola Nath Nagar S.O","pincode":"110032","officetype":"S.O","deliverystatus":"Non-Delivery","statename":"DELHI","regionname":"Delhi","circlename":"Delhi","divisionname":"Delhi East","Taluk":"NA"},{"officename":"Balbir Nagar S.O","pincode":"110032","officetype":"S.O","deliverystatus":"Non-Delivery","statename":"DELHI","regionname":"Delhi","circlename":"Delhi","divisionname":"Delhi East","Taluk":"NA"},{"officename":"Rohtash Nagar S.O","pincode":"110032","officetype":"S.O","deliverystatus":"Non-Delivery","statename":"DELHI","regionname":"Delhi","circlename":"Delhi","divisionname":"Delhi East","Taluk":"NA"},{"officename":"Telewara S.O","pincode":"110032","officetype":"S.O","deliverystatus":"Non-Delivery","statename":"DELHI","regionname":"Delhi","circlename":"Delhi","divisionname":"Delhi East","Taluk":"NA"},{"officename":"Man Sarovar Park S.O","pincode":"110032","officetype":"S.O","deliverystatus":"Non-Delivery","statename":"DELHI","regionname":"Delhi","circlename":"Delhi","divisionname":"Delhi East","Taluk":"NA"},{"officename":"Goverdhan Bihari Colony S.O","pincode":"110032","officetype":"S.O","deliverystatus":"Non-Delivery","statename":"DELHI","regionname":"Delhi","circlename":"Delhi","divisionname":"Delhi East","Taluk":"NA"},{"officename":"Loni Road S.O","pincode":"110032","officetype":"S.O","deliverystatus":"Non-Delivery","statename":"DELHI","regionname":"Delhi","circlename":"Delhi","divisionname":"Delhi East","Taluk":"NA"},{"officename":"Shivaji Park S.O (East Delhi)","pincode":"110032","officetype":"S.O","deliverystatus":"Non-Delivery","statename":"DELHI","regionname":"Delhi","circlename":"Delhi","divisionname":"Delhi East","Taluk":"NA"},{"officename":"Chattarpur S.O","pincode":"110074","officetype":"S.O","deliverystatus":"Delivery","statename":"DELHI","regionname":"Delhi","circlename":"Delhi","divisionname":"New Delhi South West","Taluk":"NA"},{"officename":"Delhi Cantt S.O","pincode":"110010","officetype":"S.O","deliverystatus":"Delivery","statename":"DELHI","regionname":"Delhi","circlename":"Delhi","divisionname":"New Delhi South West","Taluk":"NA"},{"officename":"A F Palam S.O","pincode":"110010","officetype":"S.O","deliverystatus":"Non-Delivery","statename":"DELHI","regionname":"Delhi","circlename":"Delhi","divisionname":"New Delhi South West","Taluk":"NA"},{"officename":"Anand Niketan S.O","pincode":"110021","officetype":"S.O","deliverystatus":"Non-Delivery","statename":"DELHI","regionname":"Delhi","circlename":"Delhi","divisionname":"New Delhi South West","Taluk":"NA"},{"officename":"Ansari Nagar S.O","pincode":"110029","officetype":"S.O","deliverystatus":"Non-Delivery","statename":"DELHI","regionname":"Delhi","circlename":"Delhi","divisionname":"New Delhi South West","Taluk":"NA"},{"officename":"505 A B Workshop S.O","pincode":"110010","officetype":"S.O","deliverystatus":"Non-Delivery","statename":"DELHI","regionname":"Delhi","circlename":"Delhi","divisionname":"New Delhi South West","Taluk":"NA"},{"officename":"Bazar Road S.O","pincode":"110010","officetype":"S.O","deliverystatus":"Non-Delivery","statename":"DELHI","regionname":"Delhi","circlename":"Delhi","divisionname":"New Delhi South West","Taluk":"NA"},{"officename":"COD S.O (South West Delhi)","pincode":"110010","officetype":"S.O","deliverystatus":"Non-Delivery","statename":"DELHI","regionname":"Delhi","circlename":"Delhi","divisionname":"New Delhi South West","Taluk":"NA"},{"officename":"C.V.D. S.O","pincode":"110010","officetype":"S.O","deliverystatus":"Non-Delivery","statename":"DELHI","regionname":"Delhi","circlename":"Delhi","divisionname":"New Delhi South West","Taluk":"NA"},{"officename":"Dhaula Kuan S.O","pincode":"110010","officetype":"S.O","deliverystatus":"Non-Delivery","statename":"DELHI","regionname":"Delhi","circlename":"Delhi","divisionname":"New Delhi South West","Taluk":"NA"},{"officename":"Green Park Market S.O","pincode":"110016","officetype":"S.O","deliverystatus":"Non-Delivery","statename":"DELHI","regionname":"Delhi","circlename":"Delhi","divisionname":"New Delhi South West","Taluk":"NA"},{"officename":"Hauz Khas Market S.O","pincode":"110016","officetype":"S.O","deliverystatus":"Non-Delivery","statename":"DELHI","regionname":"Delhi","circlename":"Delhi","divisionname":"New Delhi South West","Taluk":"NA"},{"officename":"IT Hauz Khas S.O","pincode":"110016","officetype":"S.O","deliverystatus":"Non-Delivery","statename":"DELHI","regionname":"Delhi","circlename":"Delhi","divisionname":"New Delhi South West","Taluk":"NA"},{"officename":"IGI Airport S.O","pincode":"110037","officetype":"S.O","deliverystatus":"Non-Delivery","statename":"DELHI","regionname":"Delhi","circlename":"Delhi","divisionname":"New Delhi South West","Taluk":"NA"},{"officename":"Kidwai Nagar East S.O","pincode":"110023","officetype":"S.O","deliverystatus":"Non-Delivery","statename":"DELHI","regionname":"Delhi","circlename":"Delhi","divisionname":"New Delhi South West","Taluk":"NA"},{"officename":"Kidwai Nagar West S.O","pincode":"110023","officetype":"S.O","deliverystatus":"Non-Delivery","statename":"DELHI","regionname":"Delhi","circlename":"Delhi","divisionname":"New Delhi South West","Taluk":"NA"},{"officename":"Kirby Place S.O","pincode":"110010","officetype":"S.O","deliverystatus":"Non-Delivery","statename":"DELHI","regionname":"Delhi","circlename":"Delhi","divisionname":"New Delhi South West","Taluk":"NA"},{"officename":"Laxmi Bai Nagar S.O","pincode":"110023","officetype":"S.O","deliverystatus":"Non-Delivery","statename":"DELHI","regionname":"Delhi","circlename":"Delhi","divisionname":"New Delhi South West","Taluk":"NA"},{"officename":"Malcha Marg S.O","pincode":"110021","officetype":"S.O","deliverystatus":"Non-Delivery","statename":"DELHI","regionname":"Delhi","circlename":"Delhi","divisionname":"New Delhi South West","Taluk":"NA"},{"officename":"Moti Bagh S.O","pincode":"110021","officetype":"S.O","deliverystatus":"Non-Delivery","statename":"DELHI","regionname":"Delhi","circlename":"Delhi","divisionname":"New Delhi South West","Taluk":"NA"},{"officename":"Munirka S.O","pincode":"110067","officetype":"S.O","deliverystatus":"Non-Delivery","statename":"DELHI","regionname":"Delhi","circlename":"Delhi","divisionname":"New Delhi South West","Taluk":"NA"},{"officename":"Netaji Nagar S.O (South West Delhi)","pincode":"110023","officetype":"S.O","deliverystatus":"Non-Delivery","statename":"DELHI","regionname":"Delhi","circlename":"Delhi","divisionname":"New Delhi South West","Taluk":"NA"},{"officename":"Nanak Pura S.O","pincode":"110021","officetype":"S.O","deliverystatus":"Non-Delivery","statename":"DELHI","regionname":"Delhi","circlename":"Delhi","divisionname":"New Delhi South West","Taluk":"NA"},{"officename":"NIE Campus S.O","pincode":"110016","officetype":"S.O","deliverystatus":"Non-Delivery","statename":"DELHI","regionname":"Delhi","circlename":"Delhi","divisionname":"New Delhi South West","Taluk":"NA"},{"officename":"R K Puram Sect-1 S.O","pincode":"110022","officetype":"S.O","deliverystatus":"Non-Delivery","statename":"DELHI","regionname":"Delhi","circlename":"Delhi","divisionname":"New Delhi South West","Taluk":"NA"},{"officename":"R K Puram Sect-3 S.O","pincode":"110022","officetype":"S.O","deliverystatus":"Non-Delivery","statename":"DELHI","regionname":"Delhi","circlename":"Delhi","divisionname":"New Delhi South West","Taluk":"NA"},{"officename":"R K Puram Sect-4 S.O","pincode":"110022","officetype":"S.O","deliverystatus":"Non-Delivery","statename":"DELHI","regionname":"Delhi","circlename":"Delhi","divisionname":"New Delhi South West","Taluk":"NA"},{"officename":"R K Puram Sect7 S.O","pincode":"110022","officetype":"S.O","deliverystatus":"Non-Delivery","statename":"DELHI","regionname":"Delhi","circlename":"Delhi","divisionname":"New Delhi South West","Taluk":"NA"},{"officename":"R K Puram Sect-8 S.O","pincode":"110022","officetype":"S.O","deliverystatus":"Non-Delivery","statename":"DELHI","regionname":"Delhi","circlename":"Delhi","divisionname":"New Delhi South West","Taluk":"NA"},{"officename":"R K Puram Sect-12 S.O","pincode":"110022","officetype":"S.O","deliverystatus":"Non-Delivery","statename":"DELHI","regionname":"Delhi","circlename":"Delhi","divisionname":"New Delhi South West","Taluk":"NA"},{"officename":"R K Puram West S.O","pincode":"110066","officetype":"S.O","deliverystatus":"Non-Delivery","statename":"DELHI","regionname":"Delhi","circlename":"Delhi","divisionname":"New Delhi South West","Taluk":"NA"},{"officename":"R R Hospital S.O","pincode":"110010","officetype":"S.O","deliverystatus":"Non-Delivery","statename":"DELHI","regionname":"Delhi","circlename":"Delhi","divisionname":"New Delhi South West","Taluk":"NA"},{"officename":"Signal Enclave S.O","pincode":"110010","officetype":"S.O","deliverystatus":"Non-Delivery","statename":"DELHI","regionname":"Delhi","circlename":"Delhi","divisionname":"New Delhi South West","Taluk":"NA"},{"officename":"JNU New Campus S.O","pincode":"110067","officetype":"S.O","deliverystatus":"Non-Delivery","statename":"DELHI","regionname":"Delhi","circlename":"Delhi","divisionname":"New Delhi South West","Taluk":"NA"},{"officename":"Station Road S.O (South West Delhi)","pincode":"110010","officetype":"S.O","deliverystatus":"Non-Delivery","statename":"DELHI","regionname":"Delhi","circlename":"Delhi","divisionname":"New Delhi South West","Taluk":"NA"},{"officename":"Subroto Park S.O","pincode":"110010","officetype":"S.O","deliverystatus":"Non-Delivery","statename":"DELHI","regionname":"Delhi","circlename":"Delhi","divisionname":"New Delhi South West","Taluk":"NA"},{"officename":"South Delhi Campus S.O","pincode":"110021","officetype":"S.O","deliverystatus":"Non-Delivery","statename":"DELHI","regionname":"Delhi","circlename":"Delhi","divisionname":"New Delhi South West","Taluk":"NA"},{"officename":"T B Hospital S.O","pincode":"110030","officetype":"S.O","deliverystatus":"Non-Delivery","statename":"DELHI","regionname":"Delhi","circlename":"Delhi","divisionname":"New Delhi South West","Taluk":"NA"},{"officename":"Technology Bhawan S.O","pincode":"110016","officetype":"S.O","deliverystatus":"Non-Delivery","statename":"DELHI","regionname":"Delhi","circlename":"Delhi","divisionname":"New Delhi South West","Taluk":"NA"},{"officename":"Palam Airport S.O","pincode":"110037","officetype":"S.O","deliverystatus":"Non-Delivery","statename":"DELHI","regionname":"Delhi","circlename":"Delhi","divisionname":"New Delhi South West","Taluk":"NA"},{"officename":"Pinto Park S.O","pincode":"110010","officetype":"S.O","deliverystatus":"Non-Delivery","statename":"DELHI","regionname":"Delhi","circlename":"Delhi","divisionname":"New Delhi South West","Taluk":"NA"},{"officename":"Paryavaran Complex S.O","pincode":"110030","officetype":"S.O","deliverystatus":"Non-Delivery","statename":"DELHI","regionname":"Delhi","circlename":"Delhi","divisionname":"New Delhi South West","Taluk":"NA"},{"officename":"Vasant Kunj Pkt-A S.O","pincode":"110070","officetype":"S.O","deliverystatus":"Non-Delivery","statename":"DELHI","regionname":"Delhi","circlename":"Delhi","divisionname":"New Delhi South West","Taluk":"NA"},{"officename":"Vasant Vihar-2 S.O","pincode":"110057","officetype":"S.O","deliverystatus":"Non-Delivery","statename":"DELHI","regionname":"Delhi","circlename":"Delhi","divisionname":"New Delhi South West","Taluk":"NA"},{"officename":"Chanakya Puri S.O","pincode":"110021","officetype":"S.O","deliverystatus":"Delivery","statename":"DELHI","regionname":"Delhi","circlename":"Delhi","divisionname":"New Delhi South West","Taluk":"NA"},{"officename":"Mehrauli S.O","pincode":"110030","officetype":"S.O","deliverystatus":"Delivery","statename":"DELHI","regionname":"Delhi","circlename":"Delhi","divisionname":"New Delhi South West","Taluk":"NA"},{"officename":"A F Rajokari S.O","pincode":"110038","officetype":"S.O","deliverystatus":"Delivery","statename":"DELHI","regionname":"Delhi","circlename":"Delhi","divisionname":"New Delhi South West","Taluk":"NA"},{"officename":"Bijwasan S.O","pincode":"110061","officetype":"S.O","deliverystatus":"Delivery","statename":"DELHI","regionname":"Delhi","circlename":"Delhi","divisionname":"New Delhi South West","Taluk":"NA"},{"officename":"Arjungarh S.O","pincode":"110047","officetype":"S.O","deliverystatus":"Delivery","statename":"DELHI","regionname":"Delhi","circlename":"Delhi","divisionname":"New Delhi South West","Taluk":"NA"},{"officename":"Gurgaon Road S.O","pincode":"110037","officetype":"S.O","deliverystatus":"Delivery","statename":"DELHI","regionname":"Delhi","circlename":"Delhi","divisionname":"New Delhi South West","Taluk":"NA"},{"officename":"Hauz Khas S.O","pincode":"110016","officetype":"S.O","deliverystatus":"Delivery","statename":"DELHI","regionname":"Delhi","circlename":"Delhi","divisionname":"New Delhi South West","Taluk":"NA"},{"officename":"R K Puram (Main) S.O","pincode":"110066","officetype":"S.O","deliverystatus":"Delivery","statename":"DELHI","regionname":"Delhi","circlename":"Delhi","divisionname":"New Delhi South West","Taluk":"NA"},{"officename":"Safdarjung Enclave S.O","pincode":"110029","officetype":"S.O","deliverystatus":"Delivery","statename":"DELHI","regionname":"Delhi","circlename":"Delhi","divisionname":"New Delhi South West","Taluk":"NA"},{"officename":"R K Puram Sect-5 S.O","pincode":"110022","officetype":"S.O","deliverystatus":"Delivery","statename":"DELHI","regionname":"Delhi","circlename":"Delhi","divisionname":"New Delhi South West","Taluk":"NA"},{"officename":"Vasant Vihar-1 S.O","pincode":"110057","officetype":"S.O","deliverystatus":"Delivery","statename":"DELHI","regionname":"Delhi","circlename":"Delhi","divisionname":"New Delhi South West","Taluk":"NA"},{"officename":"Vasant Kunj S.O","pincode":"110070","officetype":"S.O","deliverystatus":"Delivery","statename":"DELHI","regionname":"Delhi","circlename":"Delhi","divisionname":"New Delhi South West","Taluk":"NA"},{"officename":"Ignou S.O","pincode":"110068","officetype":"S.O","deliverystatus":"Delivery","statename":"DELHI","regionname":"Delhi","circlename":"Delhi","divisionname":"New Delhi South West","Taluk":"NA"},{"officename":"J.N.U. S.O","pincode":"110067","officetype":"S.O","deliverystatus":"Delivery","statename":"DELHI","regionname":"Delhi","circlename":"Delhi","divisionname":"New Delhi South West","Taluk":"NA"},{"officename":"A.G.C.R. S.O","pincode":"110002","officetype":"S.O","deliverystatus":"Non-Delivery","statename":"DELHI","regionname":"Delhi","circlename":"Delhi","divisionname":"New Delhi Central","Taluk":"New Delhi"},{"officename":"Ajmeri Gate Extn. S.O","pincode":"110002","officetype":"S.O","deliverystatus":"Non-Delivery","statename":"DELHI","regionname":"Delhi","circlename":"Delhi","divisionname":"New Delhi Central","Taluk":"New Delhi"},{"officename":"Baroda House S.O","pincode":"110001","officetype":"S.O","deliverystatus":"Non-Delivery","statename":"DELHI","regionname":"Delhi","circlename":"Delhi","divisionname":"New Delhi Central","Taluk":"New Delhi"},{"officename":"Delhi High Court S.O","pincode":"110003","officetype":"S.O","deliverystatus":"Non-Delivery","statename":"DELHI","regionname":"Delhi","circlename":"Delhi","divisionname":"New Delhi Central","Taluk":"New Delhi"},{"officename":"Darya Ganj S.O","pincode":"110002","officetype":"S.O","deliverystatus":"Non-Delivery","statename":"DELHI","regionname":"Delhi","circlename":"Delhi","divisionname":"New Delhi Central","Taluk":"New Delhi"},{"officename":"Hauz Qazi S.O","pincode":"110006","officetype":"S.O","deliverystatus":"Non-Delivery","statename":"DELHI","regionname":"Delhi","circlename":"Delhi","divisionname":"New Delhi Central","Taluk":"Delhi"},{"officename":"I.P.Estate S.O","pincode":"110002","officetype":"S.O","deliverystatus":"Non-Delivery","statename":"DELHI","regionname":"Delhi","circlename":"Delhi","divisionname":"New Delhi Central","Taluk":"New Delhi"},{"officename":"Jama Masjid S.O","pincode":"110006","officetype":"S.O","deliverystatus":"Non-Delivery","statename":"DELHI","regionname":"Delhi","circlename":"Delhi","divisionname":"New Delhi Central","Taluk":"Delhi"},{"officename":"Minto Road S.O","pincode":"110002","officetype":"S.O","deliverystatus":"Non-Delivery","statename":"DELHI","regionname":"Delhi","circlename":"Delhi","divisionname":"New Delhi Central","Taluk":"New Delhi"},{"officename":"Pandara Road S.O","pincode":"110003","officetype":"S.O","deliverystatus":"Non-Delivery","statename":"DELHI","regionname":"Delhi","circlename":"Delhi","divisionname":"New Delhi Central","Taluk":"New Delhi"},{"officename":"Pragati Maidan S.O","pincode":"110001","officetype":"S.O","deliverystatus":"Non-Delivery","statename":"DELHI","regionname":"Delhi","circlename":"Delhi","divisionname":"New Delhi Central","Taluk":"New Delhi"},{"officename":"Supreme Court S.O","pincode":"110001","officetype":"S.O","deliverystatus":"Non-Delivery","statename":"DELHI","regionname":"Delhi","circlename":"Delhi","divisionname":"New Delhi Central","Taluk":"New Delhi"},{"officename":"Patiala House S.O","pincode":"110001","officetype":"S.O","deliverystatus":"Non-Delivery","statename":"DELHI","regionname":"Delhi","circlename":"Delhi","divisionname":"New Delhi Central","Taluk":"New Delhi"},{"officename":"Gandhi Smarak Nidhi S.O","pincode":"110002","officetype":"S.O","deliverystatus":"Non-Delivery","statename":"DELHI","regionname":"Delhi","circlename":"Delhi","divisionname":"New Delhi Central","Taluk":"New Delhi"},{"officename":"Anand Parbat S.O","pincode":"110005","officetype":"S.O","deliverystatus":"Non-Delivery","statename":"DELHI","regionname":"Delhi","circlename":"Delhi","divisionname":"New Delhi Central","Taluk":"New Delhi"},{"officename":"Anand Parbat Indl. Area S.O","pincode":"110005","officetype":"S.O","deliverystatus":"Non-Delivery","statename":"DELHI","regionname":"Delhi","circlename":"Delhi","divisionname":"New Delhi Central","Taluk":"New Delhi"},{"officename":"Bank Street S.O (Central Delhi)","pincode":"110005","officetype":"S.O","deliverystatus":"Non-Delivery","statename":"DELHI","regionname":"Delhi","circlename":"Delhi","divisionname":"New Delhi Central","Taluk":"New Delhi"},{"officename":"Bhagat Singh Market S.O","pincode":"110001","officetype":"S.O","deliverystatus":"Non-Delivery","statename":"DELHI","regionname":"Delhi","circlename":"Delhi","divisionname":"New Delhi Central","Taluk":"New Delhi"},{"officename":"Dada Ghosh Bhawan S.O","pincode":"110008","officetype":"S.O","deliverystatus":"Non-Delivery","statename":"DELHI","regionname":"Delhi","circlename":"Delhi","divisionname":"New Delhi Central","Taluk":"New Delhi"},{"officename":"Desh Bandhu Gupta Road S.O","pincode":"110005","officetype":"S.O","deliverystatus":"Non-Delivery","statename":"DELHI","regionname":"Delhi","circlename":"Delhi","divisionname":"New Delhi Central","Taluk":"New Delhi"},{"officename":"Guru Gobind Singh Marg S.O","pincode":"110005","officetype":"S.O","deliverystatus":"Non-Delivery","statename":"DELHI","regionname":"Delhi","circlename":"Delhi","divisionname":"New Delhi Central","Taluk":"New Delhi"},{"officename":"I.A.R.I. S.O","pincode":"110012","officetype":"S.O","deliverystatus":"Delivery","statename":"DELHI","regionname":"Delhi","circlename":"Delhi","divisionname":"New Delhi Central","Taluk":"New Delhi"},{"officename":"Inderpuri S.O","pincode":"110012","officetype":"S.O","deliverystatus":"Non-Delivery","statename":"DELHI","regionname":"Delhi","circlename":"Delhi","divisionname":"New Delhi Central","Taluk":"New Delhi"},{"officename":"Karol Bagh S.O","pincode":"110005","officetype":"S.O","deliverystatus":"Delivery","statename":"DELHI","regionname":"Delhi","circlename":"Delhi","divisionname":"New Delhi Central","Taluk":"New Delhi"},{"officename":"Multani Dhanda S.O","pincode":"110055","officetype":"S.O","deliverystatus":"Non-Delivery","statename":"DELHI","regionname":"Delhi","circlename":"Delhi","divisionname":"New Delhi Central","Taluk":"New Delhi"},{"officename":"Master Prithvi Nath Marg S.O","pincode":"110005","officetype":"S.O","deliverystatus":"Non-Delivery","statename":"DELHI","regionname":"Delhi","circlename":"Delhi","divisionname":"New Delhi Central","Taluk":"New Delhi"},{"officename":"National Physical Laboratory S.O","pincode":"110012","officetype":"S.O","deliverystatus":"Non-Delivery","statename":"DELHI","regionname":"Delhi","circlename":"Delhi","divisionname":"New Delhi Central","Taluk":"New Delhi"},{"officename":"Pahar Ganj S.O","pincode":"110055","officetype":"S.O","deliverystatus":"Non-Delivery","statename":"DELHI","regionname":"Delhi","circlename":"Delhi","divisionname":"New Delhi Central","Taluk":"New Delhi"},{"officename":"Patel Nagar S.O (Central Delhi)","pincode":"110008","officetype":"S.O","deliverystatus":"Delivery","statename":"DELHI","regionname":"Delhi","circlename":"Delhi","divisionname":"New Delhi Central","Taluk":"New Delhi"},{"officename":"Patel Nagar East S.O","pincode":"110008","officetype":"S.O","deliverystatus":"Non-Delivery","statename":"DELHI","regionname":"Delhi","circlename":"Delhi","divisionname":"New Delhi Central","Taluk":"New Delhi"},{"officename":"Patel Nagar South S.O","pincode":"110008","officetype":"S.O","deliverystatus":"Non-Delivery","statename":"DELHI","regionname":"Delhi","circlename":"Delhi","divisionname":"New Delhi Central","Taluk":"New Delhi"},{"officename":"Patel Nagar West S.O","pincode":"110008","officetype":"S.O","deliverystatus":"Non-Delivery","statename":"DELHI","regionname":"Delhi","circlename":"Delhi","divisionname":"New Delhi Central","Taluk":"New Delhi"},{"officename":"Rajender Nagar S.O","pincode":"110060","officetype":"S.O","deliverystatus":"Delivery","statename":"DELHI","regionname":"Delhi","circlename":"Delhi","divisionname":"New Delhi Central","Taluk":"New Delhi"},{"officename":"Sat Nagar S.O","pincode":"110005","officetype":"S.O","deliverystatus":"Non-Delivery","statename":"DELHI","regionname":"Delhi","circlename":"Delhi","divisionname":"New Delhi Central","Taluk":"New Delhi"},{"officename":"Swami Ram Tirth Nagar S.O","pincode":"110055","officetype":"S.O","deliverystatus":"Delivery","statename":"DELHI","regionname":"Delhi","circlename":"Delhi","divisionname":"New Delhi Central","Taluk":"New Delhi"},{"officename":"Constitution House S.O","pincode":"110001","officetype":"S.O","deliverystatus":"Non-Delivery","statename":"DELHI","regionname":"Delhi","circlename":"Delhi","divisionname":"New Delhi Central","Taluk":"New Delhi"},{"officename":"Connaught Place S.O","pincode":"110001","officetype":"S.O","deliverystatus":"Non-Delivery","statename":"DELHI","regionname":"Delhi","circlename":"Delhi","divisionname":"New Delhi Central","Taluk":"New Delhi"},{"officename":"Bengali Market S.O","pincode":"110001","officetype":"S.O","deliverystatus":"Non-Delivery","statename":"DELHI","regionname":"Delhi","circlename":"Delhi","divisionname":"New Delhi Central","Taluk":"New Delhi"},{"officename":"Janpath S.O","pincode":"110001","officetype":"S.O","deliverystatus":"Non-Delivery","statename":"DELHI","regionname":"Delhi","circlename":"Delhi","divisionname":"New Delhi Central","Taluk":"New Delhi"},{"officename":"Jaitpur B.O","pincode":"110044","officetype":"B.O","deliverystatus":"Non-Delivery","statename":"DELHI","regionname":"Delhi","circlename":"Delhi","divisionname":"New Delhi South","Taluk":"New Delhi"},{"officename":"Madanpur Khadar B.O","pincode":"110076","officetype":"B.O","deliverystatus":"Non-Delivery","statename":"DELHI","regionname":"Delhi","circlename":"Delhi","divisionname":"New Delhi South","Taluk":"New Delhi"},{"officename":"Molarband B.O","pincode":"110044","officetype":"B.O","deliverystatus":"Non-Delivery","statename":"DELHI","regionname":"Delhi","circlename":"Delhi","divisionname":"New Delhi South","Taluk":"New Delhi"},{"officename":"Pul Pahladpur B.O","pincode":"110044","officetype":"B.O","deliverystatus":"Non-Delivery","statename":"DELHI","regionname":"Delhi","circlename":"Delhi","divisionname":"New Delhi South","Taluk":"New Delhi"},{"officename":"Jawala Heri B.O","pincode":"110063","officetype":"B.O","deliverystatus":"Non-Delivery","statename":"DELHI","regionname":"Delhi","circlename":"Delhi","divisionname":"New Delhi West","Taluk":"New Delhi"},{"officename":"Mundka B.O","pincode":"110041","officetype":"B.O","deliverystatus":"Non-Delivery","statename":"DELHI","regionname":"Delhi","circlename":"Delhi","divisionname":"New Delhi West","Taluk":"New Delhi"},{"officename":"Badusarai B.O","pincode":"110071","officetype":"B.O","deliverystatus":"Non-Delivery","statename":"DELHI","regionname":"Delhi","circlename":"Delhi","divisionname":"New Delhi West","Taluk":"New Delhi"},{"officename":"Dhulsiras B.O","pincode":"110077","officetype":"B.O","deliverystatus":"Delivery","statename":"DELHI","regionname":"Delhi","circlename":"Delhi","divisionname":"New Delhi West","Taluk":"New Delhi"},{"officename":"Tugalkabad B.O","pincode":"110044","officetype":"B.O","deliverystatus":"Non-Delivery","statename":"DELHI","regionname":"Delhi","circlename":"Delhi","divisionname":"New Delhi South","Taluk":"New Delhi"},{"officename":"Tehkhand B.O","pincode":"110020","officetype":"B.O","deliverystatus":"Non-Delivery","statename":"DELHI","regionname":"Delhi","circlename":"Delhi","divisionname":"New Delhi South","Taluk":"New Delhi"},{"officename":"Ali B.O","pincode":"110076","officetype":"B.O","deliverystatus":"Non-Delivery","statename":"DELHI","regionname":"Delhi","circlename":"Delhi","divisionname":"New Delhi South","Taluk":"New Delhi"},{"officename":"Lal Kuan B.O","pincode":"110044","officetype":"B.O","deliverystatus":"Non-Delivery","statename":"DELHI","regionname":"Delhi","circlename":"Delhi","divisionname":"New Delhi South","Taluk":"New Delhi"},{"officename":"New Usmanpur B.O","pincode":"110053","officetype":"B.O","deliverystatus":"Non-Delivery","statename":"DELHI","regionname":"Delhi","circlename":"Delhi","divisionname":"Delhi East","Taluk":"NA"},{"officename":"Mandoli Saboli B.O","pincode":"110093","officetype":"B.O","deliverystatus":"Non-Delivery","statename":"DELHI","regionname":"Delhi","circlename":"Delhi","divisionname":"Delhi East","Taluk":"NA"},{"officename":"Chilla B.O","pincode":"110091","officetype":"B.O","deliverystatus":"Non-Delivery","statename":"DELHI","regionname":"Delhi","circlename":"Delhi","divisionname":"Delhi East","Taluk":"NA"},{"officename":"Ghazipur B.O","pincode":"110096","officetype":"B.O","deliverystatus":"Non-Delivery","statename":"DELHI","regionname":"Delhi","circlename":"Delhi","divisionname":"Delhi East","Taluk":"NA"},{"officename":"Shalamar B.O","pincode":"110088","officetype":"B.O","deliverystatus":"Delivery","statename":"DELHI","regionname":"Delhi","circlename":"Delhi","divisionname":"Delhi North","Taluk":"Delhi"},{"officename":"Begumpur B.O","pincode":"110086","officetype":"B.O","deliverystatus":"Delivery","statename":"DELHI","regionname":"Delhi","circlename":"Delhi","divisionname":"Delhi North","Taluk":"Delhi"},{"officename":"Pooth Kalan B.O","pincode":"110086","officetype":"B.O","deliverystatus":"Delivery","statename":"DELHI","regionname":"Delhi","circlename":"Delhi","divisionname":"Delhi North","Taluk":"Delhi"},{"officename":"Mukhmelpur B.O","pincode":"110036","officetype":"B.O","deliverystatus":"Non-Delivery","statename":"DELHI","regionname":"Delhi","circlename":"Delhi","divisionname":"Delhi North","Taluk":"NA"},{"officename":"Mahipalpur B.O","pincode":"110037","officetype":"B.O","deliverystatus":"Non-Delivery","statename":"DELHI","regionname":"Delhi","circlename":"Delhi","divisionname":"New Delhi South West","Taluk":"NA"},{"officename":"Sultanpur B.O","pincode":"110030","officetype":"B.O","deliverystatus":"Non-Delivery","statename":"DELHI","regionname":"Delhi","circlename":"Delhi","divisionname":"New Delhi South West","Taluk":"NA"},{"officename":"Fatehpur Beri B.O","pincode":"110074","officetype":"B.O","deliverystatus":"Non-Delivery","statename":"DELHI","regionname":"Delhi","circlename":"Delhi","divisionname":"New Delhi South West","Taluk":"NA"},{"officename":"Indira Park B.O","pincode":"110045","officetype":"B.O","deliverystatus":"Non-Delivery","statename":"DELHI","regionname":"Delhi","circlename":"Delhi","divisionname":"New Delhi West","Taluk":"New Delhi"},{"officename":"Issapur B.O","pincode":"110073","officetype":"B.O","deliverystatus":"Non-Delivery","statename":"DELHI","regionname":"Delhi","circlename":"Delhi","divisionname":"New Delhi West","Taluk":"New Delhi"},{"officename":"Jeevan Park B.O","pincode":"110059","officetype":"B.O","deliverystatus":"Non-Delivery","statename":"DELHI","regionname":"Delhi","circlename":"Delhi","divisionname":"New Delhi West","Taluk":"New Delhi"},{"officename":"Malik Pur B.O","pincode":"110073","officetype":"B.O","deliverystatus":"Non-Delivery","statename":"DELHI","regionname":"Delhi","circlename":"Delhi","divisionname":"New Delhi West","Taluk":"New Delhi"},{"officename":"Matiala B.O","pincode":"110059","officetype":"B.O","deliverystatus":"Non-Delivery","statename":"DELHI","regionname":"Delhi","circlename":"Delhi","divisionname":"New Delhi West","Taluk":"New Delhi"},{"officename":"Raota B.O","pincode":"110073","officetype":"B.O","deliverystatus":"Non-Delivery","statename":"DELHI","regionname":"Delhi","circlename":"Delhi","divisionname":"New Delhi West","Taluk":"New Delhi"},{"officename":"Jhilmil Tahirpur B.O","pincode":"110095","officetype":"B.O","deliverystatus":"Non-Delivery","statename":"DELHI","regionname":"Delhi","circlename":"Delhi","divisionname":"Delhi East","Taluk":"NA"},{"officename":"Johripur B.O","pincode":"110094","officetype":"B.O","deliverystatus":"Non-Delivery","statename":"DELHI","regionname":"Delhi","circlename":"Delhi","divisionname":"Delhi East","Taluk":"NA"},{"officename":"Sabhapur B.O","pincode":"110094","officetype":"B.O","deliverystatus":"Non-Delivery","statename":"DELHI","regionname":"Delhi","circlename":"Delhi","divisionname":"Delhi East","Taluk":"Delhi North East"},{"officename":"Khajuri Khas B.O","pincode":"110090","officetype":"B.O","deliverystatus":"Delivery","statename":"DELHI","regionname":"Delhi","circlename":"Delhi","divisionname":"Delhi East","Taluk":"Delhi"},{"officename":"Dayalpur B.O","pincode":"110090","officetype":"B.O","deliverystatus":"Delivery","statename":"DELHI","regionname":"Delhi","circlename":"Delhi","divisionname":"Delhi East","Taluk":"Delhi"},{"officename":"Aps Colony B.O","pincode":"110010","officetype":"B.O","deliverystatus":"Non-Delivery","statename":"DELHI","regionname":"Delhi","circlename":"Delhi","divisionname":"New Delhi South West","Taluk":"NA"},{"officename":"Aya Nagar B.O","pincode":"110047","officetype":"B.O","deliverystatus":"Non-Delivery","statename":"DELHI","regionname":"Delhi","circlename":"Delhi","divisionname":"New Delhi South West","Taluk":"NA"},{"officename":"Nangal Dewat B.O","pincode":"110037","officetype":"B.O","deliverystatus":"Non-Delivery","statename":"DELHI","regionname":"Delhi","circlename":"Delhi","divisionname":"New Delhi South West","Taluk":"NA"},{"officename":"Chandanhoola B.O","pincode":"110074","officetype":"B.O","deliverystatus":"Non-Delivery","statename":"DELHI","regionname":"Delhi","circlename":"Delhi","divisionname":"New Delhi South West","Taluk":"NA"},{"officename":"Dera B.O","pincode":"110074","officetype":"B.O","deliverystatus":"Non-Delivery","statename":"DELHI","regionname":"Delhi","circlename":"Delhi","divisionname":"New Delhi South West","Taluk":"NA"},{"officename":"Gadaipur B.O","pincode":"110030","officetype":"B.O","deliverystatus":"Non-Delivery","statename":"DELHI","regionname":"Delhi","circlename":"Delhi","divisionname":"New Delhi South West","Taluk":"NA"},{"officename":"Ghitorni B.O","pincode":"110030","officetype":"B.O","deliverystatus":"Non-Delivery","statename":"DELHI","regionname":"Delhi","circlename":"Delhi","divisionname":"New Delhi South West","Taluk":"NA"},{"officename":"Lado Sarai B.O","pincode":"110030","officetype":"B.O","deliverystatus":"Non-Delivery","statename":"DELHI","regionname":"Delhi","circlename":"Delhi","divisionname":"New Delhi South West","Taluk":"NA"},{"officename":"Maidan Garhi B.O","pincode":"110068","officetype":"B.O","deliverystatus":"Non-Delivery","statename":"DELHI","regionname":"Delhi","circlename":"Delhi","divisionname":"New Delhi South West","Taluk":"NA"},{"officename":"Mandi B.O","pincode":"110047","officetype":"B.O","deliverystatus":"Non-Delivery","statename":"DELHI","regionname":"Delhi","circlename":"Delhi","divisionname":"New Delhi South West","Taluk":"NA"},{"officename":"Jaunapur B.O","pincode":"110047","officetype":"B.O","deliverystatus":"Non-Delivery","statename":"DELHI","regionname":"Delhi","circlename":"Delhi","divisionname":"New Delhi South West","Taluk":"NA"},{"officename":"Masood Pur B.O","pincode":"110070","officetype":"B.O","deliverystatus":"Non-Delivery","statename":"DELHI","regionname":"Delhi","circlename":"Delhi","divisionname":"New Delhi South West","Taluk":"NA"},{"officename":"Satbari B.O","pincode":"110074","officetype":"B.O","deliverystatus":"Non-Delivery","statename":"DELHI","regionname":"Delhi","circlename":"Delhi","divisionname":"New Delhi South West","Taluk":"NA"},{"officename":"Shahbad Mohammadpur B.O","pincode":"110061","officetype":"B.O","deliverystatus":"Non-Delivery","statename":"DELHI","regionname":"Delhi","circlename":"Delhi","divisionname":"New Delhi South West","Taluk":"NA"},{"officename":"Rajokari B.O","pincode":"110038","officetype":"B.O","deliverystatus":"Non-Delivery","statename":"DELHI","regionname":"Delhi","circlename":"Delhi","divisionname":"New Delhi South West","Taluk":"NA"},{"officename":"C.S.K.M. School B.O","pincode":"110074","officetype":"B.O","deliverystatus":"Non-Delivery","statename":"DELHI","regionname":"Delhi","circlename":"Delhi","divisionname":"New Delhi South West","Taluk":"NA"},{"officename":"Khera Khurd B.O","pincode":"110082","officetype":"B.O","deliverystatus":"Delivery","statename":"DELHI","regionname":"Delhi","circlename":"Delhi","divisionname":"Delhi North","Taluk":"Delhi"},{"officename":"Naya Bans B.O","pincode":"110082","officetype":"B.O","deliverystatus":"Delivery","statename":"DELHI","regionname":"Delhi","circlename":"Delhi","divisionname":"Delhi North","Taluk":"Delhi"},{"officename":"Holambi Kalan B.O","pincode":"110082","officetype":"B.O","deliverystatus":"Delivery","statename":"DELHI","regionname":"Delhi","circlename":"Delhi","divisionname":"Delhi North","Taluk":"Delhi"},{"officename":"Mubarak Pur Dabas B.O","pincode":"110081","officetype":"B.O","deliverystatus":"Delivery","statename":"DELHI","regionname":"Delhi","circlename":"Delhi","divisionname":"Delhi North","Taluk":"Delhi"},{"officename":"Punjab Khor B.O","pincode":"110081","officetype":"B.O","deliverystatus":"Delivery","statename":"DELHI","regionname":"Delhi","circlename":"Delhi","divisionname":"Delhi North","Taluk":"Delhi"},{"officename":"Nizampur B.O","pincode":"110081","officetype":"B.O","deliverystatus":"Delivery","statename":"DELHI","regionname":"Delhi","circlename":"Delhi","divisionname":"Delhi North","Taluk":"Delhi"},{"officename":"Lad Pur B.O","pincode":"110081","officetype":"B.O","deliverystatus":"Delivery","statename":"DELHI","regionname":"Delhi","circlename":"Delhi","divisionname":"Delhi North","Taluk":"Delhi"},{"officename":"Karala B.O","pincode":"110081","officetype":"B.O","deliverystatus":"Delivery","statename":"DELHI","regionname":"Delhi","circlename":"Delhi","divisionname":"Delhi North","Taluk":"Delhi"},{"officename":"Jaunti B.O","pincode":"110081","officetype":"B.O","deliverystatus":"Delivery","statename":"DELHI","regionname":"Delhi","circlename":"Delhi","divisionname":"Delhi North","Taluk":"Delhi"},{"officename":"Rani Khera B.O","pincode":"110081","officetype":"B.O","deliverystatus":"Delivery","statename":"DELHI","regionname":"Delhi","circlename":"Delhi","divisionname":"Delhi North","Taluk":"Delhi"},{"officename":"Majra Dabas B.O","pincode":"110081","officetype":"B.O","deliverystatus":"Delivery","statename":"DELHI","regionname":"Delhi","circlename":"Delhi","divisionname":"Delhi North","Taluk":"Delhi"},{"officename":"Chand Pur B.O","pincode":"110081","officetype":"B.O","deliverystatus":"Delivery","statename":"DELHI","regionname":"Delhi","circlename":"Delhi","divisionname":"Delhi North","Taluk":"Delhi"},{"officename":"Gheora B.O","pincode":"110081","officetype":"B.O","deliverystatus":"Delivery","statename":"DELHI","regionname":"Delhi","circlename":"Delhi","divisionname":"Delhi North","Taluk":"Delhi"},{"officename":"Kanya Gurukul B.O","pincode":"110040","officetype":"B.O","deliverystatus":"Delivery","statename":"DELHI","regionname":"Delhi","circlename":"Delhi","divisionname":"Delhi North","Taluk":"Delhi"},{"officename":"Bhorgarh B.O","pincode":"110040","officetype":"B.O","deliverystatus":"Non-Delivery","statename":"DELHI","regionname":"Delhi","circlename":"Delhi","divisionname":"Delhi North","Taluk":"Delhi"},{"officename":"Bankner B.O","pincode":"110040","officetype":"B.O","deliverystatus":"Delivery","statename":"DELHI","regionname":"Delhi","circlename":"Delhi","divisionname":"Delhi North","Taluk":"Delhi"},{"officename":"Lampur B.O","pincode":"110040","officetype":"B.O","deliverystatus":"Delivery","statename":"DELHI","regionname":"Delhi","circlename":"Delhi","divisionname":"Delhi North","Taluk":"Delhi"},{"officename":"Singhu B.O","pincode":"110040","officetype":"B.O","deliverystatus":"Delivery","statename":"DELHI","regionname":"Delhi","circlename":"Delhi","divisionname":"Delhi North","Taluk":"Delhi"},{"officename":"Rampura B.O","pincode":"110035","officetype":"B.O","deliverystatus":"Non-Delivery","statename":"DELHI","regionname":"Delhi","circlename":"Delhi","divisionname":"Delhi North","Taluk":"Delhi"},{"officename":"Budh Vihar B.O","pincode":"110086","officetype":"B.O","deliverystatus":"Non-Delivery","statename":"DELHI","regionname":"Delhi","circlename":"Delhi","divisionname":"Delhi North","Taluk":"Delhi"},{"officename":"Pehlad Pur B.O","pincode":"110042","officetype":"B.O","deliverystatus":"Delivery","statename":"DELHI","regionname":"Delhi","circlename":"Delhi","divisionname":"Delhi North","Taluk":"Delhi"},{"officename":"Siraspur B.O","pincode":"110042","officetype":"B.O","deliverystatus":"Delivery","statename":"DELHI","regionname":"Delhi","circlename":"Delhi","divisionname":"Delhi North","Taluk":"Delhi"},{"officename":"Rithala B.O","pincode":"110085","officetype":"B.O","deliverystatus":"Non-Delivery","statename":"DELHI","regionname":"Delhi","circlename":"Delhi","divisionname":"Delhi North","Taluk":"Delhi"},{"officename":"Bakoli B.O","pincode":"110036","officetype":"B.O","deliverystatus":"Non-Delivery","statename":"DELHI","regionname":"Delhi","circlename":"Delhi","divisionname":"Delhi North","Taluk":"Delhi"},{"officename":"Hiranki B.O","pincode":"110036","officetype":"B.O","deliverystatus":"Non-Delivery","statename":"DELHI","regionname":"Delhi","circlename":"Delhi","divisionname":"Delhi North","Taluk":"Delhi"},{"officename":"Nangal Poona B.O","pincode":"110036","officetype":"B.O","deliverystatus":"Non-Delivery","statename":"DELHI","regionname":"Delhi","circlename":"Delhi","divisionname":"Delhi North","Taluk":"Delhi"},{"officename":"Tajpur Kalan B.O","pincode":"110036","officetype":"B.O","deliverystatus":"Delivery","statename":"DELHI","regionname":"Delhi","circlename":"Delhi","divisionname":"Delhi North","Taluk":"Delhi"},{"officename":"Palla B.O","pincode":"110036","officetype":"B.O","deliverystatus":"Delivery","statename":"DELHI","regionname":"Delhi","circlename":"Delhi","divisionname":"Delhi North","Taluk":"Delhi"},{"officename":"Bakhtawar Pur B.O","pincode":"110036","officetype":"B.O","deliverystatus":"Delivery","statename":"DELHI","regionname":"Delhi","circlename":"Delhi","divisionname":"Delhi North","Taluk":"Delhi"},{"officename":"Khampur B.O","pincode":"110036","officetype":"B.O","deliverystatus":"Delivery","statename":"DELHI","regionname":"Delhi","circlename":"Delhi","divisionname":"Delhi North","Taluk":"Delhi"},{"officename":"Kadipur B.O","pincode":"110036","officetype":"B.O","deliverystatus":"Delivery","statename":"DELHI","regionname":"Delhi","circlename":"Delhi","divisionname":"Delhi North","Taluk":"Delhi"},{"officename":"Auchandi B.O","pincode":"110039","officetype":"B.O","deliverystatus":"Delivery","statename":"DELHI","regionname":"Delhi","circlename":"Delhi","divisionname":"Delhi North","Taluk":"Delhi"},{"officename":"Katewara B.O","pincode":"110039","officetype":"B.O","deliverystatus":"Delivery","statename":"DELHI","regionname":"Delhi","circlename":"Delhi","divisionname":"Delhi North","Taluk":"Delhi"},{"officename":"Nangal Thakran B.O","pincode":"110039","officetype":"B.O","deliverystatus":"Delivery","statename":"DELHI","regionname":"Delhi","circlename":"Delhi","divisionname":"Delhi North","Taluk":"Delhi"},{"officename":"Qutabagarh B.O","pincode":"110039","officetype":"B.O","deliverystatus":"Delivery","statename":"DELHI","regionname":"Delhi","circlename":"Delhi","divisionname":"Delhi North","Taluk":"Delhi"},{"officename":"Jat Khore B.O","pincode":"110039","officetype":"B.O","deliverystatus":"Delivery","statename":"DELHI","regionname":"Delhi","circlename":"Delhi","divisionname":"Delhi North","Taluk":"Delhi"},{"officename":"Barwala B.O","pincode":"110039","officetype":"B.O","deliverystatus":"Delivery","statename":"DELHI","regionname":"Delhi","circlename":"Delhi","divisionname":"Delhi North","Taluk":"Delhi"},{"officename":"Pooth Khurd B.O","pincode":"110039","officetype":"B.O","deliverystatus":"Delivery","statename":"DELHI","regionname":"Delhi","circlename":"Delhi","divisionname":"Delhi North","Taluk":"Delhi"},{"officename":"Hareveli B.O","pincode":"110039","officetype":"B.O","deliverystatus":"Delivery","statename":"DELHI","regionname":"Delhi","circlename":"Delhi","divisionname":"Delhi North","Taluk":"Delhi"},{"officename":"Ghoga B.O","pincode":"110039","officetype":"B.O","deliverystatus":"Delivery","statename":"DELHI","regionname":"Delhi","circlename":"Delhi","divisionname":"Delhi North","Taluk":"Delhi"},{"officename":"Jagatpur B.O","pincode":"110084","officetype":"B.O","deliverystatus":"Delivery","statename":"DELHI","regionname":"Delhi","circlename":"Delhi","divisionname":"Delhi North","Taluk":"Delhi"},{"officename":"Jharoda Majraa B.O","pincode":"110084","officetype":"B.O","deliverystatus":"Delivery","statename":"DELHI","regionname":"Delhi","circlename":"Delhi","divisionname":"Delhi North","Taluk":"Delhi"},{"officename":"Bhalaswa B.O","pincode":"110033","officetype":"B.O","deliverystatus":"Non-Delivery","statename":"DELHI","regionname":"Delhi","circlename":"Delhi","divisionname":"Delhi North","Taluk":"Delhi"},{"officename":"Jeevan Nagar B.O","pincode":"110014","officetype":"B.O","deliverystatus":"Non-Delivery","statename":"DELHI","regionname":"Delhi","circlename":"Delhi","divisionname":"New Delhi South","Taluk":"New Delhi"},{"officename":"Sahpurjat B.O","pincode":"110049","officetype":"B.O","deliverystatus":"Non-Delivery","statename":"DELHI","regionname":"Delhi","circlename":"Delhi","divisionname":"New Delhi South","Taluk":"New Delhi"},{"officename":"Deoli B.O","pincode":"110062","officetype":"B.O","deliverystatus":"Non-Delivery","statename":"DELHI","regionname":"Delhi","circlename":"Delhi","divisionname":"New Delhi South","Taluk":"New Delhi"},{"officename":"Nangloi - II B.O","pincode":"110041","officetype":"B.O","deliverystatus":"Non-Delivery","statename":"DELHI","regionname":"Delhi","circlename":"Delhi","divisionname":"New Delhi West","Taluk":"New Delhi"},{"officename":"Nilothi B.O","pincode":"110041","officetype":"B.O","deliverystatus":"Non-Delivery","statename":"DELHI","regionname":"Delhi","circlename":"Delhi","divisionname":"New Delhi West","Taluk":"New Delhi"},{"officename":"Ranhola B.O","pincode":"110041","officetype":"B.O","deliverystatus":"Non-Delivery","statename":"DELHI","regionname":"Delhi","circlename":"Delhi","divisionname":"New Delhi West","Taluk":"New Delhi"},{"officename":"Tikri Kalan B.O","pincode":"110041","officetype":"B.O","deliverystatus":"Non-Delivery","statename":"DELHI","regionname":"Delhi","circlename":"Delhi","divisionname":"New Delhi West","Taluk":"New Delhi"},{"officename":"Bakkarwala B.O","pincode":"110041","officetype":"B.O","deliverystatus":"Delivery","statename":"DELHI","regionname":"Delhi","circlename":"Delhi","divisionname":"New Delhi West","Taluk":"New Delhi"},{"officename":"Hirankudna B.O","pincode":"110041","officetype":"B.O","deliverystatus":"Delivery","statename":"DELHI","regionname":"Delhi","circlename":"Delhi","divisionname":"New Delhi West","Taluk":"New Delhi"},{"officename":"Peeragarhi B.O","pincode":"110087","officetype":"B.O","deliverystatus":"Non-Delivery","statename":"DELHI","regionname":"Delhi","circlename":"Delhi","divisionname":"New Delhi West","Taluk":"New Delhi"},{"officename":"Chaukhandi B.O","pincode":"110018","officetype":"B.O","deliverystatus":"Non-Delivery","statename":"DELHI","regionname":"Delhi","circlename":"Delhi","divisionname":"New Delhi West","Taluk":"New Delhi"},{"officename":"Hastal Village B.O","pincode":"110059","officetype":"B.O","deliverystatus":"Non-Delivery","statename":"DELHI","regionname":"Delhi","circlename":"Delhi","divisionname":"New Delhi West","Taluk":"New Delhi"},{"officename":"Kangan Heri B.O","pincode":"110071","officetype":"B.O","deliverystatus":"Non-Delivery","statename":"DELHI","regionname":"Delhi","circlename":"Delhi","divisionname":"New Delhi West","Taluk":"New Delhi"},{"officename":"Jharoda Kalan B.O","pincode":"110072","officetype":"B.O","deliverystatus":"Non-Delivery","statename":"DELHI","regionname":"Delhi","circlename":"Delhi","divisionname":"New Delhi West","Taluk":"NA"},{"officename":"Kair B.O","pincode":"110043","officetype":"B.O","deliverystatus":"Non-Delivery","statename":"DELHI","regionname":"Delhi","circlename":"Delhi","divisionname":"New Delhi West","Taluk":"New Delhi"},{"officename":"Khaira B.O","pincode":"110043","officetype":"B.O","deliverystatus":"Non-Delivery","statename":"DELHI","regionname":"Delhi","circlename":"Delhi","divisionname":"New Delhi West","Taluk":"New Delhi"},{"officename":"Baprola B.O","pincode":"110043","officetype":"B.O","deliverystatus":"Non-Delivery","statename":"DELHI","regionname":"Delhi","circlename":"Delhi","divisionname":"New Delhi West","Taluk":"New Delhi"},{"officename":"Daulatpur B.O","pincode":"110043","officetype":"B.O","deliverystatus":"Delivery","statename":"DELHI","regionname":"Delhi","circlename":"Delhi","divisionname":"New Delhi West","Taluk":"New Delhi"},{"officename":"Dindarpur B.O","pincode":"110043","officetype":"B.O","deliverystatus":"Non-Delivery","statename":"DELHI","regionname":"Delhi","circlename":"Delhi","divisionname":"New Delhi West","Taluk":"New Delhi"},{"officename":"Dichaun Kalan B.O","pincode":"110043","officetype":"B.O","deliverystatus":"Delivery","statename":"DELHI","regionname":"Delhi","circlename":"Delhi","divisionname":"New Delhi West","Taluk":"New Delhi"},{"officename":"Jhatikara B.O","pincode":"110043","officetype":"B.O","deliverystatus":"Delivery","statename":"DELHI","regionname":"Delhi","circlename":"Delhi","divisionname":"New Delhi West","Taluk":"New Delhi"},{"officename":"Kakrola B.O","pincode":"110078","officetype":"B.O","deliverystatus":"Delivery","statename":"DELHI","regionname":"Delhi","circlename":"Delhi","divisionname":"New Delhi West","Taluk":"New Delhi"},{"officename":"Mitraon B.O","pincode":"110043","officetype":"B.O","deliverystatus":"Delivery","statename":"DELHI","regionname":"Delhi","circlename":"Delhi","divisionname":"New Delhi West","Taluk":"New Delhi"},{"officename":"Pandwala Kalan B.O","pincode":"110043","officetype":"B.O","deliverystatus":"Delivery","statename":"DELHI","regionname":"Delhi","circlename":"Delhi","divisionname":"New Delhi West","Taluk":"New Delhi"},{"officename":"Surehra B.O","pincode":"110043","officetype":"B.O","deliverystatus":"Non-Delivery","statename":"DELHI","regionname":"Delhi","circlename":"Delhi","divisionname":"New Delhi West","Taluk":"New Delhi"},{"officename":"Papravat B.O","pincode":"110043","officetype":"B.O","deliverystatus":"Non-Delivery","statename":"DELHI","regionname":"Delhi","circlename":"Delhi","divisionname":"New Delhi West","Taluk":"New Delhi"},{"officename":"Tilangpur Kotla B.O","pincode":"110043","officetype":"B.O","deliverystatus":"Delivery","statename":"DELHI","regionname":"Delhi","circlename":"Delhi","divisionname":"New Delhi West","Taluk":"New Delhi"},{"officename":"Rewla Khanpur B.O","pincode":"110043","officetype":"B.O","deliverystatus":"Non-Delivery","statename":"DELHI","regionname":"Delhi","circlename":"Delhi","divisionname":"New Delhi West","Taluk":"New Delhi"},{"officename":"Amberhai B.O","pincode":"110075","officetype":"B.O","deliverystatus":"Delivery","statename":"DELHI","regionname":"Delhi","circlename":"Delhi","divisionname":"New Delhi West","Taluk":"New Delhi"},{"officename":"Barthal B.O","pincode":"110077","officetype":"B.O","deliverystatus":"Delivery","statename":"DELHI","regionname":"Delhi","circlename":"Delhi","divisionname":"New Delhi West","Taluk":"New Delhi"},{"officename":"Bagdola B.O","pincode":"110077","officetype":"B.O","deliverystatus":"Delivery","statename":"DELHI","regionname":"Delhi","circlename":"Delhi","divisionname":"New Delhi West","Taluk":"New Delhi"},{"officename":"Dabri B.O","pincode":"110045","officetype":"B.O","deliverystatus":"Non-Delivery","statename":"DELHI","regionname":"Delhi","circlename":"Delhi","divisionname":"New Delhi West","Taluk":"New Delhi"},{"officename":"Nasirpur B.O","pincode":"110045","officetype":"B.O","deliverystatus":"Non-Delivery","statename":"DELHI","regionname":"Delhi","circlename":"Delhi","divisionname":"New Delhi West","Taluk":"New Delhi"},{"officename":"Galib Pur B.O","pincode":"110073","officetype":"B.O","deliverystatus":"Non-Delivery","statename":"DELHI","regionname":"Delhi","circlename":"Delhi","divisionname":"New Delhi West","Taluk":"New Delhi"},{"officename":"Ghuman Hera B.O","pincode":"110073","officetype":"B.O","deliverystatus":"Non-Delivery","statename":"DELHI","regionname":"Delhi","circlename":"Delhi","divisionname":"New Delhi West","Taluk":"New Delhi"},{"officename":"Jafarpur B.O","pincode":"110073","officetype":"B.O","deliverystatus":"Delivery","statename":"DELHI","regionname":"Delhi","circlename":"Delhi","divisionname":"New Delhi West","Taluk":"New Delhi"},{"officename":"Khera Dabur B.O","pincode":"110073","officetype":"B.O","deliverystatus":"Non-Delivery","statename":"DELHI","regionname":"Delhi","circlename":"Delhi","divisionname":"New Delhi West","Taluk":"New Delhi"},{"officename":"Mundela Kalan B.O","pincode":"110073","officetype":"B.O","deliverystatus":"Delivery","statename":"DELHI","regionname":"Delhi","circlename":"Delhi","divisionname":"New Delhi West","Taluk":"New Delhi"},{"officename":"Quazipur B.O","pincode":"110073","officetype":"B.O","deliverystatus":"Non-Delivery","statename":"DELHI","regionname":"Delhi","circlename":"Delhi","divisionname":"New Delhi West","Taluk":"New Delhi"}]