[{"officename":"Mapusa S.O","pincode":"403507","officetype":"S.O","deliverystatus":"Delivery","statename":"GOA","regionname":"Goa-Panaji","circlename":"Maharashtra","divisionname":"Goa","Taluk":"Bardez"},{"officename":"Vasco-Da-Gama S.O","pincode":"403802","officetype":"S.O","deliverystatus":"Delivery","statename":"GOA","regionname":"Goa-Panaji","circlename":"Maharashtra","divisionname":"Goa","Taluk":"Mormugao"},{"officename":"Aldona S.O","pincode":"403508","officetype":"S.O","deliverystatus":"Delivery","statename":"GOA","regionname":"Goa-Panaji","circlename":"Maharashtra","divisionname":"Goa","Taluk":"Bardez"},{"officename":"Alto-porvorim S.O","pincode":"403521","officetype":"S.O","deliverystatus":"Delivery","statename":"GOA","regionname":"Goa-Panaji","circlename":"Maharashtra","divisionname":"Goa","Taluk":"Tiswadi"},{"officename":"Porvorim S.O","pincode":"403501","officetype":"S.O","deliverystatus":"Delivery","statename":"GOA","regionname":"Goa-Panaji","circlename":"Maharashtra","divisionname":"Goa","Taluk":"Bardez"},{"officename":"Onda I.E. S.O","pincode":"403530","officetype":"S.O","deliverystatus":"Delivery","statename":"GOA","regionname":"Goa-Panaji","circlename":"Maharashtra","divisionname":"Goa","Taluk":"Sattari"},{"officename":"Calangute S.O","pincode":"403516","officetype":"S.O","deliverystatus":"Delivery","statename":"GOA","regionname":"Goa-Panaji","circlename":"Maharashtra","divisionname":"Goa","Taluk":"Bardez"},{"officename":"Neura S.O","pincode":"403104","officetype":"S.O","deliverystatus":"Delivery","statename":"GOA","regionname":"Goa-Panaji","circlename":"Maharashtra","divisionname":"Goa","Taluk":"Tiswadi"},{"officename":"Nio Dona Paula S.O","pincode":"403004","officetype":"S.O","deliverystatus":"Delivery","statename":"GOA","regionname":"Goa-Panaji","circlename":"Maharashtra","divisionname":"Goa","Taluk":"Tiswadi"},{"officename":"Mapusa I.E. S.O","pincode":"403507","officetype":"S.O","deliverystatus":"Non-Delivery","statename":"GOA","regionname":"Goa-Panaji","circlename":"Maharashtra","divisionname":"Goa","Taluk":"Bardez"},{"officename":"Carona S.O","pincode":"403523","officetype":"S.O","deliverystatus":"Delivery","statename":"GOA","regionname":"Goa-Panaji","circlename":"Maharashtra","divisionname":"Goa","Taluk":"Bardez"},{"officename":"Caranzalem S.O","pincode":"403002","officetype":"S.O","deliverystatus":"Delivery","statename":"GOA","regionname":"Goa-Panaji","circlename":"Maharashtra","divisionname":"Goa","Taluk":"Tiswadi"},{"officename":"C.C.Altinho S.O","pincode":"403001","officetype":"S.O","deliverystatus":"Non-Delivery","statename":"GOA","regionname":"Goa-Panaji","circlename":"Maharashtra","divisionname":"Goa","Taluk":"Tiswadi"},{"officename":"Betora I.E. S.O","pincode":"403409","officetype":"S.O","deliverystatus":"Delivery","statename":"GOA","regionname":"Goa-Panaji","circlename":"Maharashtra","divisionname":"Goa","Taluk":"Ponda"},{"officename":"Pale S.O","pincode":"403105","officetype":"S.O","deliverystatus":"Delivery","statename":"GOA","regionname":"Goa-Panaji","circlename":"Maharashtra","divisionname":"Goa","Taluk":"Sattari"},{"officename":"Colvale S.O","pincode":"403513","officetype":"S.O","deliverystatus":"Delivery","statename":"GOA","regionname":"Goa-Panaji","circlename":"Maharashtra","divisionname":"Goa","Taluk":"Bardez"},{"officename":"Saligao S.O","pincode":"403511","officetype":"S.O","deliverystatus":"Delivery","statename":"GOA","regionname":"Goa-Panaji","circlename":"Maharashtra","divisionname":"Goa","Taluk":"Bardez"},{"officename":"Piedade S.O","pincode":"403403","officetype":"S.O","deliverystatus":"Delivery","statename":"GOA","regionname":"Goa-Panaji","circlename":"Maharashtra","divisionname":"Goa","Taluk":"Tiswadi"},{"officename":"Marcela S.O","pincode":"403107","officetype":"S.O","deliverystatus":"Delivery","statename":"GOA","regionname":"Goa-Panaji","circlename":"Maharashtra","divisionname":"Goa","Taluk":"Ponda"},{"officename":"Miramar S.O","pincode":"403001","officetype":"S.O","deliverystatus":"Non-Delivery","statename":"GOA","regionname":"Goa-Panaji","circlename":"Maharashtra","divisionname":"Goa","Taluk":"Tiswaddi"},{"officename":"Chorao S.O","pincode":"403102","officetype":"S.O","deliverystatus":"Delivery","statename":"GOA","regionname":"Goa-Panaji","circlename":"Maharashtra","divisionname":"Goa","Taluk":"Tiswadi"},{"officename":"Arambol S.O","pincode":"403524","officetype":"S.O","deliverystatus":"Delivery","statename":"GOA","regionname":"Goa-Panaji","circlename":"Maharashtra","divisionname":"Goa","Taluk":"Bardez"},{"officename":"Pernem S.O","pincode":"403512","officetype":"S.O","deliverystatus":"Delivery","statename":"GOA","regionname":"Goa-Panaji","circlename":"Maharashtra","divisionname":"Goa","Taluk":"Bardez"},{"officename":"Ribandar S.O","pincode":"403006","officetype":"S.O","deliverystatus":"Delivery","statename":"GOA","regionname":"Goa-Panaji","circlename":"Maharashtra","divisionname":"Goa","Taluk":"Tiswadi"},{"officename":"Tivim S.O","pincode":"403502","officetype":"S.O","deliverystatus":"Delivery","statename":"GOA","regionname":"Goa-Panaji","circlename":"Maharashtra","divisionname":"Goa","Taluk":"Bardez"},{"officename":"Tisca S.O","pincode":"403406","officetype":"S.O","deliverystatus":"Delivery","statename":"GOA","regionname":"Goa-Panaji","circlename":"Maharashtra","divisionname":"Goa","Taluk":"Ponda"},{"officename":"Ponda Camp S.O","pincode":"403401","officetype":"S.O","deliverystatus":"Non-Delivery","statename":"GOA","regionname":"Goa-Panaji","circlename":"Maharashtra","divisionname":"Goa","Taluk":"Ponda"},{"officename":"Valpoi S.O","pincode":"403506","officetype":"S.O","deliverystatus":"Delivery","statename":"GOA","regionname":"Goa-Panaji","circlename":"Maharashtra","divisionname":"Goa","Taluk":"Sattari"},{"officename":"Fatorda S.O","pincode":"403602","officetype":"S.O","deliverystatus":"Delivery","statename":"GOA","regionname":"Goa-Panaji","circlename":"Maharashtra","divisionname":"Goa","Taluk":"Salcete"},{"officename":"Gogol S.O","pincode":"403601","officetype":"S.O","deliverystatus":"Non-Delivery","statename":"GOA","regionname":"Goa-Panaji","circlename":"Maharashtra","divisionname":"Goa","Taluk":"Salcete"},{"officename":"Orlim S.O","pincode":"403724","officetype":"S.O","deliverystatus":"Delivery","statename":"GOA","regionname":"Goa-Panaji","circlename":"Maharashtra","divisionname":"Goa","Taluk":"Salcete"},{"officename":"Sem-rachol  Soso S.O","pincode":"403719","officetype":"S.O","deliverystatus":"Delivery","statename":"GOA","regionname":"Goa-Panaji","circlename":"Maharashtra","divisionname":"Goa","Taluk":"Salcete"},{"officename":"Goa -velha S.O","pincode":"403108","officetype":"S.O","deliverystatus":"Delivery","statename":"GOA","regionname":"Goa-Panaji","circlename":"Maharashtra","divisionname":"Goa","Taluk":"Tiswadi"},{"officename":"Sanquelim S.O","pincode":"403505","officetype":"S.O","deliverystatus":"Delivery","statename":"GOA","regionname":"Goa-Panaji","circlename":"Maharashtra","divisionname":"Goa","Taluk":"Sattari"},{"officename":"Siolim S.O","pincode":"403517","officetype":"S.O","deliverystatus":"Delivery","statename":"GOA","regionname":"Goa-Panaji","circlename":"Maharashtra","divisionname":"Goa","Taluk":"Bardez"},{"officename":"Loliem S.O","pincode":"403728","officetype":"S.O","deliverystatus":"Delivery","statename":"GOA","regionname":"Goa-Panaji","circlename":"Maharashtra","divisionname":"Goa","Taluk":"Canacona"},{"officename":"Curchorem S.O","pincode":"403706","officetype":"S.O","deliverystatus":"Delivery","statename":"GOA","regionname":"Goa-Panaji","circlename":"Maharashtra","divisionname":"Goa","Taluk":"Quepem"},{"officename":"Colva S.O","pincode":"403708","officetype":"S.O","deliverystatus":"Delivery","statename":"GOA","regionname":"Goa-Panaji","circlename":"Maharashtra","divisionname":"Goa","Taluk":"Salcete"},{"officename":"Zuarinagar S.O","pincode":"403726","officetype":"S.O","deliverystatus":"Delivery","statename":"GOA","regionname":"Goa-Panaji","circlename":"Maharashtra","divisionname":"Goa","Taluk":"Mormugao"},{"officename":"Benaulim S.O","pincode":"403716","officetype":"S.O","deliverystatus":"Delivery","statename":"GOA","regionname":"Goa-Panaji","circlename":"Maharashtra","divisionname":"Goa","Taluk":"Salcete"},{"officename":"Cansaulim S.O","pincode":"403712","officetype":"S.O","deliverystatus":"Delivery","statename":"GOA","regionname":"Goa-Panaji","circlename":"Maharashtra","divisionname":"Goa","Taluk":"Salcete"},{"officename":"Chinchinim S.O","pincode":"403715","officetype":"S.O","deliverystatus":"Delivery","statename":"GOA","regionname":"Goa-Panaji","circlename":"Maharashtra","divisionname":"Goa","Taluk":"Salcete"},{"officename":"Verna S.O","pincode":"403722","officetype":"S.O","deliverystatus":"Delivery","statename":"GOA","regionname":"Goa-Panaji","circlename":"Maharashtra","divisionname":"Goa","Taluk":"Salcete"},{"officename":"Navelim Camp S.O","pincode":"403729","officetype":"S.O","deliverystatus":"Delivery","statename":"GOA","regionname":"Goa-Panaji","circlename":"Maharashtra","divisionname":"Goa","Taluk":"Salcete"},{"officename":"Ponda S.O","pincode":"403401","officetype":"S.O","deliverystatus":"Delivery","statename":"GOA","regionname":"Goa-Panaji","circlename":"Maharashtra","divisionname":"Goa","Taluk":"Ponda"},{"officename":"St. Lourence S.O","pincode":"403204","officetype":"S.O","deliverystatus":"Delivery","statename":"GOA","regionname":"Goa-Panaji","circlename":"Maharashtra","divisionname":"Goa","Taluk":"Tiswadi"},{"officename":"Velim S.O","pincode":"403723","officetype":"S.O","deliverystatus":"Delivery","statename":"GOA","regionname":"Goa-Panaji","circlename":"Maharashtra","divisionname":"Goa","Taluk":"Salcete"},{"officename":"Alto Betim S.O","pincode":"403521","officetype":"S.O","deliverystatus":"Non-Delivery","statename":"GOA","regionname":"Goa-Panaji","circlename":"Maharashtra","divisionname":"Goa","Taluk":"Bardez"},{"officename":"Candolim S.O","pincode":"403515","officetype":"S.O","deliverystatus":"Delivery","statename":"GOA","regionname":"Goa-Panaji","circlename":"Maharashtra","divisionname":"Goa","Taluk":"Bardez"},{"officename":"Corlim IE S.O","pincode":"403110","officetype":"S.O","deliverystatus":"Delivery","statename":"GOA","regionname":"Goa-Panaji","circlename":"Maharashtra","divisionname":"Goa","Taluk":"Tiswadi"},{"officename":"Aquem S.O","pincode":"403601","officetype":"S.O","deliverystatus":"Non-Delivery","statename":"GOA","regionname":"Goa-Panaji","circlename":"Maharashtra","divisionname":"Goa","Taluk":"Salcete"},{"officename":"Assolna S.O","pincode":"403701","officetype":"S.O","deliverystatus":"Delivery","statename":"GOA","regionname":"Goa-Panaji","circlename":"Maharashtra","divisionname":"Goa","Taluk":"Salcete"},{"officename":"Raia S.O","pincode":"403720","officetype":"S.O","deliverystatus":"Delivery","statename":"GOA","regionname":"Goa-Panaji","circlename":"Maharashtra","divisionname":"Goa","Taluk":"Salcete"},{"officename":"Cortalim S.O","pincode":"403710","officetype":"S.O","deliverystatus":"Delivery","statename":"GOA","regionname":"Goa-Panaji","circlename":"Maharashtra","divisionname":"Goa","Taluk":"Salcete"},{"officename":"Mandrem S.O","pincode":"403527","officetype":"S.O","deliverystatus":"Delivery","statename":"GOA","regionname":"Goa-Panaji","circlename":"Maharashtra","divisionname":"Goa","Taluk":"Pernem"},{"officename":"Betim S.O","pincode":"403101","officetype":"S.O","deliverystatus":"Delivery","statename":"GOA","regionname":"Goa-Panaji","circlename":"Maharashtra","divisionname":"Goa","Taluk":"Bardez"},{"officename":"Sinquerim S.O","pincode":"403515","officetype":"S.O","deliverystatus":"Non-Delivery","statename":"GOA","regionname":"Goa-Panaji","circlename":"Maharashtra","divisionname":"Goa","Taluk":"Bardez"},{"officename":"Secretariat S.O (North Goa)","pincode":"403521","officetype":"S.O","deliverystatus":"Non-Delivery","statename":"GOA","regionname":"Goa-Panaji","circlename":"Maharashtra","divisionname":"Goa","Taluk":"Tiswadi"},{"officename":"St Inez S.O","pincode":"403001","officetype":"S.O","deliverystatus":"Non-Delivery","statename":"GOA","regionname":"Goa-Panaji","circlename":"Maharashtra","divisionname":"Goa","Taluk":"Tiswadi"},{"officename":"Mardol S.O","pincode":"403404","officetype":"S.O","deliverystatus":"Delivery","statename":"GOA","regionname":"Goa-Panaji","circlename":"Maharashtra","divisionname":"Goa","Taluk":"Ponda"},{"officename":"Anjuna S.O","pincode":"403509","officetype":"S.O","deliverystatus":"Delivery","statename":"GOA","regionname":"Goa-Panaji","circlename":"Maharashtra","divisionname":"Goa","Taluk":"Bardez"},{"officename":"Bambolim Camp S.O","pincode":"403201","officetype":"S.O","deliverystatus":"Delivery","statename":"GOA","regionname":"Goa-Panaji","circlename":"Maharashtra","divisionname":"Goa","Taluk":"Tiswadi"},{"officename":"Loutolim S.O","pincode":"403718","officetype":"S.O","deliverystatus":"Delivery","statename":"GOA","regionname":"Goa-Panaji","circlename":"Maharashtra","divisionname":"Goa","Taluk":"Salcete"},{"officename":"Navelim S.O","pincode":"403707","officetype":"S.O","deliverystatus":"Delivery","statename":"GOA","regionname":"Goa-Panaji","circlename":"Maharashtra","divisionname":"Goa","Taluk":"Salcete"},{"officename":"Quepem S.O","pincode":"403705","officetype":"S.O","deliverystatus":"Delivery","statename":"GOA","regionname":"Goa-Panaji","circlename":"Maharashtra","divisionname":"Goa","Taluk":"Quepem"},{"officename":"Sada S.O","pincode":"403804","officetype":"S.O","deliverystatus":"Delivery","statename":"GOA","regionname":"Goa-Panaji","circlename":"Maharashtra","divisionname":"Goa","Taluk":"Mormugao"},{"officename":"Sanguem S.O","pincode":"403704","officetype":"S.O","deliverystatus":"Delivery","statename":"GOA","regionname":"Goa-Panaji","circlename":"Maharashtra","divisionname":"Goa","Taluk":"Sanguem"},{"officename":"St. Jose De Areal S.O","pincode":"403709","officetype":"S.O","deliverystatus":"Non-Delivery","statename":"GOA","regionname":"Goa-Panaji","circlename":"Maharashtra","divisionname":"Goa","Taluk":"Salcete"},{"officename":"Varca S.O","pincode":"403721","officetype":"S.O","deliverystatus":"Delivery","statename":"GOA","regionname":"Goa-Panaji","circlename":"Maharashtra","divisionname":"Goa","Taluk":"Salcete"},{"officename":"Vademnagar S.O","pincode":"403802","officetype":"S.O","deliverystatus":"Non-Delivery","statename":"GOA","regionname":"Goa-Panaji","circlename":"Maharashtra","divisionname":"Goa","Taluk":"Mormugao"},{"officename":"Vaddem S.O","pincode":"403802","officetype":"S.O","deliverystatus":"Non-Delivery","statename":"GOA","regionname":"Goa-Panaji","circlename":"Maharashtra","divisionname":"Goa","Taluk":"Mormugao"},{"officename":"Mormugao S.O","pincode":"403803","officetype":"S.O","deliverystatus":"Delivery","statename":"GOA","regionname":"Goa-Panaji","circlename":"Maharashtra","divisionname":"Goa","Taluk":"Mormugao"},{"officename":"A.P.Dabolim S.O","pincode":"403801","officetype":"S.O","deliverystatus":"Delivery","statename":"GOA","regionname":"Goa-Panaji","circlename":"Maharashtra","divisionname":"Goa","Taluk":"NA"},{"officename":"A.P.Terminal S.O","pincode":"403801","officetype":"S.O","deliverystatus":"Non-Delivery","statename":"GOA","regionname":"Goa-Panaji","circlename":"Maharashtra","divisionname":"Goa","Taluk":"Mormugao"},{"officename":"Baina S.O","pincode":"403802","officetype":"S.O","deliverystatus":"Non-Delivery","statename":"GOA","regionname":"Goa-Panaji","circlename":"Maharashtra","divisionname":"Goa","Taluk":"Mormugao"},{"officename":"Assonora S.O","pincode":"403503","officetype":"S.O","deliverystatus":"Delivery","statename":"GOA","regionname":"Goa-Panaji","circlename":"Maharashtra","divisionname":"Goa","Taluk":"Bardez"},{"officename":"Cundaim I.E. S.O","pincode":"403115","officetype":"S.O","deliverystatus":"Delivery","statename":"GOA","regionname":"Goa-Panaji","circlename":"Maharashtra","divisionname":"Goa","Taluk":"Ponda"},{"officename":"Goa University S.O","pincode":"403206","officetype":"S.O","deliverystatus":"Delivery","statename":"GOA","regionname":"Goa-Panaji","circlename":"Maharashtra","divisionname":"Goa","Taluk":"Tiswadi"},{"officename":"Parra S.O","pincode":"403510","officetype":"S.O","deliverystatus":"Delivery","statename":"GOA","regionname":"Goa-Panaji","circlename":"Maharashtra","divisionname":"Goa","Taluk":"Bardez"},{"officename":"Pilar S.O (North Goa)","pincode":"403203","officetype":"S.O","deliverystatus":"Delivery","statename":"GOA","regionname":"Goa-Panaji","circlename":"Maharashtra","divisionname":"Goa","Taluk":"Tiswadi"},{"officename":"Santa Cruz S.O","pincode":"403005","officetype":"S.O","deliverystatus":"Delivery","statename":"GOA","regionname":"Goa-Panaji","circlename":"Maharashtra","divisionname":"Goa","Taluk":"Tiswadi"},{"officename":"Velha-goa S.O","pincode":"403402","officetype":"S.O","deliverystatus":"Delivery","statename":"GOA","regionname":"Goa-Panaji","circlename":"Maharashtra","divisionname":"Goa","Taluk":"Tiswadi"},{"officename":"Bogmalo S.O","pincode":"403806","officetype":"S.O","deliverystatus":"Delivery","statename":"GOA","regionname":"Goa-Panaji","circlename":"Maharashtra","divisionname":"Goa","Taluk":"Mormugao"},{"officename":"Canacona S.O","pincode":"403702","officetype":"S.O","deliverystatus":"Delivery","statename":"GOA","regionname":"Goa-Panaji","circlename":"Maharashtra","divisionname":"Goa","Taluk":"Canacona"},{"officename":"Carmona S.O","pincode":"403717","officetype":"S.O","deliverystatus":"Delivery","statename":"GOA","regionname":"Goa-Panaji","circlename":"Maharashtra","divisionname":"Goa","Taluk":"Salcete"},{"officename":"Cavelossim S.O","pincode":"403731","officetype":"S.O","deliverystatus":"Delivery","statename":"GOA","regionname":"Goa-Panaji","circlename":"Maharashtra","divisionname":"Goa","Taluk":"Salcete"},{"officename":"Chandor S.O","pincode":"403714","officetype":"S.O","deliverystatus":"Delivery","statename":"GOA","regionname":"Goa-Panaji","circlename":"Maharashtra","divisionname":"Goa","Taluk":"Salcete"},{"officename":"Chicalim S.O","pincode":"403711","officetype":"S.O","deliverystatus":"Delivery","statename":"GOA","regionname":"Goa-Panaji","circlename":"Maharashtra","divisionname":"Goa","Taluk":"Mormugao"},{"officename":"Collem S.O","pincode":"403410","officetype":"S.O","deliverystatus":"Delivery","statename":"GOA","regionname":"Goa-Panaji","circlename":"Maharashtra","divisionname":"Goa","Taluk":"Quepem"},{"officename":"Cuncolim S.O","pincode":"403703","officetype":"S.O","deliverystatus":"Delivery","statename":"GOA","regionname":"Goa-Panaji","circlename":"Maharashtra","divisionname":"Goa","Taluk":"Quepem"},{"officename":"Curtorim S.O","pincode":"403709","officetype":"S.O","deliverystatus":"Delivery","statename":"GOA","regionname":"Goa-Panaji","circlename":"Maharashtra","divisionname":"Goa","Taluk":"Salcete"},{"officename":"Bambolim Complex S.O","pincode":"403202","officetype":"S.O","deliverystatus":"Delivery","statename":"GOA","regionname":"Goa-Panaji","circlename":"Maharashtra","divisionname":"Goa","Taluk":"Tiswadi"},{"officename":"Bicholim S.O","pincode":"403504","officetype":"S.O","deliverystatus":"Delivery","statename":"GOA","regionname":"Goa-Panaji","circlename":"Maharashtra","divisionname":"Goa","Taluk":"Bicholim"},{"officename":"Bicholim Industrial Estate S.O","pincode":"403529","officetype":"S.O","deliverystatus":"Delivery","statename":"GOA","regionname":"Goa-Panaji","circlename":"Maharashtra","divisionname":"Goa","Taluk":"Bicholim"},{"officename":"N B Verem S.O","pincode":"403109","officetype":"S.O","deliverystatus":"Delivery","statename":"GOA","regionname":"Goa-Panaji","circlename":"Maharashtra","divisionname":"Goa","Taluk":"Tiswadi"},{"officename":"Reis Magos S.O","pincode":"403114","officetype":"S.O","deliverystatus":"Delivery","statename":"GOA","regionname":"Goa-Panaji","circlename":"Maharashtra","divisionname":"Goa","Taluk":"Tiswadi"},{"officename":"Sant Estevam S.O","pincode":"403106","officetype":"S.O","deliverystatus":"Delivery","statename":"GOA","regionname":"Goa-Panaji","circlename":"Maharashtra","divisionname":"Goa","Taluk":"Ponda"},{"officename":"Tivim Ie S.O","pincode":"403526","officetype":"S.O","deliverystatus":"Delivery","statename":"GOA","regionname":"Goa-Panaji","circlename":"Maharashtra","divisionname":"Goa","Taluk":"Bardez"},{"officename":"Shiroda S.O (North Goa)","pincode":"403103","officetype":"S.O","deliverystatus":"Delivery","statename":"GOA","regionname":"Goa-Panaji","circlename":"Maharashtra","divisionname":"Goa","Taluk":"Ponda"},{"officename":"Gandhi Market Complex Margao S.O","pincode":"403601","officetype":"S.O","deliverystatus":"Non-Delivery","statename":"GOA","regionname":"Goa-Panaji","circlename":"Maharashtra","divisionname":"Goa","Taluk":"Salcete"},{"officename":"Majorda S.O","pincode":"403713","officetype":"S.O","deliverystatus":"Delivery","statename":"GOA","regionname":"Goa-Panaji","circlename":"Maharashtra","divisionname":"Goa","Taluk":"Salcete"},{"officename":"Dramapur S.O","pincode":"403725","officetype":"S.O","deliverystatus":"Delivery","statename":"GOA","regionname":"Goa-Panaji","circlename":"Maharashtra","divisionname":"Goa","Taluk":"Salcete"},{"officename":"Panaji H.O","pincode":"403001","officetype":"H.O","deliverystatus":"Delivery","statename":"GOA","regionname":"Goa-Panaji","circlename":"Maharashtra","divisionname":"Goa","Taluk":"Tiswadi"},{"officename":"Margao H.O","pincode":"403601","officetype":"H.O","deliverystatus":"Delivery","statename":"GOA","regionname":"Goa-Panaji","circlename":"Maharashtra","divisionname":"Goa","Taluk":"Salcette"},{"officename":"ONGC Ipsem Betul B.O","pincode":"403723","officetype":"B.O","deliverystatus":"Delivery","statename":"GOA","regionname":"Goa-Panaji","circlename":"Maharashtra","divisionname":"Goa","Taluk":"Salcete"},{"officename":"Matri Indian Antartic Station B.O","pincode":"403004","officetype":"B.O","deliverystatus":"Delivery","statename":"GOA","regionname":"Goa-Panaji","circlename":"Maharashtra","divisionname":"Goa","Taluk":"North Goa"},{"officename":"Betalbhatim B.O","pincode":"403713","officetype":"B.O","deliverystatus":"Delivery","statename":"GOA","regionname":"Goa-Panaji","circlename":"Maharashtra","divisionname":"Goa","Taluk":"Salcete"},{"officename":"Utorda B.O","pincode":"403713","officetype":"B.O","deliverystatus":"Non-Delivery","statename":"GOA","regionname":"Goa-Panaji","circlename":"Maharashtra","divisionname":"Goa","Taluk":"Salcete"},{"officename":"Gurim B.O","pincode":"403507","officetype":"B.O","deliverystatus":"Delivery","statename":"GOA","regionname":"Goa-Panaji","circlename":"Maharashtra","divisionname":"Goa","Taluk":"Bardez"},{"officename":"Moira B.O","pincode":"403507","officetype":"B.O","deliverystatus":"Delivery","statename":"GOA","regionname":"Goa-Panaji","circlename":"Maharashtra","divisionname":"Goa","Taluk":"Bardez"},{"officename":"Ucassiam B.O","pincode":"403507","officetype":"B.O","deliverystatus":"Delivery","statename":"GOA","regionname":"Goa-Panaji","circlename":"Maharashtra","divisionname":"Goa","Taluk":"Bardez"},{"officename":"Camurlim B.O","pincode":"403507","officetype":"B.O","deliverystatus":"Delivery","statename":"GOA","regionname":"Goa-Panaji","circlename":"Maharashtra","divisionname":"Goa","Taluk":"Bardez"},{"officename":"Tuem B.O","pincode":"403512","officetype":"B.O","deliverystatus":"Delivery","statename":"GOA","regionname":"Goa-Panaji","circlename":"Maharashtra","divisionname":"Goa","Taluk":"Pernem"},{"officename":"Quirlapale B.O","pincode":"403706","officetype":"B.O","deliverystatus":"Delivery","statename":"GOA","regionname":"Goa-Panaji","circlename":"Maharashtra","divisionname":"Goa","Taluk":"Curchorem"},{"officename":"Nuvem B.O","pincode":"403601","officetype":"B.O","deliverystatus":"Delivery","statename":"GOA","regionname":"Goa-Panaji","circlename":"Maharashtra","divisionname":"Goa","Taluk":"Salcete"},{"officename":"Usgao B.O","pincode":"403406","officetype":"B.O","deliverystatus":"Delivery","statename":"GOA","regionname":"Goa-Panaji","circlename":"Maharashtra","divisionname":"Goa","Taluk":"Ponda"},{"officename":"Chimbel B.O","pincode":"403006","officetype":"B.O","deliverystatus":"Delivery","statename":"GOA","regionname":"Goa-Panaji","circlename":"Maharashtra","divisionname":"Goa","Taluk":"Tiswadi"},{"officename":"Cavorim B.O","pincode":"403714","officetype":"B.O","deliverystatus":"Non-Delivery","statename":"GOA","regionname":"Goa-Panaji","circlename":"Maharashtra","divisionname":"Goa","Taluk":"Salcete"},{"officename":"Sangolda B.O","pincode":"403511","officetype":"B.O","deliverystatus":"Delivery","statename":"GOA","regionname":"Goa-Panaji","circlename":"Maharashtra","divisionname":"Goa","Taluk":"Bardez"},{"officename":"Sem Saligao B.O","pincode":"403511","officetype":"B.O","deliverystatus":"Non-Delivery","statename":"GOA","regionname":"Goa-Panaji","circlename":"Maharashtra","divisionname":"Goa","Taluk":"Bardez"},{"officename":"Carapur B.O","pincode":"403505","officetype":"B.O","deliverystatus":"Non-Delivery","statename":"GOA","regionname":"Goa-Panaji","circlename":"Maharashtra","divisionname":"Goa","Taluk":"Bicholim"},{"officename":"Cudne B.O","pincode":"403505","officetype":"B.O","deliverystatus":"Non-Delivery","statename":"GOA","regionname":"Goa-Panaji","circlename":"Maharashtra","divisionname":"Goa","Taluk":"Bicholim"},{"officename":"Morlem B.O","pincode":"403505","officetype":"B.O","deliverystatus":"Delivery","statename":"GOA","regionname":"Goa-Panaji","circlename":"Maharashtra","divisionname":"Goa","Taluk":"Bicholim"},{"officename":"Poriem B.O","pincode":"403505","officetype":"B.O","deliverystatus":"Non-Delivery","statename":"GOA","regionname":"Goa-Panaji","circlename":"Maharashtra","divisionname":"Goa","Taluk":"Sattari"},{"officename":"Pratapnagar Harvale B.O","pincode":"403505","officetype":"B.O","deliverystatus":"Delivery","statename":"GOA","regionname":"Goa-Panaji","circlename":"Maharashtra","divisionname":"Goa","Taluk":"Bicholim"},{"officename":"Kerim B.O","pincode":"403505","officetype":"B.O","deliverystatus":"Delivery","statename":"GOA","regionname":"Goa-Panaji","circlename":"Maharashtra","divisionname":"Goa","Taluk":"Sattari"},{"officename":"Surla B.O","pincode":"403505","officetype":"B.O","deliverystatus":"Delivery","statename":"GOA","regionname":"Goa-Panaji","circlename":"Maharashtra","divisionname":"Goa","Taluk":"Bicholim"},{"officename":"Navelim B.O","pincode":"403505","officetype":"B.O","deliverystatus":"Delivery","statename":"GOA","regionname":"Goa-Panaji","circlename":"Maharashtra","divisionname":"Goa","Taluk":"Bicholim"},{"officename":"Advoi B.O","pincode":"403530","officetype":"B.O","deliverystatus":"Delivery","statename":"GOA","regionname":"Goa-Panaji","circlename":"Maharashtra","divisionname":"Goa","Taluk":"Sattari"},{"officename":"Pissurlem B.O","pincode":"403530","officetype":"B.O","deliverystatus":"Delivery","statename":"GOA","regionname":"Goa-Panaji","circlename":"Maharashtra","divisionname":"Goa","Taluk":"Sattari"},{"officename":"Onda B.O","pincode":"403530","officetype":"B.O","deliverystatus":"Delivery","statename":"GOA","regionname":"Goa-Panaji","circlename":"Maharashtra","divisionname":"Goa","Taluk":"Sattari"},{"officename":"Oxel B.O","pincode":"403517","officetype":"B.O","deliverystatus":"Non-Delivery","statename":"GOA","regionname":"Goa-Panaji","circlename":"Maharashtra","divisionname":"Goa","Taluk":"Bardez"},{"officename":"Tarvalem B.O","pincode":"403103","officetype":"B.O","deliverystatus":"Delivery","statename":"GOA","regionname":"Goa-Panaji","circlename":"Maharashtra","divisionname":"Goa","Taluk":"Ponda"},{"officename":"Candepar B.O","pincode":"403406","officetype":"B.O","deliverystatus":"Delivery","statename":"GOA","regionname":"Goa-Panaji","circlename":"Maharashtra","divisionname":"Goa","Taluk":"Ponda"},{"officename":"Darbandora B.O","pincode":"403406","officetype":"B.O","deliverystatus":"Delivery","statename":"GOA","regionname":"Goa-Panaji","circlename":"Maharashtra","divisionname":"Goa","Taluk":"Ponda"},{"officename":"Sancordem B.O","pincode":"403406","officetype":"B.O","deliverystatus":"Delivery","statename":"GOA","regionname":"Goa-Panaji","circlename":"Maharashtra","divisionname":"Goa","Taluk":"Ponda"},{"officename":"Pillem B.O","pincode":"403406","officetype":"B.O","deliverystatus":"Delivery","statename":"GOA","regionname":"Goa-Panaji","circlename":"Maharashtra","divisionname":"Goa","Taluk":"Ponda"},{"officename":"Sirsaim B.O","pincode":"403502","officetype":"B.O","deliverystatus":"Non-Delivery","statename":"GOA","regionname":"Goa-Panaji","circlename":"Maharashtra","divisionname":"Goa","Taluk":"Bicholim"},{"officename":"Birondam B.O","pincode":"403506","officetype":"B.O","deliverystatus":"Delivery","statename":"GOA","regionname":"Goa-Panaji","circlename":"Maharashtra","divisionname":"Goa","Taluk":"Sattari"},{"officename":"Guleli B.O","pincode":"403506","officetype":"B.O","deliverystatus":"Delivery","statename":"GOA","regionname":"Goa-Panaji","circlename":"Maharashtra","divisionname":"Goa","Taluk":"Sattari"},{"officename":"Nanorem B.O","pincode":"403506","officetype":"B.O","deliverystatus":"Delivery","statename":"GOA","regionname":"Goa-Panaji","circlename":"Maharashtra","divisionname":"Goa","Taluk":"Sattari"},{"officename":"Nagargaon B.O","pincode":"403506","officetype":"B.O","deliverystatus":"Delivery","statename":"GOA","regionname":"Goa-Panaji","circlename":"Maharashtra","divisionname":"Goa","Taluk":"Sattari"},{"officename":"Sanvordem B.O","pincode":"403506","officetype":"B.O","deliverystatus":"Delivery","statename":"GOA","regionname":"Goa-Panaji","circlename":"Maharashtra","divisionname":"Goa","Taluk":"Sattari"},{"officename":"Thana B.O","pincode":"403506","officetype":"B.O","deliverystatus":"Delivery","statename":"GOA","regionname":"Goa-Panaji","circlename":"Maharashtra","divisionname":"Goa","Taluk":"Sattari"},{"officename":"Cotorem B.O","pincode":"403506","officetype":"B.O","deliverystatus":"Delivery","statename":"GOA","regionname":"Goa-Panaji","circlename":"Maharashtra","divisionname":"Goa","Taluk":"Sattari"},{"officename":"Mauzi B.O","pincode":"403506","officetype":"B.O","deliverystatus":"Delivery","statename":"GOA","regionname":"Goa-Panaji","circlename":"Maharashtra","divisionname":"Goa","Taluk":"Sattari"},{"officename":"Velguem O B.O","pincode":"403506","officetype":"B.O","deliverystatus":"Delivery","statename":"GOA","regionname":"Goa-Panaji","circlename":"Maharashtra","divisionname":"Goa","Taluk":"Sattari"},{"officename":"Agonda B.O","pincode":"403702","officetype":"B.O","deliverystatus":"Delivery","statename":"GOA","regionname":"Goa-Panaji","circlename":"Maharashtra","divisionname":"Goa","Taluk":"Canacona"},{"officename":"Bhatpal B.O","pincode":"403702","officetype":"B.O","deliverystatus":"Delivery","statename":"GOA","regionname":"Goa-Panaji","circlename":"Maharashtra","divisionname":"Goa","Taluk":"Canacona"},{"officename":"Cola B.O","pincode":"403702","officetype":"B.O","deliverystatus":"Delivery","statename":"GOA","regionname":"Goa-Panaji","circlename":"Maharashtra","divisionname":"Goa","Taluk":"Canacona"},{"officename":"Cotigaon B.O","pincode":"403702","officetype":"B.O","deliverystatus":"Delivery","statename":"GOA","regionname":"Goa-Panaji","circlename":"Maharashtra","divisionname":"Goa","Taluk":"Canacona"},{"officename":"Gaodongarim B.O","pincode":"403702","officetype":"B.O","deliverystatus":"Delivery","statename":"GOA","regionname":"Goa-Panaji","circlename":"Maharashtra","divisionname":"Goa","Taluk":"Cancona"},{"officename":"Poinguinim B.O","pincode":"403702","officetype":"B.O","deliverystatus":"Delivery","statename":"GOA","regionname":"Goa-Panaji","circlename":"Maharashtra","divisionname":"Goa","Taluk":"Cancona"},{"officename":"Palolem B.O","pincode":"403702","officetype":"B.O","deliverystatus":"Delivery","statename":"GOA","regionname":"Goa-Panaji","circlename":"Maharashtra","divisionname":"Goa","Taluk":"Canacona"},{"officename":"Sadolxem B.O","pincode":"403702","officetype":"B.O","deliverystatus":"Delivery","statename":"GOA","regionname":"Goa-Panaji","circlename":"Maharashtra","divisionname":"Goa","Taluk":"Canacona"},{"officename":"Assolda B.O","pincode":"403714","officetype":"B.O","deliverystatus":"Non-Delivery","statename":"GOA","regionname":"Goa-Panaji","circlename":"Maharashtra","divisionname":"Goa","Taluk":"Salcete"},{"officename":"Mollem B.O","pincode":"403410","officetype":"B.O","deliverystatus":"Delivery","statename":"GOA","regionname":"Goa-Panaji","circlename":"Maharashtra","divisionname":"Goa","Taluk":"Sanguem"},{"officename":"Sigao B.O","pincode":"403410","officetype":"B.O","deliverystatus":"Delivery","statename":"GOA","regionname":"Goa-Panaji","circlename":"Maharashtra","divisionname":"Goa","Taluk":"Sanguem"},{"officename":"Seraulim B.O","pincode":"403708","officetype":"B.O","deliverystatus":"Delivery","statename":"GOA","regionname":"Goa-Panaji","circlename":"Maharashtra","divisionname":"Goa","Taluk":"Salcete"},{"officename":"Vanelim B.O","pincode":"403708","officetype":"B.O","deliverystatus":"Non-Delivery","statename":"GOA","regionname":"Goa-Panaji","circlename":"Maharashtra","divisionname":"Goa","Taluk":"Salcete"},{"officename":"Balli B.O","pincode":"403703","officetype":"B.O","deliverystatus":"Delivery","statename":"GOA","regionname":"Goa-Panaji","circlename":"Maharashtra","divisionname":"Goa","Taluk":"Salcete"},{"officename":"Barcem B.O","pincode":"403703","officetype":"B.O","deliverystatus":"Delivery","statename":"GOA","regionname":"Goa-Panaji","circlename":"Maharashtra","divisionname":"Goa","Taluk":"Quepem"},{"officename":"Cananguinim B.O","pincode":"403703","officetype":"B.O","deliverystatus":"Delivery","statename":"GOA","regionname":"Goa-Panaji","circlename":"Maharashtra","divisionname":"Goa","Taluk":"Quepem"},{"officename":"Fatorpa B.O","pincode":"403703","officetype":"B.O","deliverystatus":"Delivery","statename":"GOA","regionname":"Goa-Panaji","circlename":"Maharashtra","divisionname":"Goa","Taluk":"Quepem"},{"officename":"Morpirla B.O","pincode":"403703","officetype":"B.O","deliverystatus":"Delivery","statename":"GOA","regionname":"Goa-Panaji","circlename":"Maharashtra","divisionname":"Goa","Taluk":"Salcete"},{"officename":"Veroda B.O","pincode":"403703","officetype":"B.O","deliverystatus":"Delivery","statename":"GOA","regionname":"Goa-Panaji","circlename":"Maharashtra","divisionname":"Goa","Taluk":"Salcete"},{"officename":"Cacora B.O","pincode":"403706","officetype":"B.O","deliverystatus":"Delivery","statename":"GOA","regionname":"Goa-Panaji","circlename":"Maharashtra","divisionname":"Goa","Taluk":"Quepem"},{"officename":"Panchwadi B.O","pincode":"403706","officetype":"B.O","deliverystatus":"Delivery","statename":"GOA","regionname":"Goa-Panaji","circlename":"Maharashtra","divisionname":"Goa","Taluk":"Ponda"},{"officename":"Xelvona B.O","pincode":"403706","officetype":"B.O","deliverystatus":"Delivery","statename":"GOA","regionname":"Goa-Panaji","circlename":"Maharashtra","divisionname":"Goa","Taluk":"Quepem"},{"officename":"Macazana B.O","pincode":"403709","officetype":"B.O","deliverystatus":"Delivery","statename":"GOA","regionname":"Goa-Panaji","circlename":"Maharashtra","divisionname":"Goa","Taluk":"Salcete"},{"officename":"Loliem Polem B.O","pincode":"403728","officetype":"B.O","deliverystatus":"Delivery","statename":"GOA","regionname":"Goa-Panaji","circlename":"Maharashtra","divisionname":"Goa","Taluk":"Canacona"},{"officename":"Camurlim B.O","pincode":"403718","officetype":"B.O","deliverystatus":"Non-Delivery","statename":"GOA","regionname":"Goa-Panaji","circlename":"Maharashtra","divisionname":"Goa","Taluk":"Salcete"},{"officename":"Talaulim B.O","pincode":"403707","officetype":"B.O","deliverystatus":"Non-Delivery","statename":"GOA","regionname":"Goa-Panaji","circlename":"Maharashtra","divisionname":"Goa","Taluk":"Salcete"},{"officename":"Davorlim B.O","pincode":"403707","officetype":"B.O","deliverystatus":"Delivery","statename":"GOA","regionname":"Goa-Panaji","circlename":"Maharashtra","divisionname":"Goa","Taluk":"Salcete"},{"officename":"Avedem B.O","pincode":"403705","officetype":"B.O","deliverystatus":"Delivery","statename":"GOA","regionname":"Goa-Panaji","circlename":"Maharashtra","divisionname":"Goa","Taluk":"Quepem"},{"officename":"Pirla B.O","pincode":"403705","officetype":"B.O","deliverystatus":"Delivery","statename":"GOA","regionname":"Goa-Panaji","circlename":"Maharashtra","divisionname":"Goa","Taluk":"Quepem"},{"officename":"Rivona B.O","pincode":"403705","officetype":"B.O","deliverystatus":"Delivery","statename":"GOA","regionname":"Goa-Panaji","circlename":"Maharashtra","divisionname":"Goa","Taluk":"Sangaum"},{"officename":"Sirvoi B.O","pincode":"403705","officetype":"B.O","deliverystatus":"Delivery","statename":"GOA","regionname":"Goa-Panaji","circlename":"Maharashtra","divisionname":"Goa","Taluk":"Quepem"},{"officename":"Xeldem B.O","pincode":"403705","officetype":"B.O","deliverystatus":"Delivery","statename":"GOA","regionname":"Goa-Panaji","circlename":"Maharashtra","divisionname":"Goa","Taluk":"Quepem"},{"officename":"Bati B.O","pincode":"403704","officetype":"B.O","deliverystatus":"Delivery","statename":"GOA","regionname":"Goa-Panaji","circlename":"Maharashtra","divisionname":"Goa","Taluk":"Sangaum"},{"officename":"Calem B.O","pincode":"403704","officetype":"B.O","deliverystatus":"Delivery","statename":"GOA","regionname":"Goa-Panaji","circlename":"Maharashtra","divisionname":"Goa","Taluk":"Sangaum"},{"officename":"Curdi B.O","pincode":"403704","officetype":"B.O","deliverystatus":"Delivery","statename":"GOA","regionname":"Goa-Panaji","circlename":"Maharashtra","divisionname":"Goa","Taluk":"Sangaum"},{"officename":"Molcarnem B.O","pincode":"403704","officetype":"B.O","deliverystatus":"Non-Delivery","statename":"GOA","regionname":"Goa-Panaji","circlename":"Maharashtra","divisionname":"Goa","Taluk":"Sangaum"},{"officename":"Netorlim B.O","pincode":"403704","officetype":"B.O","deliverystatus":"Delivery","statename":"GOA","regionname":"Goa-Panaji","circlename":"Maharashtra","divisionname":"Goa","Taluk":"Sangaum"},{"officename":"Ugvem B.O","pincode":"403704","officetype":"B.O","deliverystatus":"Delivery","statename":"GOA","regionname":"Goa-Panaji","circlename":"Maharashtra","divisionname":"Goa","Taluk":"Sangaum"},{"officename":"Valkini B.O","pincode":"403704","officetype":"B.O","deliverystatus":"Delivery","statename":"GOA","regionname":"Goa-Panaji","circlename":"Maharashtra","divisionname":"Goa","Taluk":"Sangaum"},{"officename":"Ambelim B.O","pincode":"403723","officetype":"B.O","deliverystatus":"Non-Delivery","statename":"GOA","regionname":"Goa-Panaji","circlename":"Maharashtra","divisionname":"Goa","Taluk":"Salcate"},{"officename":"Amona B.O","pincode":"403107","officetype":"B.O","deliverystatus":"Delivery","statename":"GOA","regionname":"Goa-Panaji","circlename":"Maharashtra","divisionname":"Goa","Taluk":"Sanquelim"},{"officename":"Banastrim B.O","pincode":"403107","officetype":"B.O","deliverystatus":"Delivery","statename":"GOA","regionname":"Goa-Panaji","circlename":"Maharashtra","divisionname":"Goa","Taluk":"Ponda"},{"officename":"Cumbharjua B.O","pincode":"403107","officetype":"B.O","deliverystatus":"Non-Delivery","statename":"GOA","regionname":"Goa-Panaji","circlename":"Maharashtra","divisionname":"Goa","Taluk":"Tiswadi"},{"officename":"Betki B.O","pincode":"403107","officetype":"B.O","deliverystatus":"Delivery","statename":"GOA","regionname":"Goa-Panaji","circlename":"Maharashtra","divisionname":"Goa","Taluk":"Ponda"},{"officename":"Marcaim B.O","pincode":"403404","officetype":"B.O","deliverystatus":"Delivery","statename":"GOA","regionname":"Goa-Panaji","circlename":"Maharashtra","divisionname":"Goa","Taluk":"Ponda"},{"officename":"Priol B.O","pincode":"403404","officetype":"B.O","deliverystatus":"Delivery","statename":"GOA","regionname":"Goa-Panaji","circlename":"Maharashtra","divisionname":"Goa","Taluk":"Ponda"},{"officename":"Mandur B.O","pincode":"403104","officetype":"B.O","deliverystatus":"Delivery","statename":"GOA","regionname":"Goa-Panaji","circlename":"Maharashtra","divisionname":"Goa","Taluk":"Tiswadi"},{"officename":"Velguem B.O","pincode":"403105","officetype":"B.O","deliverystatus":"Delivery","statename":"GOA","regionname":"Goa-Panaji","circlename":"Maharashtra","divisionname":"Goa","Taluk":"Ponda"},{"officename":"Canca B.O","pincode":"403510","officetype":"B.O","deliverystatus":"Non-Delivery","statename":"GOA","regionname":"Goa-Panaji","circlename":"Maharashtra","divisionname":"Goa","Taluk":"Bardez"},{"officename":"Agarwada B.O","pincode":"403512","officetype":"B.O","deliverystatus":"Delivery","statename":"GOA","regionname":"Goa-Panaji","circlename":"Maharashtra","divisionname":"Goa","Taluk":"Pernem"},{"officename":"Cansarvornem B.O","pincode":"403512","officetype":"B.O","deliverystatus":"Delivery","statename":"GOA","regionname":"Goa-Panaji","circlename":"Maharashtra","divisionname":"Goa","Taluk":"Pernem"},{"officename":"Corgao B.O","pincode":"403512","officetype":"B.O","deliverystatus":"Delivery","statename":"GOA","regionname":"Goa-Panaji","circlename":"Maharashtra","divisionname":"Goa","Taluk":"Pernem"},{"officename":"Morjim B.O","pincode":"403512","officetype":"B.O","deliverystatus":"Delivery","statename":"GOA","regionname":"Goa-Panaji","circlename":"Maharashtra","divisionname":"Goa","Taluk":"Pernem"},{"officename":"Nagzar B.O","pincode":"403512","officetype":"B.O","deliverystatus":"Delivery","statename":"GOA","regionname":"Goa-Panaji","circlename":"Maharashtra","divisionname":"Goa","Taluk":"Pernem"},{"officename":"Parxem B.O","pincode":"403512","officetype":"B.O","deliverystatus":"Delivery","statename":"GOA","regionname":"Goa-Panaji","circlename":"Maharashtra","divisionname":"Goa","Taluk":"Pernem"},{"officename":"Poroscodem B.O","pincode":"403512","officetype":"B.O","deliverystatus":"Non-Delivery","statename":"GOA","regionname":"Goa-Panaji","circlename":"Maharashtra","divisionname":"Goa","Taluk":"Pernem"},{"officename":"Torxem B.O","pincode":"403512","officetype":"B.O","deliverystatus":"Delivery","statename":"GOA","regionname":"Goa-Panaji","circlename":"Maharashtra","divisionname":"Goa","Taluk":"Pernem"},{"officename":"Virnora B.O","pincode":"403512","officetype":"B.O","deliverystatus":"Delivery","statename":"GOA","regionname":"Goa-Panaji","circlename":"Maharashtra","divisionname":"Goa","Taluk":"Pernem"},{"officename":"Varconda B.O","pincode":"403512","officetype":"B.O","deliverystatus":"Delivery","statename":"GOA","regionname":"Goa-Panaji","circlename":"Maharashtra","divisionname":"Goa","Taluk":"Pernem"},{"officename":"Tuem I E B.O","pincode":"403512","officetype":"B.O","deliverystatus":"Delivery","statename":"GOA","regionname":"Goa-Panaji","circlename":"Maharashtra","divisionname":"Goa","Taluk":"Pernem"},{"officename":"Tamboxem B.O","pincode":"403512","officetype":"B.O","deliverystatus":"Delivery","statename":"GOA","regionname":"Goa-Panaji","circlename":"Maharashtra","divisionname":"Goa","Taluk":"Pernem"},{"officename":"Malar B.O","pincode":"403403","officetype":"B.O","deliverystatus":"Non-Delivery","statename":"GOA","regionname":"Goa-Panaji","circlename":"Maharashtra","divisionname":"Goa","Taluk":"Tiswadi"},{"officename":"Bandora B.O","pincode":"403401","officetype":"B.O","deliverystatus":"Delivery","statename":"GOA","regionname":"Goa-Panaji","circlename":"Maharashtra","divisionname":"Goa","Taluk":"Ponda"},{"officename":"Borim B.O","pincode":"403401","officetype":"B.O","deliverystatus":"Delivery","statename":"GOA","regionname":"Goa-Panaji","circlename":"Maharashtra","divisionname":"Goa","Taluk":"Ponda"},{"officename":"Curti B.O","pincode":"403401","officetype":"B.O","deliverystatus":"Non-Delivery","statename":"GOA","regionname":"Goa-Panaji","circlename":"Maharashtra","divisionname":"Goa","Taluk":"Ponda"},{"officename":"Durbhat B.O","pincode":"403401","officetype":"B.O","deliverystatus":"Delivery","statename":"GOA","regionname":"Goa-Panaji","circlename":"Maharashtra","divisionname":"Goa","Taluk":"Ponda"},{"officename":"Farmagudi B.O","pincode":"403401","officetype":"B.O","deliverystatus":"Non-Delivery","statename":"GOA","regionname":"Goa-Panaji","circlename":"Maharashtra","divisionname":"Goa","Taluk":"Ponda"},{"officename":"Nirankal B.O","pincode":"403401","officetype":"B.O","deliverystatus":"Delivery","statename":"GOA","regionname":"Goa-Panaji","circlename":"Maharashtra","divisionname":"Goa","Taluk":"Ponda"},{"officename":"Querim B.O","pincode":"403401","officetype":"B.O","deliverystatus":"Delivery","statename":"GOA","regionname":"Goa-Panaji","circlename":"Maharashtra","divisionname":"Goa","Taluk":"Ponda"},{"officename":"Quela B.O","pincode":"403401","officetype":"B.O","deliverystatus":"Delivery","statename":"GOA","regionname":"Goa-Panaji","circlename":"Maharashtra","divisionname":"Goa","Taluk":"Ponda"},{"officename":"Verem De Ponda B.O","pincode":"403401","officetype":"B.O","deliverystatus":"Delivery","statename":"GOA","regionname":"Goa-Panaji","circlename":"Maharashtra","divisionname":"Goa","Taluk":"Ponda"},{"officename":"Betora B.O","pincode":"403401","officetype":"B.O","deliverystatus":"Non-Delivery","statename":"GOA","regionname":"Goa-Panaji","circlename":"Maharashtra","divisionname":"Goa","Taluk":"Ponda"},{"officename":"Agapur Adpoi B.O","pincode":"403401","officetype":"B.O","deliverystatus":"Delivery","statename":"GOA","regionname":"Goa-Panaji","circlename":"Maharashtra","divisionname":"Goa","Taluk":"Ponda"},{"officename":"Nerul B.O","pincode":"403114","officetype":"B.O","deliverystatus":"Delivery","statename":"GOA","regionname":"Goa-Panaji","circlename":"Maharashtra","divisionname":"Goa","Taluk":"Tiswadi"},{"officename":"Pilerne B.O","pincode":"403114","officetype":"B.O","deliverystatus":"Delivery","statename":"GOA","regionname":"Goa-Panaji","circlename":"Maharashtra","divisionname":"Goa","Taluk":"Bardez"},{"officename":"Corjuim B.O","pincode":"403508","officetype":"B.O","deliverystatus":"Delivery","statename":"GOA","regionname":"Goa-Panaji","circlename":"Maharashtra","divisionname":"Goa","Taluk":"Bardez"},{"officename":"Nachinola B.O","pincode":"403508","officetype":"B.O","deliverystatus":"Non-Delivery","statename":"GOA","regionname":"Goa-Panaji","circlename":"Maharashtra","divisionname":"Goa","Taluk":"Bardez"},{"officename":"Caisua B.O","pincode":"403509","officetype":"B.O","deliverystatus":"Delivery","statename":"GOA","regionname":"Goa-Panaji","circlename":"Maharashtra","divisionname":"Goa","Taluk":"Bardez"},{"officename":"Querim B.O","pincode":"403524","officetype":"B.O","deliverystatus":"Delivery","statename":"GOA","regionname":"Goa-Panaji","circlename":"Maharashtra","divisionname":"Goa","Taluk":"Pernem"},{"officename":"Qurinpani B.O","pincode":"403524","officetype":"B.O","deliverystatus":"Delivery","statename":"GOA","regionname":"Goa-Panaji","circlename":"Maharashtra","divisionname":"Goa","Taluk":"Pernem"},{"officename":"Advalpal B.O","pincode":"403503","officetype":"B.O","deliverystatus":"Non-Delivery","statename":"GOA","regionname":"Goa-Panaji","circlename":"Maharashtra","divisionname":"Goa","Taluk":"Bicholim"},{"officename":"Dodamarg B.O","pincode":"403503","officetype":"B.O","deliverystatus":"Delivery","statename":"GOA","regionname":"Goa-Panaji","circlename":"Maharashtra","divisionname":"Goa","Taluk":"Bicholim"},{"officename":"Ibrampur B.O","pincode":"403503","officetype":"B.O","deliverystatus":"Delivery","statename":"GOA","regionname":"Goa-Panaji","circlename":"Maharashtra","divisionname":"Goa","Taluk":"Pernem"},{"officename":"Mulgao B.O","pincode":"403503","officetype":"B.O","deliverystatus":"Delivery","statename":"GOA","regionname":"Goa-Panaji","circlename":"Maharashtra","divisionname":"Goa","Taluk":"Bicholim"},{"officename":"Salem B.O","pincode":"403503","officetype":"B.O","deliverystatus":"Delivery","statename":"GOA","regionname":"Goa-Panaji","circlename":"Maharashtra","divisionname":"Goa","Taluk":"Bicholim"},{"officename":"Sirgao B.O","pincode":"403503","officetype":"B.O","deliverystatus":"Delivery","statename":"GOA","regionname":"Goa-Panaji","circlename":"Maharashtra","divisionname":"Goa","Taluk":"Bicholim"},{"officename":"Nanora B.O","pincode":"403503","officetype":"B.O","deliverystatus":"Delivery","statename":"GOA","regionname":"Goa-Panaji","circlename":"Maharashtra","divisionname":"Goa","Taluk":"Bicholim"},{"officename":"Mangor Hill B.O","pincode":"403802","officetype":"B.O","deliverystatus":"Non-Delivery","statename":"GOA","regionname":"Goa-Panaji","circlename":"Maharashtra","divisionname":"Goa","Taluk":"Marmugao"},{"officename":"Penha De France B.O","pincode":"403101","officetype":"B.O","deliverystatus":"Delivery","statename":"GOA","regionname":"Goa-Panaji","circlename":"Maharashtra","divisionname":"Goa","Taluk":"Bardez"},{"officename":"Salvador De Mond B.O","pincode":"403101","officetype":"B.O","deliverystatus":"Delivery","statename":"GOA","regionname":"Goa-Panaji","circlename":"Maharashtra","divisionname":"Goa","Taluk":"Bardez"},{"officename":"Mayem B.O","pincode":"403504","officetype":"B.O","deliverystatus":"Delivery","statename":"GOA","regionname":"Goa-Panaji","circlename":"Maharashtra","divisionname":"Goa","Taluk":"Bicholim"},{"officename":"Maulinge B.O","pincode":"403504","officetype":"B.O","deliverystatus":"Delivery","statename":"GOA","regionname":"Goa-Panaji","circlename":"Maharashtra","divisionname":"Goa","Taluk":"Bicholim"},{"officename":"Pilgao B.O","pincode":"403504","officetype":"B.O","deliverystatus":"Delivery","statename":"GOA","regionname":"Goa-Panaji","circlename":"Maharashtra","divisionname":"Goa","Taluk":"Bicholim"},{"officename":"Baga B.O","pincode":"403516","officetype":"B.O","deliverystatus":"Non-Delivery","statename":"GOA","regionname":"Goa-Panaji","circlename":"Maharashtra","divisionname":"Goa","Taluk":"Bardez"},{"officename":"Arpora B.O","pincode":"403516","officetype":"B.O","deliverystatus":"Delivery","statename":"GOA","regionname":"Goa-Panaji","circlename":"Maharashtra","divisionname":"Goa","Taluk":"Bardez"},{"officename":"Saipem B.O","pincode":"403515","officetype":"B.O","deliverystatus":"Delivery","statename":"GOA","regionname":"Goa-Panaji","circlename":"Maharashtra","divisionname":"Goa","Taluk":"Bardez"},{"officename":"Calvim B.O","pincode":"403523","officetype":"B.O","deliverystatus":"Delivery","statename":"GOA","regionname":"Goa-Panaji","circlename":"Maharashtra","divisionname":"Goa","Taluk":"Bardez"},{"officename":"Pomburpa B.O","pincode":"403523","officetype":"B.O","deliverystatus":"Delivery","statename":"GOA","regionname":"Goa-Panaji","circlename":"Maharashtra","divisionname":"Goa","Taluk":"Bardez"},{"officename":"Dhagalim B.O","pincode":"403513","officetype":"B.O","deliverystatus":"Delivery","statename":"GOA","regionname":"Goa-Panaji","circlename":"Maharashtra","divisionname":"Goa","Taluk":"Bardez"},{"officename":"Pirna B.O","pincode":"403513","officetype":"B.O","deliverystatus":"Delivery","statename":"GOA","regionname":"Goa-Panaji","circlename":"Maharashtra","divisionname":"Goa","Taluk":"Bardez"},{"officename":"Revora B.O","pincode":"403513","officetype":"B.O","deliverystatus":"Delivery","statename":"GOA","regionname":"Goa-Panaji","circlename":"Maharashtra","divisionname":"Goa","Taluk":"Bardez"},{"officename":"Ozari B.O","pincode":"403513","officetype":"B.O","deliverystatus":"Delivery","statename":"GOA","regionname":"Goa-Panaji","circlename":"Maharashtra","divisionname":"Goa","Taluk":"Pernem"},{"officename":"Menkurim B.O","pincode":"403513","officetype":"B.O","deliverystatus":"Delivery","statename":"GOA","regionname":"Goa-Panaji","circlename":"Maharashtra","divisionname":"Goa","Taluk":"Bardez"},{"officename":"Carambolim B.O","pincode":"403110","officetype":"B.O","deliverystatus":"Delivery","statename":"GOA","regionname":"Goa-Panaji","circlename":"Maharashtra","divisionname":"Goa","Taluk":"Tiswadi"},{"officename":"Cundiam B.O","pincode":"403115","officetype":"B.O","deliverystatus":"Delivery","statename":"GOA","regionname":"Goa-Panaji","circlename":"Maharashtra","divisionname":"Goa","Taluk":"Tiswadi"},{"officename":"Thana B.O","pincode":"403710","officetype":"B.O","deliverystatus":"Non-Delivery","statename":"GOA","regionname":"Goa-Panaji","circlename":"Maharashtra","divisionname":"Goa","Taluk":"Mormugao"},{"officename":"Sancoale B.O","pincode":"403710","officetype":"B.O","deliverystatus":"Delivery","statename":"GOA","regionname":"Goa-Panaji","circlename":"Maharashtra","divisionname":"Goa","Taluk":"Marmugao"},{"officename":"Siridao B.O","pincode":"403108","officetype":"B.O","deliverystatus":"Non-Delivery","statename":"GOA","regionname":"Goa-Panaji","circlename":"Maharashtra","divisionname":"Goa","Taluk":"Tiswadi"},{"officename":"Assagao B.O","pincode":"403507","officetype":"B.O","deliverystatus":"Delivery","statename":"GOA","regionname":"Goa-Panaji","circlename":"Maharashtra","divisionname":"Goa","Taluk":"Bardez"},{"officename":"Bastora B.O","pincode":"403507","officetype":"B.O","deliverystatus":"Non-Delivery","statename":"GOA","regionname":"Goa-Panaji","circlename":"Maharashtra","divisionname":"Goa","Taluk":"Bardez"}]