[{"officename":"Ningthoukhong S.O","pincode":"795011","officetype":"S.O","deliverystatus":"Delivery","statename":"MANIPUR","regionname":"North Eastern","circlename":"North Eastern","divisionname":"Manipur","Taluk":"Ningthoukhong"},{"officename":"New Lamka S.O","pincode":"795006","officetype":"S.O","deliverystatus":"Delivery","statename":"MANIPUR","regionname":"North Eastern","circlename":"North Eastern","divisionname":"Manipur","Taluk":"Churachandpur"},{"officename":"Manipur High Court S.O","pincode":"795001","officetype":"S.O","deliverystatus":"Non-Delivery","statename":"MANIPUR","regionname":"North Eastern","circlename":"North Eastern","divisionname":"Manipur","Taluk":"Imphal West"},{"officename":"Pangei Yangdong S.O","pincode":"795114","officetype":"S.O","deliverystatus":"Delivery","statename":"MANIPUR","regionname":"North Eastern","circlename":"North Eastern","divisionname":"Manipur","Taluk":"Nil"},{"officename":"Gularthol S.O","pincode":"795115","officetype":"S.O","deliverystatus":"Delivery","statename":"MANIPUR","regionname":"North Eastern","circlename":"North Eastern","divisionname":"Manipur","Taluk":"Nil"},{"officename":"Jiribam Bazar S.O","pincode":"795116","officetype":"S.O","deliverystatus":"Delivery","statename":"MANIPUR","regionname":"North Eastern","circlename":"North Eastern","divisionname":"Manipur","Taluk":"Nil"},{"officename":"Saikot S.O","pincode":"795117","officetype":"S.O","deliverystatus":"Delivery","statename":"MANIPUR","regionname":"North Eastern","circlename":"North Eastern","divisionname":"Manipur","Taluk":"Nil"},{"officename":"Saikul S.O","pincode":"795118","officetype":"S.O","deliverystatus":"Delivery","statename":"MANIPUR","regionname":"North Eastern","circlename":"North Eastern","divisionname":"Manipur","Taluk":"Nil"},{"officename":"Kalapahar S.O","pincode":"795122","officetype":"S.O","deliverystatus":"Delivery","statename":"MANIPUR","regionname":"North Eastern","circlename":"North Eastern","divisionname":"Manipur","Taluk":"Nil"},{"officename":"Loktak Project S.O","pincode":"795124","officetype":"S.O","deliverystatus":"Delivery","statename":"MANIPUR","regionname":"North Eastern","circlename":"North Eastern","divisionname":"Manipur","Taluk":"Nil"},{"officename":"Kangpokpi S.O","pincode":"795129","officetype":"S.O","deliverystatus":"Delivery","statename":"MANIPUR","regionname":"North Eastern","circlename":"North Eastern","divisionname":"Manipur","Taluk":"Nil"},{"officename":"Lilong S.O","pincode":"795130","officetype":"S.O","deliverystatus":"Delivery","statename":"MANIPUR","regionname":"North Eastern","circlename":"North Eastern","divisionname":"Manipur","Taluk":"Nil"},{"officename":"Moreh S.O","pincode":"795131","officetype":"S.O","deliverystatus":"Delivery","statename":"MANIPUR","regionname":"North Eastern","circlename":"North Eastern","divisionname":"Manipur","Taluk":"Nil"},{"officename":"Mayang Imphal S.O","pincode":"795132","officetype":"S.O","deliverystatus":"Delivery","statename":"MANIPUR","regionname":"North Eastern","circlename":"North Eastern","divisionname":"Manipur","Taluk":"Nil"},{"officename":"Mao S.O","pincode":"795150","officetype":"S.O","deliverystatus":"Delivery","statename":"MANIPUR","regionname":"North Eastern","circlename":"North Eastern","divisionname":"Manipur","Taluk":"Nil"},{"officename":"Chingkonpang S.O","pincode":"795128","officetype":"S.O","deliverystatus":"Non-Delivery","statename":"MANIPUR","regionname":"North Eastern","circlename":"North Eastern","divisionname":"Manipur","Taluk":"Nil"},{"officename":"None S.O","pincode":"795159","officetype":"S.O","deliverystatus":"Delivery","statename":"MANIPUR","regionname":"North Eastern","circlename":"North Eastern","divisionname":"Manipur","Taluk":"Nil"},{"officename":"Lamsang S.O","pincode":"795146","officetype":"S.O","deliverystatus":"Delivery","statename":"MANIPUR","regionname":"North Eastern","circlename":"North Eastern","divisionname":"Manipur","Taluk":"Nil"},{"officename":"Nungba S.O","pincode":"795147","officetype":"S.O","deliverystatus":"Delivery","statename":"MANIPUR","regionname":"North Eastern","circlename":"North Eastern","divisionname":"Manipur","Taluk":"Nil"},{"officename":"Wangjing S.O","pincode":"795148","officetype":"S.O","deliverystatus":"Delivery","statename":"MANIPUR","regionname":"North Eastern","circlename":"North Eastern","divisionname":"Manipur","Taluk":"Nil"},{"officename":"Yairipok S.O","pincode":"795149","officetype":"S.O","deliverystatus":"Delivery","statename":"MANIPUR","regionname":"North Eastern","circlename":"North Eastern","divisionname":"Manipur","Taluk":"Nil"},{"officename":"Ukhrul S.O","pincode":"795142","officetype":"S.O","deliverystatus":"Delivery","statename":"MANIPUR","regionname":"North Eastern","circlename":"North Eastern","divisionname":"Manipur","Taluk":"Nil"},{"officename":"Somdal S.O","pincode":"795144","officetype":"S.O","deliverystatus":"Delivery","statename":"MANIPUR","regionname":"North Eastern","circlename":"North Eastern","divisionname":"Manipur","Taluk":"Nil"},{"officename":"Litan S.O","pincode":"795145","officetype":"S.O","deliverystatus":"Delivery","statename":"MANIPUR","regionname":"North Eastern","circlename":"North Eastern","divisionname":"Manipur","Taluk":"Nil"},{"officename":"Thoubal S.O","pincode":"795138","officetype":"S.O","deliverystatus":"Delivery","statename":"MANIPUR","regionname":"North Eastern","circlename":"North Eastern","divisionname":"Manipur","Taluk":"Nil"},{"officename":"Singhat S.O","pincode":"795139","officetype":"S.O","deliverystatus":"Delivery","statename":"MANIPUR","regionname":"North Eastern","circlename":"North Eastern","divisionname":"Manipur","Taluk":"Nil"},{"officename":"Tulihal S.O","pincode":"795140","officetype":"S.O","deliverystatus":"Delivery","statename":"MANIPUR","regionname":"North Eastern","circlename":"North Eastern","divisionname":"Manipur","Taluk":"Nil"},{"officename":"Tamenglong S.O","pincode":"795141","officetype":"S.O","deliverystatus":"Delivery","statename":"MANIPUR","regionname":"North Eastern","circlename":"North Eastern","divisionname":"Manipur","Taluk":"Nil"},{"officename":"Moirang S.O","pincode":"795133","officetype":"S.O","deliverystatus":"Delivery","statename":"MANIPUR","regionname":"North Eastern","circlename":"North Eastern","divisionname":"Manipur","Taluk":"Nil"},{"officename":"Nambol S.O","pincode":"795134","officetype":"S.O","deliverystatus":"Delivery","statename":"MANIPUR","regionname":"North Eastern","circlename":"North Eastern","divisionname":"Manipur","Taluk":"Nil"},{"officename":"Pallel S.O","pincode":"795135","officetype":"S.O","deliverystatus":"Delivery","statename":"MANIPUR","regionname":"North Eastern","circlename":"North Eastern","divisionname":"Manipur","Taluk":"Nil"},{"officename":"Sekmai S.O","pincode":"795136","officetype":"S.O","deliverystatus":"Delivery","statename":"MANIPUR","regionname":"North Eastern","circlename":"North Eastern","divisionname":"Manipur","Taluk":"Nil"},{"officename":"D.M College S.O","pincode":"795001","officetype":"S.O","deliverystatus":"Non-Delivery","statename":"MANIPUR","regionname":"North Eastern","circlename":"North Eastern","divisionname":"Manipur","Taluk":"Nil"},{"officename":"Imphal Bazar S.O","pincode":"795001","officetype":"S.O","deliverystatus":"Non-Delivery","statename":"MANIPUR","regionname":"North Eastern","circlename":"North Eastern","divisionname":"Manipur","Taluk":"Nil"},{"officename":"Mantripukhri S.O","pincode":"795002","officetype":"S.O","deliverystatus":"Delivery","statename":"MANIPUR","regionname":"North Eastern","circlename":"North Eastern","divisionname":"Manipur","Taluk":"Nil"},{"officename":"Bishnupur S.O (Bishnupur)","pincode":"795126","officetype":"S.O","deliverystatus":"Delivery","statename":"MANIPUR","regionname":"North Eastern","circlename":"North Eastern","divisionname":"Manipur","Taluk":"Nil"},{"officename":"Lamphelpat S.O","pincode":"795004","officetype":"S.O","deliverystatus":"Delivery","statename":"MANIPUR","regionname":"North Eastern","circlename":"North Eastern","divisionname":"Manipur","Taluk":"Nil"},{"officename":"Manipur University S.O","pincode":"795003","officetype":"S.O","deliverystatus":"Delivery","statename":"MANIPUR","regionname":"North Eastern","circlename":"North Eastern","divisionname":"Manipur","Taluk":"Nil"},{"officename":"Porompat S.O","pincode":"795005","officetype":"S.O","deliverystatus":"Delivery","statename":"MANIPUR","regionname":"North Eastern","circlename":"North Eastern","divisionname":"Manipur","Taluk":"Nil"},{"officename":"Tamei S.O","pincode":"795125","officetype":"S.O","deliverystatus":"Delivery","statename":"MANIPUR","regionname":"North Eastern","circlename":"North Eastern","divisionname":"Manipur","Taluk":"Nil"},{"officename":"Chandel S.O","pincode":"795127","officetype":"S.O","deliverystatus":"Delivery","statename":"MANIPUR","regionname":"North Eastern","circlename":"North Eastern","divisionname":"Manipur","Taluk":"Nil"},{"officename":"Churachandpur S.O","pincode":"795128","officetype":"S.O","deliverystatus":"Delivery","statename":"MANIPUR","regionname":"North Eastern","circlename":"North Eastern","divisionname":"Manipur","Taluk":"Nil"},{"officename":"Kakching S.O","pincode":"795103","officetype":"S.O","deliverystatus":"Delivery","statename":"MANIPUR","regionname":"North Eastern","circlename":"North Eastern","divisionname":"Manipur","Taluk":"Nil"},{"officename":"Karong S.O","pincode":"795007","officetype":"S.O","deliverystatus":"Delivery","statename":"MANIPUR","regionname":"North Eastern","circlename":"North Eastern","divisionname":"Manipur","Taluk":"Nil"},{"officename":"Singjamei S.O","pincode":"795008","officetype":"S.O","deliverystatus":"Delivery","statename":"MANIPUR","regionname":"North Eastern","circlename":"North Eastern","divisionname":"Manipur","Taluk":"Nil"},{"officename":"Wangoi S.O","pincode":"795009","officetype":"S.O","deliverystatus":"Delivery","statename":"MANIPUR","regionname":"North Eastern","circlename":"North Eastern","divisionname":"Manipur","Taluk":"Nil"},{"officename":"Lamlong S.O","pincode":"795010","officetype":"S.O","deliverystatus":"Delivery","statename":"MANIPUR","regionname":"North Eastern","circlename":"North Eastern","divisionname":"Manipur","Taluk":"Nil"},{"officename":"Sugnu S.O","pincode":"795101","officetype":"S.O","deliverystatus":"Delivery","statename":"MANIPUR","regionname":"North Eastern","circlename":"North Eastern","divisionname":"Manipur","Taluk":"Nil"},{"officename":"Chakpikarong S.O","pincode":"795102","officetype":"S.O","deliverystatus":"Delivery","statename":"MANIPUR","regionname":"North Eastern","circlename":"North Eastern","divisionname":"Manipur","Taluk":"Nil"},{"officename":"Tadubi S.O","pincode":"795104","officetype":"S.O","deliverystatus":"Delivery","statename":"MANIPUR","regionname":"North Eastern","circlename":"North Eastern","divisionname":"Manipur","Taluk":"Nil"},{"officename":"Maram S.O","pincode":"795105","officetype":"S.O","deliverystatus":"Delivery","statename":"MANIPUR","regionname":"North Eastern","circlename":"North Eastern","divisionname":"Manipur","Taluk":"Maram"},{"officename":"Senapati S.O","pincode":"795106","officetype":"S.O","deliverystatus":"Delivery","statename":"MANIPUR","regionname":"North Eastern","circlename":"North Eastern","divisionname":"Manipur","Taluk":"Nil"},{"officename":"Motbung S.O","pincode":"795107","officetype":"S.O","deliverystatus":"Delivery","statename":"MANIPUR","regionname":"North Eastern","circlename":"North Eastern","divisionname":"Manipur","Taluk":"Nil"},{"officename":"T Waichong S.O","pincode":"795112","officetype":"S.O","deliverystatus":"Delivery","statename":"MANIPUR","regionname":"North Eastern","circlename":"North Eastern","divisionname":"Manipur","Taluk":"Nil"},{"officename":"CRPF Camp Langjing S.O","pincode":"795113","officetype":"S.O","deliverystatus":"Delivery","statename":"MANIPUR","regionname":"North Eastern","circlename":"North Eastern","divisionname":"Manipur","Taluk":"Nil"},{"officename":"Imphal H.O","pincode":"795001","officetype":"H.O","deliverystatus":"Delivery","statename":"MANIPUR","regionname":"North Eastern","circlename":"North Eastern","divisionname":"Manipur","Taluk":"Nil"},{"officename":"M.Songel B.O","pincode":"795128","officetype":"B.O","deliverystatus":"Delivery","statename":"MANIPUR","regionname":"North Eastern","circlename":"North Eastern","divisionname":"Manipur","Taluk":"M Songel"},{"officename":"Kamkeilon B.O","pincode":"795128","officetype":"B.O","deliverystatus":"Delivery","statename":"MANIPUR","regionname":"North Eastern","circlename":"North Eastern","divisionname":"Manipur","Taluk":"M Songel"},{"officename":"M Songel B.O","pincode":"795128","officetype":"B.O","deliverystatus":"Delivery","statename":"MANIPUR","regionname":"North Eastern","circlename":"North Eastern","divisionname":"Manipur","Taluk":"M Songel"},{"officename":"Nungkao B.O","pincode":"795115","officetype":"B.O","deliverystatus":"Delivery","statename":"MANIPUR","regionname":"North Eastern","circlename":"North Eastern","divisionname":"Manipur","Taluk":"Gulathol"},{"officename":"Khenjoi B.O","pincode":"795131","officetype":"B.O","deliverystatus":"Delivery","statename":"MANIPUR","regionname":"North Eastern","circlename":"North Eastern","divisionname":"Manipur","Taluk":"Moreh"},{"officename":"Hayel Hangoon B.O","pincode":"795132","officetype":"B.O","deliverystatus":"Delivery","statename":"MANIPUR","regionname":"North Eastern","circlename":"North Eastern","divisionname":"Manipur","Taluk":"Mayang Imphal"},{"officename":"Ningthounai B.O","pincode":"795149","officetype":"B.O","deliverystatus":"Delivery","statename":"MANIPUR","regionname":"North Eastern","circlename":"North Eastern","divisionname":"Manipur","Taluk":"Yairipok"},{"officename":"Theiyong B.O","pincode":"795149","officetype":"B.O","deliverystatus":"Delivery","statename":"MANIPUR","regionname":"North Eastern","circlename":"North Eastern","divisionname":"Manipur","Taluk":"Yairipok"},{"officename":"Kamkeilon B.O B.O","pincode":"795128","officetype":"B.O","deliverystatus":"Delivery","statename":"MANIPUR","regionname":"North Eastern","circlename":"North Eastern","divisionname":"Manipur","Taluk":"Kamkeilon"},{"officename":"Thanlon B.O","pincode":"795006","officetype":"B.O","deliverystatus":"Delivery","statename":"MANIPUR","regionname":"North Eastern","circlename":"North Eastern","divisionname":"Manipur","Taluk":"New Lamka"},{"officename":"Geljang B.O","pincode":"795006","officetype":"B.O","deliverystatus":"Delivery","statename":"MANIPUR","regionname":"North Eastern","circlename":"North Eastern","divisionname":"Manipur","Taluk":"Churachandpur"},{"officename":"Kwanpui B.O","pincode":"795006","officetype":"B.O","deliverystatus":"Delivery","statename":"MANIPUR","regionname":"North Eastern","circlename":"North Eastern","divisionname":"Manipur","Taluk":"Churachandpur"},{"officename":"Mission Compound B.O","pincode":"795006","officetype":"B.O","deliverystatus":"Delivery","statename":"MANIPUR","regionname":"North Eastern","circlename":"North Eastern","divisionname":"Manipur","Taluk":"Churachandpur"},{"officename":"Takvom B.O","pincode":"795006","officetype":"B.O","deliverystatus":"Delivery","statename":"MANIPUR","regionname":"North Eastern","circlename":"North Eastern","divisionname":"Manipur","Taluk":"Churachandpur"},{"officename":"Farmland B.O B.O","pincode":"795141","officetype":"B.O","deliverystatus":"Delivery","statename":"MANIPUR","regionname":"North Eastern","circlename":"North Eastern","divisionname":"Manipur","Taluk":"Tamenglong"},{"officename":"Langathel B.O B.O","pincode":"795148","officetype":"B.O","deliverystatus":"Delivery","statename":"MANIPUR","regionname":"North Eastern","circlename":"North Eastern","divisionname":"Manipur","Taluk":"Wangjing S.O"},{"officename":"Semol B.O","pincode":"795101","officetype":"B.O","deliverystatus":"Delivery","statename":"MANIPUR","regionname":"North Eastern","circlename":"North Eastern","divisionname":"Manipur","Taluk":"Thoubal"},{"officename":"Aigejang B.O","pincode":"795101","officetype":"B.O","deliverystatus":"Delivery","statename":"MANIPUR","regionname":"North Eastern","circlename":"North Eastern","divisionname":"Manipur","Taluk":"Nil"},{"officename":"Bungmual B.O","pincode":"795006","officetype":"B.O","deliverystatus":"Delivery","statename":"MANIPUR","regionname":"North Eastern","circlename":"North Eastern","divisionname":"Manipur","Taluk":"Churachandpur"},{"officename":"Haotak Khullen B.O","pincode":"795011","officetype":"B.O","deliverystatus":"Delivery","statename":"MANIPUR","regionname":"North Eastern","circlename":"North Eastern","divisionname":"Manipur","Taluk":"Ningthoukhong"},{"officename":"Lingshiphai B.O","pincode":"795006","officetype":"B.O","deliverystatus":"Delivery","statename":"MANIPUR","regionname":"North Eastern","circlename":"North Eastern","divisionname":"Manipur","Taluk":"Churachandpur"},{"officename":"Mualkoi B.O","pincode":"795006","officetype":"B.O","deliverystatus":"Delivery","statename":"MANIPUR","regionname":"North Eastern","circlename":"North Eastern","divisionname":"Manipur","Taluk":"Churachandpur"},{"officename":"Panglian B.O","pincode":"795006","officetype":"B.O","deliverystatus":"Delivery","statename":"MANIPUR","regionname":"North Eastern","circlename":"North Eastern","divisionname":"Manipur","Taluk":"Churachandpur"},{"officename":"Pearsonmun B.O","pincode":"795006","officetype":"B.O","deliverystatus":"Delivery","statename":"MANIPUR","regionname":"North Eastern","circlename":"North Eastern","divisionname":"Manipur","Taluk":"Churachandpur"},{"officename":"Naransena B.O","pincode":"795011","officetype":"B.O","deliverystatus":"Delivery","statename":"MANIPUR","regionname":"North Eastern","circlename":"North Eastern","divisionname":"Manipur","Taluk":"Ningthoukhong"},{"officename":"Phubala B.O","pincode":"795011","officetype":"B.O","deliverystatus":"Delivery","statename":"MANIPUR","regionname":"North Eastern","circlename":"North Eastern","divisionname":"Manipur","Taluk":"Ningthoukhong"},{"officename":"Potsangbam B.O","pincode":"795011","officetype":"B.O","deliverystatus":"Delivery","statename":"MANIPUR","regionname":"North Eastern","circlename":"North Eastern","divisionname":"Manipur","Taluk":"Ningthoukhong"},{"officename":"Thinungei B.O","pincode":"795011","officetype":"B.O","deliverystatus":"Delivery","statename":"MANIPUR","regionname":"North Eastern","circlename":"North Eastern","divisionname":"Manipur","Taluk":"Ningthoukhong"},{"officename":"Sehao B.O","pincode":"795101","officetype":"B.O","deliverystatus":"Delivery","statename":"MANIPUR","regionname":"North Eastern","circlename":"North Eastern","divisionname":"Manipur","Taluk":"Nil"},{"officename":"Zoupi B.O","pincode":"795101","officetype":"B.O","deliverystatus":"Delivery","statename":"MANIPUR","regionname":"North Eastern","circlename":"North Eastern","divisionname":"Manipur","Taluk":"Nil"},{"officename":"Khoupum B.O","pincode":"795126","officetype":"B.O","deliverystatus":"Delivery","statename":"MANIPUR","regionname":"North Eastern","circlename":"North Eastern","divisionname":"Manipur","Taluk":"Nil"},{"officename":"Zenhang Lamka B.O","pincode":"795128","officetype":"B.O","deliverystatus":"Delivery","statename":"MANIPUR","regionname":"North Eastern","circlename":"North Eastern","divisionname":"Manipur","Taluk":"Nil"},{"officename":"Khongsang B.O","pincode":"795147","officetype":"B.O","deliverystatus":"Delivery","statename":"MANIPUR","regionname":"North Eastern","circlename":"North Eastern","divisionname":"Manipur","Taluk":"Nil"},{"officename":"LembaKhul B.O","pincode":"795149","officetype":"B.O","deliverystatus":"Delivery","statename":"MANIPUR","regionname":"North Eastern","circlename":"North Eastern","divisionname":"Manipur","Taluk":"Nil"},{"officename":"Nungnang B.O","pincode":"795159","officetype":"B.O","deliverystatus":"Delivery","statename":"MANIPUR","regionname":"North Eastern","circlename":"North Eastern","divisionname":"Manipur","Taluk":"None S.O"},{"officename":"Dolang Khunou B.O","pincode":"795126","officetype":"B.O","deliverystatus":"Delivery","statename":"MANIPUR","regionname":"North Eastern","circlename":"North Eastern","divisionname":"Manipur","Taluk":"Nil"},{"officename":"Khongbung B.O","pincode":"795126","officetype":"B.O","deliverystatus":"Delivery","statename":"MANIPUR","regionname":"North Eastern","circlename":"North Eastern","divisionname":"Manipur","Taluk":"Nil"},{"officename":"Khoijuman B.O","pincode":"795126","officetype":"B.O","deliverystatus":"Delivery","statename":"MANIPUR","regionname":"North Eastern","circlename":"North Eastern","divisionname":"Manipur","Taluk":"Nil"},{"officename":"Lamdangmei B.O","pincode":"795126","officetype":"B.O","deliverystatus":"Delivery","statename":"MANIPUR","regionname":"North Eastern","circlename":"North Eastern","divisionname":"Manipur","Taluk":"Nil"},{"officename":"Ngaikhong Khullen B.O","pincode":"795126","officetype":"B.O","deliverystatus":"Delivery","statename":"MANIPUR","regionname":"North Eastern","circlename":"North Eastern","divisionname":"Manipur","Taluk":"Nil"},{"officename":"Ngarian B.O","pincode":"795126","officetype":"B.O","deliverystatus":"Delivery","statename":"MANIPUR","regionname":"North Eastern","circlename":"North Eastern","divisionname":"Manipur","Taluk":"Nil"},{"officename":"Ningthoukhong B.O","pincode":"795126","officetype":"B.O","deliverystatus":"Delivery","statename":"MANIPUR","regionname":"North Eastern","circlename":"North Eastern","divisionname":"Manipur","Taluk":"Nil"},{"officename":"Nungsai Chiru B.O","pincode":"795126","officetype":"B.O","deliverystatus":"Delivery","statename":"MANIPUR","regionname":"North Eastern","circlename":"North Eastern","divisionname":"Manipur","Taluk":"Nil"},{"officename":"Thangal B.O","pincode":"795126","officetype":"B.O","deliverystatus":"Delivery","statename":"MANIPUR","regionname":"North Eastern","circlename":"North Eastern","divisionname":"Manipur","Taluk":"Nil"},{"officename":"Toubul B.O","pincode":"795126","officetype":"B.O","deliverystatus":"Delivery","statename":"MANIPUR","regionname":"North Eastern","circlename":"North Eastern","divisionname":"Manipur","Taluk":"Nil"},{"officename":"Zouzangtek B.O","pincode":"795126","officetype":"B.O","deliverystatus":"Delivery","statename":"MANIPUR","regionname":"North Eastern","circlename":"North Eastern","divisionname":"Manipur","Taluk":"Nil"},{"officename":"Khunpi Naosem B.O","pincode":"795126","officetype":"B.O","deliverystatus":"Delivery","statename":"MANIPUR","regionname":"North Eastern","circlename":"North Eastern","divisionname":"Manipur","Taluk":"Nil"},{"officename":"Haorang Kairel B.O","pincode":"795113","officetype":"B.O","deliverystatus":"Delivery","statename":"MANIPUR","regionname":"North Eastern","circlename":"North Eastern","divisionname":"Manipur","Taluk":"Nil"},{"officename":"Lailong B.O","pincode":"795128","officetype":"B.O","deliverystatus":"Delivery","statename":"MANIPUR","regionname":"North Eastern","circlename":"North Eastern","divisionname":"Manipur","Taluk":"Nil"},{"officename":"Tokpaching B.O","pincode":"795103","officetype":"B.O","deliverystatus":"Delivery","statename":"MANIPUR","regionname":"North Eastern","circlename":"North Eastern","divisionname":"Manipur","Taluk":"Nil"},{"officename":"Arong B.O","pincode":"795132","officetype":"B.O","deliverystatus":"Delivery","statename":"MANIPUR","regionname":"North Eastern","circlename":"North Eastern","divisionname":"Manipur","Taluk":"Nil"},{"officename":"Khamnam Bazar B.O","pincode":"795113","officetype":"B.O","deliverystatus":"Delivery","statename":"MANIPUR","regionname":"North Eastern","circlename":"North Eastern","divisionname":"Manipur","Taluk":"Nil"},{"officename":"New Keithelmanbi B.O","pincode":"795113","officetype":"B.O","deliverystatus":"Delivery","statename":"MANIPUR","regionname":"North Eastern","circlename":"North Eastern","divisionname":"Manipur","Taluk":"Nil"},{"officename":"Kanglatombi B.O","pincode":"795136","officetype":"B.O","deliverystatus":"Delivery","statename":"MANIPUR","regionname":"North Eastern","circlename":"North Eastern","divisionname":"Manipur","Taluk":"Sekmai"},{"officename":"Lungshung B.O","pincode":"795128","officetype":"B.O","deliverystatus":"Delivery","statename":"MANIPUR","regionname":"North Eastern","circlename":"North Eastern","divisionname":"Manipur","Taluk":"Nil"},{"officename":"Lungsai B.O","pincode":"795128","officetype":"B.O","deliverystatus":"Delivery","statename":"MANIPUR","regionname":"North Eastern","circlename":"North Eastern","divisionname":"Manipur","Taluk":"Nil"},{"officename":"Mission Compound B.O","pincode":"795128","officetype":"B.O","deliverystatus":"Delivery","statename":"MANIPUR","regionname":"North Eastern","circlename":"North Eastern","divisionname":"Manipur","Taluk":"Nil"},{"officename":"Munpi B.O","pincode":"795128","officetype":"B.O","deliverystatus":"Delivery","statename":"MANIPUR","regionname":"North Eastern","circlename":"North Eastern","divisionname":"Manipur","Taluk":"Nil"},{"officename":"Phaipheng B.O","pincode":"795128","officetype":"B.O","deliverystatus":"Delivery","statename":"MANIPUR","regionname":"North Eastern","circlename":"North Eastern","divisionname":"Manipur","Taluk":"Nil"},{"officename":"Saiden B.O","pincode":"795128","officetype":"B.O","deliverystatus":"Delivery","statename":"MANIPUR","regionname":"North Eastern","circlename":"North Eastern","divisionname":"Manipur","Taluk":"Nil"},{"officename":"Saikhul Village B.O","pincode":"795128","officetype":"B.O","deliverystatus":"Delivery","statename":"MANIPUR","regionname":"North Eastern","circlename":"North Eastern","divisionname":"Manipur","Taluk":"Nil"},{"officename":"Santing B.O","pincode":"795128","officetype":"B.O","deliverystatus":"Delivery","statename":"MANIPUR","regionname":"North Eastern","circlename":"North Eastern","divisionname":"Manipur","Taluk":"Nil"},{"officename":"Sielmet B.O","pincode":"795128","officetype":"B.O","deliverystatus":"Delivery","statename":"MANIPUR","regionname":"North Eastern","circlename":"North Eastern","divisionname":"Manipur","Taluk":"Nil"},{"officename":"Sangphou B.O","pincode":"795128","officetype":"B.O","deliverystatus":"Delivery","statename":"MANIPUR","regionname":"North Eastern","circlename":"North Eastern","divisionname":"Manipur","Taluk":"Nil"},{"officename":"South Kotlein B.O","pincode":"795128","officetype":"B.O","deliverystatus":"Delivery","statename":"MANIPUR","regionname":"North Eastern","circlename":"North Eastern","divisionname":"Manipur","Taluk":"Nil"},{"officename":"Takvom B.O","pincode":"795128","officetype":"B.O","deliverystatus":"Delivery","statename":"MANIPUR","regionname":"North Eastern","circlename":"North Eastern","divisionname":"Manipur","Taluk":"Churachandpur"},{"officename":"Teiyong B.O","pincode":"795128","officetype":"B.O","deliverystatus":"Delivery","statename":"MANIPUR","regionname":"North Eastern","circlename":"North Eastern","divisionname":"Manipur","Taluk":"Nil"},{"officename":"Thangshi B.O","pincode":"795128","officetype":"B.O","deliverystatus":"Delivery","statename":"MANIPUR","regionname":"North Eastern","circlename":"North Eastern","divisionname":"Manipur","Taluk":"Nil"},{"officename":"Thinkew B.O","pincode":"795128","officetype":"B.O","deliverystatus":"Delivery","statename":"MANIPUR","regionname":"North Eastern","circlename":"North Eastern","divisionname":"Manipur","Taluk":"Nil"},{"officename":"Tolphei B.O","pincode":"795128","officetype":"B.O","deliverystatus":"Delivery","statename":"MANIPUR","regionname":"North Eastern","circlename":"North Eastern","divisionname":"Manipur","Taluk":"Nil"},{"officename":"Tollen B.O","pincode":"795128","officetype":"B.O","deliverystatus":"Delivery","statename":"MANIPUR","regionname":"North Eastern","circlename":"North Eastern","divisionname":"Manipur","Taluk":"Nil"},{"officename":"Chehjang B.O","pincode":"795128","officetype":"B.O","deliverystatus":"Delivery","statename":"MANIPUR","regionname":"North Eastern","circlename":"North Eastern","divisionname":"Manipur","Taluk":"Nil"},{"officename":"Chothemunpi B.O","pincode":"795128","officetype":"B.O","deliverystatus":"Delivery","statename":"MANIPUR","regionname":"North Eastern","circlename":"North Eastern","divisionname":"Manipur","Taluk":"Nil"},{"officename":"Geljang B.O","pincode":"795128","officetype":"B.O","deliverystatus":"Delivery","statename":"MANIPUR","regionname":"North Eastern","circlename":"North Eastern","divisionname":"Manipur","Taluk":"Churachandpur"},{"officename":"Henglep B.O","pincode":"795128","officetype":"B.O","deliverystatus":"Delivery","statename":"MANIPUR","regionname":"North Eastern","circlename":"North Eastern","divisionname":"Manipur","Taluk":"Nil"},{"officename":"Hamkeilon B.O","pincode":"795128","officetype":"B.O","deliverystatus":"Delivery","statename":"MANIPUR","regionname":"North Eastern","circlename":"North Eastern","divisionname":"Manipur","Taluk":"Nil"},{"officename":"Kangvai Bazar B.O","pincode":"795128","officetype":"B.O","deliverystatus":"Delivery","statename":"MANIPUR","regionname":"North Eastern","circlename":"North Eastern","divisionname":"Manipur","Taluk":"Nil"},{"officename":"Kwanpui B.O","pincode":"795128","officetype":"B.O","deliverystatus":"Delivery","statename":"MANIPUR","regionname":"North Eastern","circlename":"North Eastern","divisionname":"Manipur","Taluk":"Nil"},{"officename":"Khanpi B.O","pincode":"795128","officetype":"B.O","deliverystatus":"Delivery","statename":"MANIPUR","regionname":"North Eastern","circlename":"North Eastern","divisionname":"Manipur","Taluk":"Nil"},{"officename":"Kolhen B.O","pincode":"795128","officetype":"B.O","deliverystatus":"Delivery","statename":"MANIPUR","regionname":"North Eastern","circlename":"North Eastern","divisionname":"Manipur","Taluk":"Nil"},{"officename":"Kumbipukhri B.O","pincode":"795128","officetype":"B.O","deliverystatus":"Delivery","statename":"MANIPUR","regionname":"North Eastern","circlename":"North Eastern","divisionname":"Manipur","Taluk":"Nil"},{"officename":"Takhel B.O","pincode":"795005","officetype":"B.O","deliverystatus":"Delivery","statename":"MANIPUR","regionname":"North Eastern","circlename":"North Eastern","divisionname":"Manipur","Taluk":"Nil"},{"officename":"Huime B.O","pincode":"795144","officetype":"B.O","deliverystatus":"Delivery","statename":"MANIPUR","regionname":"North Eastern","circlename":"North Eastern","divisionname":"Manipur","Taluk":"Nil"},{"officename":"Kachai B.O","pincode":"795144","officetype":"B.O","deliverystatus":"Delivery","statename":"MANIPUR","regionname":"North Eastern","circlename":"North Eastern","divisionname":"Manipur","Taluk":"Somdal"},{"officename":"Khongdei Simphung B.O","pincode":"795105","officetype":"B.O","deliverystatus":"Delivery","statename":"MANIPUR","regionname":"North Eastern","circlename":"North Eastern","divisionname":"Manipur","Taluk":"Maram"},{"officename":"Ngari Khullen B.O","pincode":"795105","officetype":"B.O","deliverystatus":"Delivery","statename":"MANIPUR","regionname":"North Eastern","circlename":"North Eastern","divisionname":"Manipur","Taluk":"Maram"},{"officename":"Phadang B.O","pincode":"795144","officetype":"B.O","deliverystatus":"Delivery","statename":"MANIPUR","regionname":"North Eastern","circlename":"North Eastern","divisionname":"Manipur","Taluk":"Nil"},{"officename":"Thiwa B.O","pincode":"795144","officetype":"B.O","deliverystatus":"Delivery","statename":"MANIPUR","regionname":"North Eastern","circlename":"North Eastern","divisionname":"Manipur","Taluk":"Nil"},{"officename":"Awang Leikinthabi B.O","pincode":"795136","officetype":"B.O","deliverystatus":"Delivery","statename":"MANIPUR","regionname":"North Eastern","circlename":"North Eastern","divisionname":"Manipur","Taluk":"Nil"},{"officename":"Ch. Khongnangpokpi B.O","pincode":"795136","officetype":"B.O","deliverystatus":"Delivery","statename":"MANIPUR","regionname":"North Eastern","circlename":"North Eastern","divisionname":"Manipur","Taluk":"Nil"},{"officename":"Phousabung B.O","pincode":"795133","officetype":"B.O","deliverystatus":"Delivery","statename":"MANIPUR","regionname":"North Eastern","circlename":"North Eastern","divisionname":"Manipur","Taluk":"Nil"},{"officename":"Thanga Karang B.O","pincode":"795133","officetype":"B.O","deliverystatus":"Delivery","statename":"MANIPUR","regionname":"North Eastern","circlename":"North Eastern","divisionname":"Manipur","Taluk":"Nil"},{"officename":"Waikhong B.O","pincode":"795103","officetype":"B.O","deliverystatus":"Delivery","statename":"MANIPUR","regionname":"North Eastern","circlename":"North Eastern","divisionname":"Manipur","Taluk":"Nil"},{"officename":"Wangoo Laipham B.O","pincode":"795103","officetype":"B.O","deliverystatus":"Delivery","statename":"MANIPUR","regionname":"North Eastern","circlename":"North Eastern","divisionname":"Manipur","Taluk":"Nil"},{"officename":"Wabagai B.O","pincode":"795103","officetype":"B.O","deliverystatus":"Delivery","statename":"MANIPUR","regionname":"North Eastern","circlename":"North Eastern","divisionname":"Manipur","Taluk":"Nil"},{"officename":"Sora B.O","pincode":"795103","officetype":"B.O","deliverystatus":"Delivery","statename":"MANIPUR","regionname":"North Eastern","circlename":"North Eastern","divisionname":"Manipur","Taluk":"Nil"},{"officename":"Chandraman B.O","pincode":"795122","officetype":"B.O","deliverystatus":"Delivery","statename":"MANIPUR","regionname":"North Eastern","circlename":"North Eastern","divisionname":"Manipur","Taluk":"Nil"},{"officename":"Keithelmanbi B.O","pincode":"795122","officetype":"B.O","deliverystatus":"Delivery","statename":"MANIPUR","regionname":"North Eastern","circlename":"North Eastern","divisionname":"Manipur","Taluk":"Nil"},{"officename":"Kheljang B.O","pincode":"795122","officetype":"B.O","deliverystatus":"Delivery","statename":"MANIPUR","regionname":"North Eastern","circlename":"North Eastern","divisionname":"Manipur","Taluk":"Kalapahar"},{"officename":"Haipi B.O","pincode":"795122","officetype":"B.O","deliverystatus":"Delivery","statename":"MANIPUR","regionname":"North Eastern","circlename":"North Eastern","divisionname":"Manipur","Taluk":"Nil"},{"officename":"Persian B.O","pincode":"795122","officetype":"B.O","deliverystatus":"Delivery","statename":"MANIPUR","regionname":"North Eastern","circlename":"North Eastern","divisionname":"Manipur","Taluk":"Nil"},{"officename":"Thanamba B.O","pincode":"795122","officetype":"B.O","deliverystatus":"Delivery","statename":"MANIPUR","regionname":"North Eastern","circlename":"North Eastern","divisionname":"Manipur","Taluk":"Nil"},{"officename":"Tokpa B.O","pincode":"795122","officetype":"B.O","deliverystatus":"Delivery","statename":"MANIPUR","regionname":"North Eastern","circlename":"North Eastern","divisionname":"Manipur","Taluk":"Nil"},{"officename":"Oinam Hills B.O","pincode":"795007","officetype":"B.O","deliverystatus":"Delivery","statename":"MANIPUR","regionname":"North Eastern","circlename":"North Eastern","divisionname":"Manipur","Taluk":"Karong"},{"officename":"Rajamei B.O","pincode":"795007","officetype":"B.O","deliverystatus":"Delivery","statename":"MANIPUR","regionname":"North Eastern","circlename":"North Eastern","divisionname":"Manipur","Taluk":"Nil"},{"officename":"Lairouching B.O","pincode":"795007","officetype":"B.O","deliverystatus":"Delivery","statename":"MANIPUR","regionname":"North Eastern","circlename":"North Eastern","divisionname":"Manipur","Taluk":"Nil"},{"officename":"Thingba Khullen B.O","pincode":"795007","officetype":"B.O","deliverystatus":"Delivery","statename":"MANIPUR","regionname":"North Eastern","circlename":"North Eastern","divisionname":"Manipur","Taluk":"Nil"},{"officename":"Thingba Khunou B.O","pincode":"795007","officetype":"B.O","deliverystatus":"Delivery","statename":"MANIPUR","regionname":"North Eastern","circlename":"North Eastern","divisionname":"Manipur","Taluk":"Nil"},{"officename":"Willong B.O","pincode":"795007","officetype":"B.O","deliverystatus":"Delivery","statename":"MANIPUR","regionname":"North Eastern","circlename":"North Eastern","divisionname":"Manipur","Taluk":"Karong"},{"officename":"Yangkhullen B.O","pincode":"795007","officetype":"B.O","deliverystatus":"Delivery","statename":"MANIPUR","regionname":"North Eastern","circlename":"North Eastern","divisionname":"Manipur","Taluk":"Nil"},{"officename":"Iroisemba B.O","pincode":"795004","officetype":"B.O","deliverystatus":"Delivery","statename":"MANIPUR","regionname":"North Eastern","circlename":"North Eastern","divisionname":"Manipur","Taluk":"Lamkhelpat"},{"officename":"Langol Housing Complex B.O","pincode":"795004","officetype":"B.O","deliverystatus":"Delivery","statename":"MANIPUR","regionname":"North Eastern","circlename":"North Eastern","divisionname":"Manipur","Taluk":"Nil"},{"officename":"Wangoo Tera B.O","pincode":"795133","officetype":"B.O","deliverystatus":"Delivery","statename":"MANIPUR","regionname":"North Eastern","circlename":"North Eastern","divisionname":"Manipur","Taluk":"Nil"},{"officename":"J Phaijang B.O","pincode":"795107","officetype":"B.O","deliverystatus":"Delivery","statename":"MANIPUR","regionname":"North Eastern","circlename":"North Eastern","divisionname":"Manipur","Taluk":"Nil"},{"officename":"Nurathel B.O","pincode":"795107","officetype":"B.O","deliverystatus":"Delivery","statename":"MANIPUR","regionname":"North Eastern","circlename":"North Eastern","divisionname":"Manipur","Taluk":"Nil"},{"officename":"S.Bolkot B.O","pincode":"795107","officetype":"B.O","deliverystatus":"Delivery","statename":"MANIPUR","regionname":"North Eastern","circlename":"North Eastern","divisionname":"Manipur","Taluk":"Nil"},{"officename":"Lamboi Khongngangkhong B.O","pincode":"795004","officetype":"B.O","deliverystatus":"Delivery","statename":"MANIPUR","regionname":"North Eastern","circlename":"North Eastern","divisionname":"Manipur","Taluk":"Lamkhelpat"},{"officename":"Awangpotsangbam B.O","pincode":"795002","officetype":"B.O","deliverystatus":"Delivery","statename":"MANIPUR","regionname":"North Eastern","circlename":"North Eastern","divisionname":"Manipur","Taluk":"Mantripukhri"},{"officename":"Sekmaijin  Khunou Konuma B.O","pincode":"795132","officetype":"B.O","deliverystatus":"Delivery","statename":"MANIPUR","regionname":"North Eastern","circlename":"North Eastern","divisionname":"Manipur","Taluk":"Nil"},{"officename":"Uchiwa B.O","pincode":"795132","officetype":"B.O","deliverystatus":"Delivery","statename":"MANIPUR","regionname":"North Eastern","circlename":"North Eastern","divisionname":"Manipur","Taluk":"Nil"},{"officename":"Uchiwa Wangban B.O","pincode":"795132","officetype":"B.O","deliverystatus":"Delivery","statename":"MANIPUR","regionname":"North Eastern","circlename":"North Eastern","divisionname":"Manipur","Taluk":"Nil"},{"officename":"Sekmaijin Khunou Litan Makhong B.O","pincode":"795132","officetype":"B.O","deliverystatus":"Delivery","statename":"MANIPUR","regionname":"North Eastern","circlename":"North Eastern","divisionname":"Manipur","Taluk":"Nil"},{"officename":"Boroyangbi B.O","pincode":"795133","officetype":"B.O","deliverystatus":"Delivery","statename":"MANIPUR","regionname":"North Eastern","circlename":"North Eastern","divisionname":"Manipur","Taluk":"Nil"},{"officename":"Bunglon B.O","pincode":"795133","officetype":"B.O","deliverystatus":"Delivery","statename":"MANIPUR","regionname":"North Eastern","circlename":"North Eastern","divisionname":"Manipur","Taluk":"Nil"},{"officename":"Dopkon B.O","pincode":"795133","officetype":"B.O","deliverystatus":"Delivery","statename":"MANIPUR","regionname":"North Eastern","circlename":"North Eastern","divisionname":"Manipur","Taluk":"Nil"},{"officename":"Gelman (G.Gothal) B.O","pincode":"795133","officetype":"B.O","deliverystatus":"Delivery","statename":"MANIPUR","regionname":"North Eastern","circlename":"North Eastern","divisionname":"Manipur","Taluk":"Churachandpur"},{"officename":"Haotakphailen B.O","pincode":"795133","officetype":"B.O","deliverystatus":"Delivery","statename":"MANIPUR","regionname":"North Eastern","circlename":"North Eastern","divisionname":"Manipur","Taluk":"Nil"},{"officename":"Ethai Bazar B.O","pincode":"795133","officetype":"B.O","deliverystatus":"Delivery","statename":"MANIPUR","regionname":"North Eastern","circlename":"North Eastern","divisionname":"Manipur","Taluk":"Nil"},{"officename":"Kangathel B.O","pincode":"795133","officetype":"B.O","deliverystatus":"Delivery","statename":"MANIPUR","regionname":"North Eastern","circlename":"North Eastern","divisionname":"Manipur","Taluk":"Churachandpur"},{"officename":"Khathinungei B.O","pincode":"795133","officetype":"B.O","deliverystatus":"Delivery","statename":"MANIPUR","regionname":"North Eastern","circlename":"North Eastern","divisionname":"Manipur","Taluk":"Churachandpur"},{"officename":"Khousabung B.O","pincode":"795133","officetype":"B.O","deliverystatus":"Delivery","statename":"MANIPUR","regionname":"North Eastern","circlename":"North Eastern","divisionname":"Manipur","Taluk":"Nil"},{"officename":"Kumbi (P) B.O","pincode":"795133","officetype":"B.O","deliverystatus":"Delivery","statename":"MANIPUR","regionname":"North Eastern","circlename":"North Eastern","divisionname":"Manipur","Taluk":"Nil"},{"officename":"Khoirentak B.O","pincode":"795133","officetype":"B.O","deliverystatus":"Delivery","statename":"MANIPUR","regionname":"North Eastern","circlename":"North Eastern","divisionname":"Manipur","Taluk":"Nil"},{"officename":"Kwakta B.O","pincode":"795133","officetype":"B.O","deliverystatus":"Delivery","statename":"MANIPUR","regionname":"North Eastern","circlename":"North Eastern","divisionname":"Manipur","Taluk":"Nil"},{"officename":"Khordak Ichin B.O","pincode":"795133","officetype":"B.O","deliverystatus":"Delivery","statename":"MANIPUR","regionname":"North Eastern","circlename":"North Eastern","divisionname":"Manipur","Taluk":"Nil"},{"officename":"Nabil (P) B.O","pincode":"795133","officetype":"B.O","deliverystatus":"Delivery","statename":"MANIPUR","regionname":"North Eastern","circlename":"North Eastern","divisionname":"Manipur","Taluk":"Nil"},{"officename":"Heingang B.O","pincode":"795002","officetype":"B.O","deliverystatus":"Delivery","statename":"MANIPUR","regionname":"North Eastern","circlename":"North Eastern","divisionname":"Manipur","Taluk":"Nil"},{"officename":"Karakhul B.O","pincode":"795002","officetype":"B.O","deliverystatus":"Delivery","statename":"MANIPUR","regionname":"North Eastern","circlename":"North Eastern","divisionname":"Manipur","Taluk":"Nil"},{"officename":"Khongampat B.O","pincode":"795002","officetype":"B.O","deliverystatus":"Delivery","statename":"MANIPUR","regionname":"North Eastern","circlename":"North Eastern","divisionname":"Manipur","Taluk":"Mantripukhri"},{"officename":"Khurukhul B.O","pincode":"795002","officetype":"B.O","deliverystatus":"Delivery","statename":"MANIPUR","regionname":"North Eastern","circlename":"North Eastern","divisionname":"Manipur","Taluk":"Nil"},{"officename":"Konthakhabam B.O","pincode":"795002","officetype":"B.O","deliverystatus":"Delivery","statename":"MANIPUR","regionname":"North Eastern","circlename":"North Eastern","divisionname":"Manipur","Taluk":"Nil"},{"officename":"Luwangsangbam B.O","pincode":"795002","officetype":"B.O","deliverystatus":"Delivery","statename":"MANIPUR","regionname":"North Eastern","circlename":"North Eastern","divisionname":"Manipur","Taluk":"Nil"},{"officename":"Loitang Leikinthabi B.O","pincode":"795002","officetype":"B.O","deliverystatus":"Delivery","statename":"MANIPUR","regionname":"North Eastern","circlename":"North Eastern","divisionname":"Manipur","Taluk":"Mantripukhri"},{"officename":"Tendongyang B.O","pincode":"795002","officetype":"B.O","deliverystatus":"Delivery","statename":"MANIPUR","regionname":"North Eastern","circlename":"North Eastern","divisionname":"Manipur","Taluk":"Mantripukhri"},{"officename":"Bongjang B.O","pincode":"795131","officetype":"B.O","deliverystatus":"Delivery","statename":"MANIPUR","regionname":"North Eastern","circlename":"North Eastern","divisionname":"Manipur","Taluk":"Tengnoupal"},{"officename":"Changpol B.O","pincode":"795131","officetype":"B.O","deliverystatus":"Delivery","statename":"MANIPUR","regionname":"North Eastern","circlename":"North Eastern","divisionname":"Manipur","Taluk":"Moreh"},{"officename":"Gamphajal B.O","pincode":"795131","officetype":"B.O","deliverystatus":"Delivery","statename":"MANIPUR","regionname":"North Eastern","circlename":"North Eastern","divisionname":"Manipur","Taluk":"Nil"},{"officename":"Khudengthabi B.O","pincode":"795131","officetype":"B.O","deliverystatus":"Delivery","statename":"MANIPUR","regionname":"North Eastern","circlename":"North Eastern","divisionname":"Manipur","Taluk":"Nil"},{"officename":"Maojam B.O","pincode":"795131","officetype":"B.O","deliverystatus":"Delivery","statename":"MANIPUR","regionname":"North Eastern","circlename":"North Eastern","divisionname":"Manipur","Taluk":"Nil"},{"officename":"Molcham B.O","pincode":"795131","officetype":"B.O","deliverystatus":"Delivery","statename":"MANIPUR","regionname":"North Eastern","circlename":"North Eastern","divisionname":"Manipur","Taluk":"Moreh"},{"officename":"New Somtal B.O","pincode":"795131","officetype":"B.O","deliverystatus":"Delivery","statename":"MANIPUR","regionname":"North Eastern","circlename":"North Eastern","divisionname":"Manipur","Taluk":"Nil"},{"officename":"Tengnoupal B.O","pincode":"795131","officetype":"B.O","deliverystatus":"Delivery","statename":"MANIPUR","regionname":"North Eastern","circlename":"North Eastern","divisionname":"Manipur","Taluk":"Nil"},{"officename":"T- Bongmun B.O","pincode":"795131","officetype":"B.O","deliverystatus":"Delivery","statename":"MANIPUR","regionname":"North Eastern","circlename":"North Eastern","divisionname":"Manipur","Taluk":"Nil"},{"officename":"T-minou B.O","pincode":"795131","officetype":"B.O","deliverystatus":"Delivery","statename":"MANIPUR","regionname":"North Eastern","circlename":"North Eastern","divisionname":"Manipur","Taluk":"Nil"},{"officename":"Yangoulen B.O","pincode":"795131","officetype":"B.O","deliverystatus":"Delivery","statename":"MANIPUR","regionname":"North Eastern","circlename":"North Eastern","divisionname":"Manipur","Taluk":"Nil"},{"officename":"Pfukhro B.O","pincode":"795150","officetype":"B.O","deliverystatus":"Delivery","statename":"MANIPUR","regionname":"North Eastern","circlename":"North Eastern","divisionname":"Manipur","Taluk":"Nil"},{"officename":"Bengoon Maning Leikai B.O","pincode":"795132","officetype":"B.O","deliverystatus":"Delivery","statename":"MANIPUR","regionname":"North Eastern","circlename":"North Eastern","divisionname":"Manipur","Taluk":"Nil"},{"officename":"Chabung Company B.O","pincode":"795132","officetype":"B.O","deliverystatus":"Delivery","statename":"MANIPUR","regionname":"North Eastern","circlename":"North Eastern","divisionname":"Manipur","Taluk":"Nil"},{"officename":"Chirai Muslim B.O","pincode":"795132","officetype":"B.O","deliverystatus":"Delivery","statename":"MANIPUR","regionname":"North Eastern","circlename":"North Eastern","divisionname":"Manipur","Taluk":"Nil"},{"officename":"Heibong Makhong B.O","pincode":"795132","officetype":"B.O","deliverystatus":"Delivery","statename":"MANIPUR","regionname":"North Eastern","circlename":"North Eastern","divisionname":"Manipur","Taluk":"Nil"},{"officename":"Irong Chessaba B.O","pincode":"795132","officetype":"B.O","deliverystatus":"Delivery","statename":"MANIPUR","regionname":"North Eastern","circlename":"North Eastern","divisionname":"Manipur","Taluk":"Mayang Imphal"},{"officename":"Irong Umang Khunou B.O","pincode":"795132","officetype":"B.O","deliverystatus":"Delivery","statename":"MANIPUR","regionname":"North Eastern","circlename":"North Eastern","divisionname":"Manipur","Taluk":"Nil"},{"officename":"Khelakhong Khongjil B.O","pincode":"795132","officetype":"B.O","deliverystatus":"Delivery","statename":"MANIPUR","regionname":"North Eastern","circlename":"North Eastern","divisionname":"Manipur","Taluk":"Mayang Imphal"},{"officename":"Komlakhong B.O","pincode":"795132","officetype":"B.O","deliverystatus":"Delivery","statename":"MANIPUR","regionname":"North Eastern","circlename":"North Eastern","divisionname":"Manipur","Taluk":"Nil"},{"officename":"Laphupat B.O","pincode":"795132","officetype":"B.O","deliverystatus":"Delivery","statename":"MANIPUR","regionname":"North Eastern","circlename":"North Eastern","divisionname":"Manipur","Taluk":"Nil"},{"officename":"Loukok Mayai Leikai B.O","pincode":"795132","officetype":"B.O","deliverystatus":"Delivery","statename":"MANIPUR","regionname":"North Eastern","circlename":"North Eastern","divisionname":"Manipur","Taluk":"Nil"},{"officename":"Maibam Konjil B.O","pincode":"795132","officetype":"B.O","deliverystatus":"Delivery","statename":"MANIPUR","regionname":"North Eastern","circlename":"North Eastern","divisionname":"Manipur","Taluk":"Nil"},{"officename":"Mayang Impahl Bengoon B.O","pincode":"795132","officetype":"B.O","deliverystatus":"Delivery","statename":"MANIPUR","regionname":"North Eastern","circlename":"North Eastern","divisionname":"Manipur","Taluk":"Nil"},{"officename":"Mutum Phibou B.O","pincode":"795132","officetype":"B.O","deliverystatus":"Delivery","statename":"MANIPUR","regionname":"North Eastern","circlename":"North Eastern","divisionname":"Manipur","Taluk":"Nil"},{"officename":"Phoubakchao B.O","pincode":"795132","officetype":"B.O","deliverystatus":"Delivery","statename":"MANIPUR","regionname":"North Eastern","circlename":"North Eastern","divisionname":"Manipur","Taluk":"Nil"},{"officename":"Santhel B.O","pincode":"795132","officetype":"B.O","deliverystatus":"Delivery","statename":"MANIPUR","regionname":"North Eastern","circlename":"North Eastern","divisionname":"Manipur","Taluk":"Nil"},{"officename":"Sekmaijin B.O","pincode":"795132","officetype":"B.O","deliverystatus":"Delivery","statename":"MANIPUR","regionname":"North Eastern","circlename":"North Eastern","divisionname":"Manipur","Taluk":"Nil"},{"officename":"Tera Khoidum Mayai Leikai B.O","pincode":"795132","officetype":"B.O","deliverystatus":"Delivery","statename":"MANIPUR","regionname":"North Eastern","circlename":"North Eastern","divisionname":"Manipur","Taluk":"Nil"},{"officename":"Torbung B.O","pincode":"795133","officetype":"B.O","deliverystatus":"Delivery","statename":"MANIPUR","regionname":"North Eastern","circlename":"North Eastern","divisionname":"Manipur","Taluk":"Nil"},{"officename":"Tronglaobi B.O","pincode":"795133","officetype":"B.O","deliverystatus":"Delivery","statename":"MANIPUR","regionname":"North Eastern","circlename":"North Eastern","divisionname":"Manipur","Taluk":"Nil"},{"officename":"Wangoo B.O","pincode":"795133","officetype":"B.O","deliverystatus":"Delivery","statename":"MANIPUR","regionname":"North Eastern","circlename":"North Eastern","divisionname":"Manipur","Taluk":"Nil"},{"officename":"Molphei Tampak B.O","pincode":"795133","officetype":"B.O","deliverystatus":"Delivery","statename":"MANIPUR","regionname":"North Eastern","circlename":"North Eastern","divisionname":"Manipur","Taluk":"Nil"},{"officename":"Keibung Mamang B.O","pincode":"795138","officetype":"B.O","deliverystatus":"Delivery","statename":"MANIPUR","regionname":"North Eastern","circlename":"North Eastern","divisionname":"Manipur","Taluk":"Nil"},{"officename":"Khangabok B.O","pincode":"795138","officetype":"B.O","deliverystatus":"Delivery","statename":"MANIPUR","regionname":"North Eastern","circlename":"North Eastern","divisionname":"Manipur","Taluk":"Nil"},{"officename":"Khekman B.O","pincode":"795138","officetype":"B.O","deliverystatus":"Delivery","statename":"MANIPUR","regionname":"North Eastern","circlename":"North Eastern","divisionname":"Manipur","Taluk":"Thoubal"},{"officename":"Kiyam Siphai B.O","pincode":"795138","officetype":"B.O","deliverystatus":"Delivery","statename":"MANIPUR","regionname":"North Eastern","circlename":"North Eastern","divisionname":"Manipur","Taluk":"Thoubal"},{"officename":"Kshetri Leikai B.O","pincode":"795138","officetype":"B.O","deliverystatus":"Delivery","statename":"MANIPUR","regionname":"North Eastern","circlename":"North Eastern","divisionname":"Manipur","Taluk":"Nil"},{"officename":"Moijing B.O","pincode":"795138","officetype":"B.O","deliverystatus":"Delivery","statename":"MANIPUR","regionname":"North Eastern","circlename":"North Eastern","divisionname":"Manipur","Taluk":"Nil"},{"officename":"Okram Wangmataba B.O","pincode":"795138","officetype":"B.O","deliverystatus":"Delivery","statename":"MANIPUR","regionname":"North Eastern","circlename":"North Eastern","divisionname":"Manipur","Taluk":"Nil"},{"officename":"Phoudel B.O","pincode":"795138","officetype":"B.O","deliverystatus":"Delivery","statename":"MANIPUR","regionname":"North Eastern","circlename":"North Eastern","divisionname":"Manipur","Taluk":"Nil"},{"officename":"Poirou Kongjil B.O","pincode":"795138","officetype":"B.O","deliverystatus":"Delivery","statename":"MANIPUR","regionname":"North Eastern","circlename":"North Eastern","divisionname":"Manipur","Taluk":"Thoubal"},{"officename":"Sabaltongba B.O","pincode":"795138","officetype":"B.O","deliverystatus":"Delivery","statename":"MANIPUR","regionname":"North Eastern","circlename":"North Eastern","divisionname":"Manipur","Taluk":"Nil"},{"officename":"Thoubal Khunou B.O","pincode":"795138","officetype":"B.O","deliverystatus":"Delivery","statename":"MANIPUR","regionname":"North Eastern","circlename":"North Eastern","divisionname":"Manipur","Taluk":"Nil"},{"officename":"Thoubal Ningombam B.O","pincode":"795138","officetype":"B.O","deliverystatus":"Delivery","statename":"MANIPUR","regionname":"North Eastern","circlename":"North Eastern","divisionname":"Manipur","Taluk":"Nil"},{"officename":"Thoubal Leisangthem B.O","pincode":"795138","officetype":"B.O","deliverystatus":"Delivery","statename":"MANIPUR","regionname":"North Eastern","circlename":"North Eastern","divisionname":"Manipur","Taluk":"Nil"},{"officename":"Wangbal B.O","pincode":"795138","officetype":"B.O","deliverystatus":"Delivery","statename":"MANIPUR","regionname":"North Eastern","circlename":"North Eastern","divisionname":"Manipur","Taluk":"Nil"},{"officename":"Irong Thokchom (T/C/D) B.O","pincode":"795138","officetype":"B.O","deliverystatus":"Delivery","statename":"MANIPUR","regionname":"North Eastern","circlename":"North Eastern","divisionname":"Manipur","Taluk":"Nil"},{"officename":"Thoubal Block (T/C/D) B.O","pincode":"795138","officetype":"B.O","deliverystatus":"Delivery","statename":"MANIPUR","regionname":"North Eastern","circlename":"North Eastern","divisionname":"Manipur","Taluk":"Nil"},{"officename":"Akhui B.O","pincode":"795141","officetype":"B.O","deliverystatus":"Delivery","statename":"MANIPUR","regionname":"North Eastern","circlename":"North Eastern","divisionname":"Manipur","Taluk":"Nil"},{"officename":"Atengba B.O","pincode":"795141","officetype":"B.O","deliverystatus":"Delivery","statename":"MANIPUR","regionname":"North Eastern","circlename":"North Eastern","divisionname":"Manipur","Taluk":"Nil"},{"officename":"Bongoijang B.O","pincode":"795141","officetype":"B.O","deliverystatus":"Delivery","statename":"MANIPUR","regionname":"North Eastern","circlename":"North Eastern","divisionname":"Manipur","Taluk":"Nil"},{"officename":"Bhalok B.O","pincode":"795141","officetype":"B.O","deliverystatus":"Delivery","statename":"MANIPUR","regionname":"North Eastern","circlename":"North Eastern","divisionname":"Manipur","Taluk":"Nil"},{"officename":"Khongjaron Khunthak B.O","pincode":"795141","officetype":"B.O","deliverystatus":"Delivery","statename":"MANIPUR","regionname":"North Eastern","circlename":"North Eastern","divisionname":"Manipur","Taluk":"Nil"},{"officename":"Longpram B.O","pincode":"795141","officetype":"B.O","deliverystatus":"Delivery","statename":"MANIPUR","regionname":"North Eastern","circlename":"North Eastern","divisionname":"Manipur","Taluk":"Nil"},{"officename":"Namtiram B.O","pincode":"795141","officetype":"B.O","deliverystatus":"Delivery","statename":"MANIPUR","regionname":"North Eastern","circlename":"North Eastern","divisionname":"Manipur","Taluk":"Nil"},{"officename":"Songpram B.O","pincode":"795141","officetype":"B.O","deliverystatus":"Delivery","statename":"MANIPUR","regionname":"North Eastern","circlename":"North Eastern","divisionname":"Manipur","Taluk":"Nil"},{"officename":"Tamenglong Khunjao B.O","pincode":"795141","officetype":"B.O","deliverystatus":"Delivery","statename":"MANIPUR","regionname":"North Eastern","circlename":"North Eastern","divisionname":"Manipur","Taluk":"Nil"},{"officename":"Tharon B.O","pincode":"795141","officetype":"B.O","deliverystatus":"Delivery","statename":"MANIPUR","regionname":"North Eastern","circlename":"North Eastern","divisionname":"Manipur","Taluk":"Nil"},{"officename":"Thuilon B.O","pincode":"795141","officetype":"B.O","deliverystatus":"Delivery","statename":"MANIPUR","regionname":"North Eastern","circlename":"North Eastern","divisionname":"Manipur","Taluk":"Nil"},{"officename":"Tousem B.O","pincode":"795141","officetype":"B.O","deliverystatus":"Delivery","statename":"MANIPUR","regionname":"North Eastern","circlename":"North Eastern","divisionname":"Manipur","Taluk":"Nil"},{"officename":"Wairengba B.O","pincode":"795141","officetype":"B.O","deliverystatus":"Delivery","statename":"MANIPUR","regionname":"North Eastern","circlename":"North Eastern","divisionname":"Manipur","Taluk":"Nil"},{"officename":"Keikao B.O","pincode":"795141","officetype":"B.O","deliverystatus":"Delivery","statename":"MANIPUR","regionname":"North Eastern","circlename":"North Eastern","divisionname":"Manipur","Taluk":"Nil"},{"officename":"New Pallong B.O","pincode":"795141","officetype":"B.O","deliverystatus":"Delivery","statename":"MANIPUR","regionname":"North Eastern","circlename":"North Eastern","divisionname":"Manipur","Taluk":"Nil"},{"officename":"Laiphrakom B.O","pincode":"795140","officetype":"B.O","deliverystatus":"Delivery","statename":"MANIPUR","regionname":"North Eastern","circlename":"North Eastern","divisionname":"Manipur","Taluk":"Nil"},{"officename":"Sangaiprou B.O","pincode":"795140","officetype":"B.O","deliverystatus":"Delivery","statename":"MANIPUR","regionname":"North Eastern","circlename":"North Eastern","divisionname":"Manipur","Taluk":"Nil"},{"officename":"Yarou Mitram B.O","pincode":"795140","officetype":"B.O","deliverystatus":"Delivery","statename":"MANIPUR","regionname":"North Eastern","circlename":"North Eastern","divisionname":"Manipur","Taluk":"Tulihal"},{"officename":"Cheljang B.O","pincode":"795112","officetype":"B.O","deliverystatus":"Delivery","statename":"MANIPUR","regionname":"North Eastern","circlename":"North Eastern","divisionname":"Manipur","Taluk":"Nil"},{"officename":"Chalwa (P) B.O","pincode":"795112","officetype":"B.O","deliverystatus":"Delivery","statename":"MANIPUR","regionname":"North Eastern","circlename":"North Eastern","divisionname":"Manipur","Taluk":"Nil"},{"officename":"Ganel B.O","pincode":"795112","officetype":"B.O","deliverystatus":"Delivery","statename":"MANIPUR","regionname":"North Eastern","circlename":"North Eastern","divisionname":"Manipur","Taluk":"Nil"},{"officename":"Irang B.O","pincode":"795112","officetype":"B.O","deliverystatus":"Delivery","statename":"MANIPUR","regionname":"North Eastern","circlename":"North Eastern","divisionname":"Manipur","Taluk":"Nil"},{"officename":"Kolhen B.O","pincode":"795112","officetype":"B.O","deliverystatus":"Delivery","statename":"MANIPUR","regionname":"North Eastern","circlename":"North Eastern","divisionname":"Manipur","Taluk":"Nil"},{"officename":"Thengjang B.O","pincode":"795112","officetype":"B.O","deliverystatus":"Delivery","statename":"MANIPUR","regionname":"North Eastern","circlename":"North Eastern","divisionname":"Manipur","Taluk":"Nil"},{"officename":"Aibulon B.O","pincode":"795006","officetype":"B.O","deliverystatus":"Delivery","statename":"MANIPUR","regionname":"North Eastern","circlename":"North Eastern","divisionname":"Manipur","Taluk":"New Lamka"},{"officename":"Bukpi B.O","pincode":"795006","officetype":"B.O","deliverystatus":"Delivery","statename":"MANIPUR","regionname":"North Eastern","circlename":"North Eastern","divisionname":"Manipur","Taluk":"New Lamka"},{"officename":"Bungpilon B.O","pincode":"795006","officetype":"B.O","deliverystatus":"Delivery","statename":"MANIPUR","regionname":"North Eastern","circlename":"North Eastern","divisionname":"Manipur","Taluk":"New Lamka"},{"officename":"Leijangphai B.O","pincode":"795006","officetype":"B.O","deliverystatus":"Delivery","statename":"MANIPUR","regionname":"North Eastern","circlename":"North Eastern","divisionname":"Manipur","Taluk":"New Lamka"},{"officename":"Leisan B.O","pincode":"795006","officetype":"B.O","deliverystatus":"Delivery","statename":"MANIPUR","regionname":"North Eastern","circlename":"North Eastern","divisionname":"Manipur","Taluk":"New Lamka"},{"officename":"Khajang B.O","pincode":"795006","officetype":"B.O","deliverystatus":"Delivery","statename":"MANIPUR","regionname":"North Eastern","circlename":"North Eastern","divisionname":"Manipur","Taluk":"New Lamka"},{"officename":"Milongmun B.O","pincode":"795006","officetype":"B.O","deliverystatus":"Delivery","statename":"MANIPUR","regionname":"North Eastern","circlename":"North Eastern","divisionname":"Manipur","Taluk":"New Lamka"},{"officename":"Pamjal BO","pincode":"795006","officetype":"B.O","deliverystatus":"Delivery","statename":"MANIPUR","regionname":"North Eastern","circlename":"North Eastern","divisionname":"Manipur","Taluk":"New Lamka"},{"officename":"Parbung B.O","pincode":"795006","officetype":"B.O","deliverystatus":"Delivery","statename":"MANIPUR","regionname":"North Eastern","circlename":"North Eastern","divisionname":"Manipur","Taluk":"New Lamka"},{"officename":"Phaijang B.O","pincode":"795006","officetype":"B.O","deliverystatus":"Delivery","statename":"MANIPUR","regionname":"North Eastern","circlename":"North Eastern","divisionname":"Manipur","Taluk":"New Lamka"},{"officename":"Pherzawl B.O","pincode":"795006","officetype":"B.O","deliverystatus":"Delivery","statename":"MANIPUR","regionname":"North Eastern","circlename":"North Eastern","divisionname":"Manipur","Taluk":"New Lamka"},{"officename":"Sawaiphaih (T/C/D) B.O","pincode":"795006","officetype":"B.O","deliverystatus":"Delivery","statename":"MANIPUR","regionname":"North Eastern","circlename":"North Eastern","divisionname":"Manipur","Taluk":"New Lamka"},{"officename":"Senvon B.O","pincode":"795006","officetype":"B.O","deliverystatus":"Delivery","statename":"MANIPUR","regionname":"North Eastern","circlename":"North Eastern","divisionname":"Manipur","Taluk":"New Lamka"},{"officename":"Singzawl B.O","pincode":"795006","officetype":"B.O","deliverystatus":"Delivery","statename":"MANIPUR","regionname":"North Eastern","circlename":"North Eastern","divisionname":"Manipur","Taluk":"New Lamka"},{"officename":"Taithu B.O","pincode":"795006","officetype":"B.O","deliverystatus":"Delivery","statename":"MANIPUR","regionname":"North Eastern","circlename":"North Eastern","divisionname":"Manipur","Taluk":"New Lamka"},{"officename":"Tingsong B.O","pincode":"795006","officetype":"B.O","deliverystatus":"Delivery","statename":"MANIPUR","regionname":"North Eastern","circlename":"North Eastern","divisionname":"Manipur","Taluk":"New Lamka"},{"officename":"Tipaimukh (P) B.O","pincode":"795006","officetype":"B.O","deliverystatus":"Delivery","statename":"MANIPUR","regionname":"North Eastern","circlename":"North Eastern","divisionname":"Manipur","Taluk":"New Lamka"},{"officename":"Tualbung B.O","pincode":"795006","officetype":"B.O","deliverystatus":"Delivery","statename":"MANIPUR","regionname":"North Eastern","circlename":"North Eastern","divisionname":"Manipur","Taluk":"New Lamka"},{"officename":"Rajai Khunou B.O","pincode":"795142","officetype":"B.O","deliverystatus":"Delivery","statename":"MANIPUR","regionname":"North Eastern","circlename":"North Eastern","divisionname":"Manipur","Taluk":"Nil"},{"officename":"Chamu B.O","pincode":"795142","officetype":"B.O","deliverystatus":"Delivery","statename":"MANIPUR","regionname":"North Eastern","circlename":"North Eastern","divisionname":"Manipur","Taluk":"Nil"},{"officename":"Chingjaroi (p) B.O","pincode":"795142","officetype":"B.O","deliverystatus":"Delivery","statename":"MANIPUR","regionname":"North Eastern","circlename":"North Eastern","divisionname":"Manipur","Taluk":"Ukhrul"},{"officename":"Chingai (P) B.O","pincode":"795142","officetype":"B.O","deliverystatus":"Delivery","statename":"MANIPUR","regionname":"North Eastern","circlename":"North Eastern","divisionname":"Manipur","Taluk":"Nil"},{"officename":"Chither (P) B.O","pincode":"795142","officetype":"B.O","deliverystatus":"Delivery","statename":"MANIPUR","regionname":"North Eastern","circlename":"North Eastern","divisionname":"Manipur","Taluk":"Nil"},{"officename":"Huining B.O","pincode":"795142","officetype":"B.O","deliverystatus":"Delivery","statename":"MANIPUR","regionname":"North Eastern","circlename":"North Eastern","divisionname":"Manipur","Taluk":"Nil"},{"officename":"Hundung B.O","pincode":"795142","officetype":"B.O","deliverystatus":"Delivery","statename":"MANIPUR","regionname":"North Eastern","circlename":"North Eastern","divisionname":"Manipur","Taluk":"Nil"},{"officename":"Jessami B.O","pincode":"795142","officetype":"B.O","deliverystatus":"Delivery","statename":"MANIPUR","regionname":"North Eastern","circlename":"North Eastern","divisionname":"Manipur","Taluk":"Ukhrul"},{"officename":"Kagai B.O","pincode":"795142","officetype":"B.O","deliverystatus":"Delivery","statename":"MANIPUR","regionname":"North Eastern","circlename":"North Eastern","divisionname":"Manipur","Taluk":"Nil"},{"officename":"Khamasom B.O","pincode":"795142","officetype":"B.O","deliverystatus":"Delivery","statename":"MANIPUR","regionname":"North Eastern","circlename":"North Eastern","divisionname":"Manipur","Taluk":"Nil"},{"officename":"Kharasom B.O","pincode":"795142","officetype":"B.O","deliverystatus":"Delivery","statename":"MANIPUR","regionname":"North Eastern","circlename":"North Eastern","divisionname":"Manipur","Taluk":"Nil"},{"officename":"Khayang B.O","pincode":"795142","officetype":"B.O","deliverystatus":"Delivery","statename":"MANIPUR","regionname":"North Eastern","circlename":"North Eastern","divisionname":"Manipur","Taluk":"Nil"},{"officename":"Lamlang Gate B.O","pincode":"795142","officetype":"B.O","deliverystatus":"Delivery","statename":"MANIPUR","regionname":"North Eastern","circlename":"North Eastern","divisionname":"Manipur","Taluk":"Nil"},{"officename":"Mapum B.O","pincode":"795142","officetype":"B.O","deliverystatus":"Delivery","statename":"MANIPUR","regionname":"North Eastern","circlename":"North Eastern","divisionname":"Manipur","Taluk":"Nil"},{"officename":"Ngaimu B.O","pincode":"795142","officetype":"B.O","deliverystatus":"Delivery","statename":"MANIPUR","regionname":"North Eastern","circlename":"North Eastern","divisionname":"Manipur","Taluk":"Ukhrul"},{"officename":"Nungbi Khunou B.O","pincode":"795142","officetype":"B.O","deliverystatus":"Delivery","statename":"MANIPUR","regionname":"North Eastern","circlename":"North Eastern","divisionname":"Manipur","Taluk":"Nil"},{"officename":"Paorei B.O","pincode":"795142","officetype":"B.O","deliverystatus":"Delivery","statename":"MANIPUR","regionname":"North Eastern","circlename":"North Eastern","divisionname":"Manipur","Taluk":"Nil"},{"officename":"Nungshang B.O","pincode":"795142","officetype":"B.O","deliverystatus":"Delivery","statename":"MANIPUR","regionname":"North Eastern","circlename":"North Eastern","divisionname":"Manipur","Taluk":"Nil"},{"officename":"Paoyii B.O","pincode":"795142","officetype":"B.O","deliverystatus":"Delivery","statename":"MANIPUR","regionname":"North Eastern","circlename":"North Eastern","divisionname":"Manipur","Taluk":"Nil"},{"officename":"Phungcham B.O","pincode":"795142","officetype":"B.O","deliverystatus":"Delivery","statename":"MANIPUR","regionname":"North Eastern","circlename":"North Eastern","divisionname":"Manipur","Taluk":"Nil"},{"officename":"Poii B.O","pincode":"795142","officetype":"B.O","deliverystatus":"Delivery","statename":"MANIPUR","regionname":"North Eastern","circlename":"North Eastern","divisionname":"Manipur","Taluk":"Nil"},{"officename":"Siroi B.O","pincode":"795142","officetype":"B.O","deliverystatus":"Delivery","statename":"MANIPUR","regionname":"North Eastern","circlename":"North Eastern","divisionname":"Manipur","Taluk":"Nil"},{"officename":"Soraphung B.O","pincode":"795142","officetype":"B.O","deliverystatus":"Delivery","statename":"MANIPUR","regionname":"North Eastern","circlename":"North Eastern","divisionname":"Manipur","Taluk":"Ukhrul"},{"officename":"Pushing B.O","pincode":"795142","officetype":"B.O","deliverystatus":"Delivery","statename":"MANIPUR","regionname":"North Eastern","circlename":"North Eastern","divisionname":"Manipur","Taluk":"Nil"},{"officename":"Sirarakhong B.O","pincode":"795142","officetype":"B.O","deliverystatus":"Delivery","statename":"MANIPUR","regionname":"North Eastern","circlename":"North Eastern","divisionname":"Manipur","Taluk":"Nil"},{"officename":"Tolloi B.O","pincode":"795142","officetype":"B.O","deliverystatus":"Delivery","statename":"MANIPUR","regionname":"North Eastern","circlename":"North Eastern","divisionname":"Manipur","Taluk":"Nil"},{"officename":"Tungou B.O","pincode":"795142","officetype":"B.O","deliverystatus":"Delivery","statename":"MANIPUR","regionname":"North Eastern","circlename":"North Eastern","divisionname":"Manipur","Taluk":"Nil"},{"officename":"Tuinem B.O","pincode":"795142","officetype":"B.O","deliverystatus":"Delivery","statename":"MANIPUR","regionname":"North Eastern","circlename":"North Eastern","divisionname":"Manipur","Taluk":"Nil"},{"officename":"Tushem B.O","pincode":"795142","officetype":"B.O","deliverystatus":"Delivery","statename":"MANIPUR","regionname":"North Eastern","circlename":"North Eastern","divisionname":"Manipur","Taluk":"Nil"},{"officename":"T.C.Compound B.O","pincode":"795142","officetype":"B.O","deliverystatus":"Delivery","statename":"MANIPUR","regionname":"North Eastern","circlename":"North Eastern","divisionname":"Manipur","Taluk":"Ukhrul"},{"officename":"Cherapur B.O","pincode":"795148","officetype":"B.O","deliverystatus":"Delivery","statename":"MANIPUR","regionname":"North Eastern","circlename":"North Eastern","divisionname":"Manipur","Taluk":"Nil"},{"officename":"Herok Part 1 B.O","pincode":"795148","officetype":"B.O","deliverystatus":"Delivery","statename":"MANIPUR","regionname":"North Eastern","circlename":"North Eastern","divisionname":"Manipur","Taluk":"Nil"},{"officename":"Heirok Part 2 B.O","pincode":"795148","officetype":"B.O","deliverystatus":"Delivery","statename":"MANIPUR","regionname":"North Eastern","circlename":"North Eastern","divisionname":"Manipur","Taluk":"Nil"},{"officename":"Karongthel B.O","pincode":"795148","officetype":"B.O","deliverystatus":"Delivery","statename":"MANIPUR","regionname":"North Eastern","circlename":"North Eastern","divisionname":"Manipur","Taluk":"Nil"},{"officename":"Khongjom B.O","pincode":"795148","officetype":"B.O","deliverystatus":"Delivery","statename":"MANIPUR","regionname":"North Eastern","circlename":"North Eastern","divisionname":"Manipur","Taluk":"Nil"},{"officename":"Phundrei B.O","pincode":"795148","officetype":"B.O","deliverystatus":"Delivery","statename":"MANIPUR","regionname":"North Eastern","circlename":"North Eastern","divisionname":"Manipur","Taluk":"Nil"},{"officename":"Puleipokpi B.O","pincode":"795148","officetype":"B.O","deliverystatus":"Delivery","statename":"MANIPUR","regionname":"North Eastern","circlename":"North Eastern","divisionname":"Manipur","Taluk":"Wangjing"},{"officename":"Salungpham B.O","pincode":"795148","officetype":"B.O","deliverystatus":"Delivery","statename":"MANIPUR","regionname":"North Eastern","circlename":"North Eastern","divisionname":"Manipur","Taluk":"Nil"},{"officename":"Samaram B.O","pincode":"795148","officetype":"B.O","deliverystatus":"Delivery","statename":"MANIPUR","regionname":"North Eastern","circlename":"North Eastern","divisionname":"Manipur","Taluk":"Nil"},{"officename":"Sangaiyumpham B.O","pincode":"795148","officetype":"B.O","deliverystatus":"Delivery","statename":"MANIPUR","regionname":"North Eastern","circlename":"North Eastern","divisionname":"Manipur","Taluk":"Nil"},{"officename":"Sapam Salai B.O","pincode":"795148","officetype":"B.O","deliverystatus":"Delivery","statename":"MANIPUR","regionname":"North Eastern","circlename":"North Eastern","divisionname":"Manipur","Taluk":"Nil"},{"officename":"Tekcham B.O","pincode":"795148","officetype":"B.O","deliverystatus":"Delivery","statename":"MANIPUR","regionname":"North Eastern","circlename":"North Eastern","divisionname":"Manipur","Taluk":"Nil"},{"officename":"Tentha B.O","pincode":"795148","officetype":"B.O","deliverystatus":"Delivery","statename":"MANIPUR","regionname":"North Eastern","circlename":"North Eastern","divisionname":"Manipur","Taluk":"Nil"},{"officename":"Tollen B.O","pincode":"795148","officetype":"B.O","deliverystatus":"Delivery","statename":"MANIPUR","regionname":"North Eastern","circlename":"North Eastern","divisionname":"Manipur","Taluk":"Nil"},{"officename":"Hiyangthang B.O","pincode":"795009","officetype":"B.O","deliverystatus":"Delivery","statename":"MANIPUR","regionname":"North Eastern","circlename":"North Eastern","divisionname":"Manipur","Taluk":"Nil"},{"officename":"Kodompokpi B.O","pincode":"795009","officetype":"B.O","deliverystatus":"Delivery","statename":"MANIPUR","regionname":"North Eastern","circlename":"North Eastern","divisionname":"Manipur","Taluk":"Nil"},{"officename":"Irom Meijrao B.O","pincode":"795009","officetype":"B.O","deliverystatus":"Delivery","statename":"MANIPUR","regionname":"North Eastern","circlename":"North Eastern","divisionname":"Manipur","Taluk":"Nil"},{"officename":"Samurou B.O","pincode":"795009","officetype":"B.O","deliverystatus":"Delivery","statename":"MANIPUR","regionname":"North Eastern","circlename":"North Eastern","divisionname":"Manipur","Taluk":"Nil"},{"officename":"Bitrarakhong B.O","pincode":"795009","officetype":"B.O","deliverystatus":"Delivery","statename":"MANIPUR","regionname":"North Eastern","circlename":"North Eastern","divisionname":"Manipur","Taluk":"Nil;"},{"officename":"Tulaphei B.O","pincode":"795128","officetype":"B.O","deliverystatus":"Delivery","statename":"MANIPUR","regionname":"North Eastern","circlename":"North Eastern","divisionname":"Manipur","Taluk":"Nil"},{"officename":"Ukha B.O","pincode":"795128","officetype":"B.O","deliverystatus":"Delivery","statename":"MANIPUR","regionname":"North Eastern","circlename":"North Eastern","divisionname":"Manipur","Taluk":"Nil"},{"officename":"Tuinom B.O","pincode":"795128","officetype":"B.O","deliverystatus":"Delivery","statename":"MANIPUR","regionname":"North Eastern","circlename":"North Eastern","divisionname":"Manipur","Taluk":"Nil"},{"officename":"BR Colony B.O","pincode":"795115","officetype":"B.O","deliverystatus":"Delivery","statename":"MANIPUR","regionname":"North Eastern","circlename":"North Eastern","divisionname":"Manipur","Taluk":"Nil"},{"officename":"Bidyanagar B.O","pincode":"795115","officetype":"B.O","deliverystatus":"Delivery","statename":"MANIPUR","regionname":"North Eastern","circlename":"North Eastern","divisionname":"Manipur","Taluk":"Nil"},{"officename":"Kashimpur B.O","pincode":"795115","officetype":"B.O","deliverystatus":"Delivery","statename":"MANIPUR","regionname":"North Eastern","circlename":"North Eastern","divisionname":"Manipur","Taluk":"Nil"},{"officename":"Keimai B.O","pincode":"795115","officetype":"B.O","deliverystatus":"Delivery","statename":"MANIPUR","regionname":"North Eastern","circlename":"North Eastern","divisionname":"Manipur","Taluk":"Nil"},{"officename":"New Keiphundai B.O","pincode":"795115","officetype":"B.O","deliverystatus":"Delivery","statename":"MANIPUR","regionname":"North Eastern","circlename":"North Eastern","divisionname":"Manipur","Taluk":"Nil"},{"officename":"Bongmun B.O","pincode":"795116","officetype":"B.O","deliverystatus":"Delivery","statename":"MANIPUR","regionname":"North Eastern","circlename":"North Eastern","divisionname":"Manipur","Taluk":"Nil"},{"officename":"Borobekra B.O","pincode":"795116","officetype":"B.O","deliverystatus":"Delivery","statename":"MANIPUR","regionname":"North Eastern","circlename":"North Eastern","divisionname":"Manipur","Taluk":"Nil"},{"officename":"Champanagar B.O","pincode":"795116","officetype":"B.O","deliverystatus":"Delivery","statename":"MANIPUR","regionname":"North Eastern","circlename":"North Eastern","divisionname":"Manipur","Taluk":"Nil"},{"officename":"Chongmun B.O","pincode":"795116","officetype":"B.O","deliverystatus":"Delivery","statename":"MANIPUR","regionname":"North Eastern","circlename":"North Eastern","divisionname":"Manipur","Taluk":"Nil"},{"officename":"Jakurdhar B.O","pincode":"795116","officetype":"B.O","deliverystatus":"Delivery","statename":"MANIPUR","regionname":"North Eastern","circlename":"North Eastern","divisionname":"Manipur","Taluk":"Nil"},{"officename":"Kh Jaikhan B.O","pincode":"795116","officetype":"B.O","deliverystatus":"Delivery","statename":"MANIPUR","regionname":"North Eastern","circlename":"North Eastern","divisionname":"Manipur","Taluk":"Nil"},{"officename":"Lalkhan B.O","pincode":"795116","officetype":"B.O","deliverystatus":"Delivery","statename":"MANIPUR","regionname":"North Eastern","circlename":"North Eastern","divisionname":"Manipur","Taluk":"Jiribam"},{"officename":"Latingkhal B.O","pincode":"795116","officetype":"B.O","deliverystatus":"Delivery","statename":"MANIPUR","regionname":"North Eastern","circlename":"North Eastern","divisionname":"Manipur","Taluk":"Nil"},{"officename":"Longpi B.O","pincode":"795116","officetype":"B.O","deliverystatus":"Delivery","statename":"MANIPUR","regionname":"North Eastern","circlename":"North Eastern","divisionname":"Manipur","Taluk":"Nil"},{"officename":"Ngamphabung B.O","pincode":"795116","officetype":"B.O","deliverystatus":"Delivery","statename":"MANIPUR","regionname":"North Eastern","circlename":"North Eastern","divisionname":"Manipur","Taluk":"Jiribam"},{"officename":"Patpuimun B.O","pincode":"795116","officetype":"B.O","deliverystatus":"Delivery","statename":"MANIPUR","regionname":"North Eastern","circlename":"North Eastern","divisionname":"Manipur","Taluk":"Nil"},{"officename":"Phaibok Mullen B.O","pincode":"795116","officetype":"B.O","deliverystatus":"Delivery","statename":"MANIPUR","regionname":"North Eastern","circlename":"North Eastern","divisionname":"Manipur","Taluk":"Nil"},{"officename":"Sonapur B.O","pincode":"795116","officetype":"B.O","deliverystatus":"Delivery","statename":"MANIPUR","regionname":"North Eastern","circlename":"North Eastern","divisionname":"Manipur","Taluk":"Nil"},{"officename":"Suangpuimun B.O","pincode":"795116","officetype":"B.O","deliverystatus":"Delivery","statename":"MANIPUR","regionname":"North Eastern","circlename":"North Eastern","divisionname":"Manipur","Taluk":"Nil"},{"officename":"Tuitengmun B.O","pincode":"795116","officetype":"B.O","deliverystatus":"Delivery","statename":"MANIPUR","regionname":"North Eastern","circlename":"North Eastern","divisionname":"Manipur","Taluk":"Nil"},{"officename":"Ngangkha Louwai B.O","pincode":"795133","officetype":"B.O","deliverystatus":"Delivery","statename":"MANIPUR","regionname":"North Eastern","circlename":"North Eastern","divisionname":"Manipur","Taluk":"Moirang"},{"officename":"Terakhongshangbi B.O","pincode":"795133","officetype":"B.O","deliverystatus":"Delivery","statename":"MANIPUR","regionname":"North Eastern","circlename":"North Eastern","divisionname":"Manipur","Taluk":"Nil"},{"officename":"Tuisang Gothal B.O","pincode":"795133","officetype":"B.O","deliverystatus":"Delivery","statename":"MANIPUR","regionname":"North Eastern","circlename":"North Eastern","divisionname":"Manipur","Taluk":"Churachandpur"},{"officename":"Nungthangtampak B.O","pincode":"795133","officetype":"B.O","deliverystatus":"Delivery","statename":"MANIPUR","regionname":"North Eastern","circlename":"North Eastern","divisionname":"Manipur","Taluk":"Nil"},{"officename":"Thumkhonglok B.O","pincode":"795133","officetype":"B.O","deliverystatus":"Delivery","statename":"MANIPUR","regionname":"North Eastern","circlename":"North Eastern","divisionname":"Manipur","Taluk":"Nil"},{"officename":"N. Khenjang B.O","pincode":"795107","officetype":"B.O","deliverystatus":"Delivery","statename":"MANIPUR","regionname":"North Eastern","circlename":"North Eastern","divisionname":"Manipur","Taluk":"Nil"},{"officename":"Saitu B.O","pincode":"795107","officetype":"B.O","deliverystatus":"Delivery","statename":"MANIPUR","regionname":"North Eastern","circlename":"North Eastern","divisionname":"Manipur","Taluk":"Nil"},{"officename":"Sapermeina B.O","pincode":"795107","officetype":"B.O","deliverystatus":"Delivery","statename":"MANIPUR","regionname":"North Eastern","circlename":"North Eastern","divisionname":"Manipur","Taluk":"Nil"},{"officename":"Thingsat B.O","pincode":"795107","officetype":"B.O","deliverystatus":"Delivery","statename":"MANIPUR","regionname":"North Eastern","circlename":"North Eastern","divisionname":"Manipur","Taluk":"Nil"},{"officename":"Awangjiri B.O","pincode":"795134","officetype":"B.O","deliverystatus":"Delivery","statename":"MANIPUR","regionname":"North Eastern","circlename":"North Eastern","divisionname":"Manipur","Taluk":"Nil"},{"officename":"Bungte Chiru B.O","pincode":"795134","officetype":"B.O","deliverystatus":"Delivery","statename":"MANIPUR","regionname":"North Eastern","circlename":"North Eastern","divisionname":"Manipur","Taluk":"Nil"},{"officename":"Karam Vaiphei B.O","pincode":"795146","officetype":"B.O","deliverystatus":"Delivery","statename":"MANIPUR","regionname":"North Eastern","circlename":"North Eastern","divisionname":"Manipur","Taluk":"Nil"},{"officename":"Mayang Langjing B.O","pincode":"795146","officetype":"B.O","deliverystatus":"Delivery","statename":"MANIPUR","regionname":"North Eastern","circlename":"North Eastern","divisionname":"Manipur","Taluk":"Nil"},{"officename":"Oktan B.O","pincode":"795146","officetype":"B.O","deliverystatus":"Delivery","statename":"MANIPUR","regionname":"North Eastern","circlename":"North Eastern","divisionname":"Manipur","Taluk":"Nil"},{"officename":"Phayeng B.O","pincode":"795146","officetype":"B.O","deliverystatus":"Delivery","statename":"MANIPUR","regionname":"North Eastern","circlename":"North Eastern","divisionname":"Manipur","Taluk":"Nil"},{"officename":"Ponlian B.O","pincode":"795146","officetype":"B.O","deliverystatus":"Delivery","statename":"MANIPUR","regionname":"North Eastern","circlename":"North Eastern","divisionname":"Manipur","Taluk":"Nil"},{"officename":"Chingmang B.O","pincode":"795010","officetype":"B.O","deliverystatus":"Delivery","statename":"MANIPUR","regionname":"North Eastern","circlename":"North Eastern","divisionname":"Manipur","Taluk":"Nil"},{"officename":"Heinoumakhong B.O","pincode":"795010","officetype":"B.O","deliverystatus":"Delivery","statename":"MANIPUR","regionname":"North Eastern","circlename":"North Eastern","divisionname":"Manipur","Taluk":"Nil"},{"officename":"Huidrom B.O","pincode":"795010","officetype":"B.O","deliverystatus":"Delivery","statename":"MANIPUR","regionname":"North Eastern","circlename":"North Eastern","divisionname":"Manipur","Taluk":"Nil"},{"officename":"Laikoiching B.O","pincode":"795010","officetype":"B.O","deliverystatus":"Delivery","statename":"MANIPUR","regionname":"North Eastern","circlename":"North Eastern","divisionname":"Manipur","Taluk":"Nil"},{"officename":"Lamlai B.O","pincode":"795010","officetype":"B.O","deliverystatus":"Delivery","statename":"MANIPUR","regionname":"North Eastern","circlename":"North Eastern","divisionname":"Manipur","Taluk":"Nil"},{"officename":"Kameng Kakching B.O","pincode":"795010","officetype":"B.O","deliverystatus":"Delivery","statename":"MANIPUR","regionname":"North Eastern","circlename":"North Eastern","divisionname":"Manipur","Taluk":"Nil"},{"officename":"Tangkhul Hungdung B.O","pincode":"795010","officetype":"B.O","deliverystatus":"Delivery","statename":"MANIPUR","regionname":"North Eastern","circlename":"North Eastern","divisionname":"Manipur","Taluk":"Nil"},{"officename":"Moirang Purel B.O","pincode":"795010","officetype":"B.O","deliverystatus":"Delivery","statename":"MANIPUR","regionname":"North Eastern","circlename":"North Eastern","divisionname":"Manipur","Taluk":"Nil"},{"officename":"Ningthemchakhul B.O","pincode":"795010","officetype":"B.O","deliverystatus":"Delivery","statename":"MANIPUR","regionname":"North Eastern","circlename":"North Eastern","divisionname":"Manipur","Taluk":"Nil"},{"officename":"Nongdam Tangkhul B.O","pincode":"795010","officetype":"B.O","deliverystatus":"Delivery","statename":"MANIPUR","regionname":"North Eastern","circlename":"North Eastern","divisionname":"Manipur","Taluk":"Nil"},{"officename":"Nongada B.O","pincode":"795010","officetype":"B.O","deliverystatus":"Delivery","statename":"MANIPUR","regionname":"North Eastern","circlename":"North Eastern","divisionname":"Manipur","Taluk":"Lamlong"},{"officename":"Phaknung B.O","pincode":"795010","officetype":"B.O","deliverystatus":"Delivery","statename":"MANIPUR","regionname":"North Eastern","circlename":"North Eastern","divisionname":"Manipur","Taluk":"Nil"},{"officename":"Sawombung B.O","pincode":"795010","officetype":"B.O","deliverystatus":"Delivery","statename":"MANIPUR","regionname":"North Eastern","circlename":"North Eastern","divisionname":"Manipur","Taluk":"Nil"},{"officename":"Taretkhul B.O","pincode":"795010","officetype":"B.O","deliverystatus":"Delivery","statename":"MANIPUR","regionname":"North Eastern","circlename":"North Eastern","divisionname":"Manipur","Taluk":"Nil"},{"officename":"Yourbung B.O","pincode":"795010","officetype":"B.O","deliverystatus":"Delivery","statename":"MANIPUR","regionname":"North Eastern","circlename":"North Eastern","divisionname":"Manipur","Taluk":"Nil"},{"officename":"Aishi B.O","pincode":"795145","officetype":"B.O","deliverystatus":"Delivery","statename":"MANIPUR","regionname":"North Eastern","circlename":"North Eastern","divisionname":"Manipur","Taluk":"Litan"},{"officename":"Chassad B.O","pincode":"795145","officetype":"B.O","deliverystatus":"Delivery","statename":"MANIPUR","regionname":"North Eastern","circlename":"North Eastern","divisionname":"Manipur","Taluk":"Nil"},{"officename":"Grihang B.O","pincode":"795145","officetype":"B.O","deliverystatus":"Delivery","statename":"MANIPUR","regionname":"North Eastern","circlename":"North Eastern","divisionname":"Manipur","Taluk":"Nil"},{"officename":"Chadong B.O","pincode":"795145","officetype":"B.O","deliverystatus":"Delivery","statename":"MANIPUR","regionname":"North Eastern","circlename":"North Eastern","divisionname":"Manipur","Taluk":"Nil"},{"officename":"Kongpat Khunou B.O","pincode":"795145","officetype":"B.O","deliverystatus":"Delivery","statename":"MANIPUR","regionname":"North Eastern","circlename":"North Eastern","divisionname":"Manipur","Taluk":"Nil"},{"officename":"Lambui B.O","pincode":"795145","officetype":"B.O","deliverystatus":"Delivery","statename":"MANIPUR","regionname":"North Eastern","circlename":"North Eastern","divisionname":"Manipur","Taluk":"Nil"},{"officename":"L Tangkhul B.O","pincode":"795145","officetype":"B.O","deliverystatus":"Delivery","statename":"MANIPUR","regionname":"North Eastern","circlename":"North Eastern","divisionname":"Manipur","Taluk":"Nil"},{"officename":"Maku B.O","pincode":"795145","officetype":"B.O","deliverystatus":"Delivery","statename":"MANIPUR","regionname":"North Eastern","circlename":"North Eastern","divisionname":"Manipur","Taluk":"Nil"},{"officename":"Sanakeithel B.O","pincode":"795145","officetype":"B.O","deliverystatus":"Delivery","statename":"MANIPUR","regionname":"North Eastern","circlename":"North Eastern","divisionname":"Manipur","Taluk":"Nil"},{"officename":"Semol B.O","pincode":"795145","officetype":"B.O","deliverystatus":"Delivery","statename":"MANIPUR","regionname":"North Eastern","circlename":"North Eastern","divisionname":"Manipur","Taluk":"Nil"},{"officename":"Siyamongjang B.O","pincode":"795145","officetype":"B.O","deliverystatus":"Delivery","statename":"MANIPUR","regionname":"North Eastern","circlename":"North Eastern","divisionname":"Manipur","Taluk":"Litan"},{"officename":"Thawai B.O","pincode":"795145","officetype":"B.O","deliverystatus":"Delivery","statename":"MANIPUR","regionname":"North Eastern","circlename":"North Eastern","divisionname":"Manipur","Taluk":"Nil"},{"officename":"Yaingangpokpi B.O","pincode":"795145","officetype":"B.O","deliverystatus":"Delivery","statename":"MANIPUR","regionname":"North Eastern","circlename":"North Eastern","divisionname":"Manipur","Taluk":"Litan"},{"officename":"Saram Patong B.O","pincode":"795149","officetype":"B.O","deliverystatus":"Delivery","statename":"MANIPUR","regionname":"North Eastern","circlename":"North Eastern","divisionname":"Manipur","Taluk":"Nil"},{"officename":"Top Chingtha B.O","pincode":"795149","officetype":"B.O","deliverystatus":"Delivery","statename":"MANIPUR","regionname":"North Eastern","circlename":"North Eastern","divisionname":"Manipur","Taluk":"Nil"},{"officename":"Yambem Laxmi Bazar B.O","pincode":"795149","officetype":"B.O","deliverystatus":"Delivery","statename":"MANIPUR","regionname":"North Eastern","circlename":"North Eastern","divisionname":"Manipur","Taluk":"Nil"},{"officename":"Yairipok Tulihal B.O","pincode":"795149","officetype":"B.O","deliverystatus":"Delivery","statename":"MANIPUR","regionname":"North Eastern","circlename":"North Eastern","divisionname":"Manipur","Taluk":"Nil"},{"officename":"Heikrujam B.O","pincode":"795134","officetype":"B.O","deliverystatus":"Delivery","statename":"MANIPUR","regionname":"North Eastern","circlename":"North Eastern","divisionname":"Manipur","Taluk":"Nil"},{"officename":"Isok B.O","pincode":"795134","officetype":"B.O","deliverystatus":"Delivery","statename":"MANIPUR","regionname":"North Eastern","circlename":"North Eastern","divisionname":"Manipur","Taluk":"Nil"},{"officename":"Irengbam B.O","pincode":"795134","officetype":"B.O","deliverystatus":"Delivery","statename":"MANIPUR","regionname":"North Eastern","circlename":"North Eastern","divisionname":"Manipur","Taluk":"Nil"},{"officename":"Kabowakching B.O","pincode":"795134","officetype":"B.O","deliverystatus":"Delivery","statename":"MANIPUR","regionname":"North Eastern","circlename":"North Eastern","divisionname":"Manipur","Taluk":"Nil"},{"officename":"Kangmong B.O","pincode":"795134","officetype":"B.O","deliverystatus":"Delivery","statename":"MANIPUR","regionname":"North Eastern","circlename":"North Eastern","divisionname":"Manipur","Taluk":"Nambol"},{"officename":"Keinou B.O","pincode":"795134","officetype":"B.O","deliverystatus":"Delivery","statename":"MANIPUR","regionname":"North Eastern","circlename":"North Eastern","divisionname":"Manipur","Taluk":"Nil"},{"officename":"Khabi B.O","pincode":"795134","officetype":"B.O","deliverystatus":"Delivery","statename":"MANIPUR","regionname":"North Eastern","circlename":"North Eastern","divisionname":"Manipur","Taluk":"Nil"},{"officename":"Langpok B.O","pincode":"795134","officetype":"B.O","deliverystatus":"Delivery","statename":"MANIPUR","regionname":"North Eastern","circlename":"North Eastern","divisionname":"Manipur","Taluk":"Nil"},{"officename":"Leimapokpam B.O","pincode":"795134","officetype":"B.O","deliverystatus":"Delivery","statename":"MANIPUR","regionname":"North Eastern","circlename":"North Eastern","divisionname":"Manipur","Taluk":"Nil"},{"officename":"Leimaram B.O","pincode":"795134","officetype":"B.O","deliverystatus":"Delivery","statename":"MANIPUR","regionname":"North Eastern","circlename":"North Eastern","divisionname":"Manipur","Taluk":"Nambol"},{"officename":"Maibam B.O","pincode":"795134","officetype":"B.O","deliverystatus":"Delivery","statename":"MANIPUR","regionname":"North Eastern","circlename":"North Eastern","divisionname":"Manipur","Taluk":"Nil"},{"officename":"Manamayang B.O","pincode":"795134","officetype":"B.O","deliverystatus":"Delivery","statename":"MANIPUR","regionname":"North Eastern","circlename":"North Eastern","divisionname":"Manipur","Taluk":"Nil"},{"officename":"Naorem B.O","pincode":"795134","officetype":"B.O","deliverystatus":"Delivery","statename":"MANIPUR","regionname":"North Eastern","circlename":"North Eastern","divisionname":"Manipur","Taluk":"Nil"},{"officename":"Oinam B.O","pincode":"795134","officetype":"B.O","deliverystatus":"Delivery","statename":"MANIPUR","regionname":"North Eastern","circlename":"North Eastern","divisionname":"Manipur","Taluk":"Nil"},{"officename":"Pukhrambam B.O","pincode":"795134","officetype":"B.O","deliverystatus":"Delivery","statename":"MANIPUR","regionname":"North Eastern","circlename":"North Eastern","divisionname":"Manipur","Taluk":"Nil"},{"officename":"Utlou B.O","pincode":"795134","officetype":"B.O","deliverystatus":"Delivery","statename":"MANIPUR","regionname":"North Eastern","circlename":"North Eastern","divisionname":"Manipur","Taluk":"Nil"},{"officename":"Thingkai Khullen B.O","pincode":"795134","officetype":"B.O","deliverystatus":"Delivery","statename":"MANIPUR","regionname":"North Eastern","circlename":"North Eastern","divisionname":"Manipur","Taluk":"Churachandpur"},{"officename":"Yarou Bomdiar B.O","pincode":"795134","officetype":"B.O","deliverystatus":"Delivery","statename":"MANIPUR","regionname":"North Eastern","circlename":"North Eastern","divisionname":"Manipur","Taluk":"Nambol"},{"officename":"Charoi Tupul B.O","pincode":"795159","officetype":"B.O","deliverystatus":"Delivery","statename":"MANIPUR","regionname":"North Eastern","circlename":"North Eastern","divisionname":"Manipur","Taluk":"Nil"},{"officename":"Lungphu B.O","pincode":"795145","officetype":"B.O","deliverystatus":"Delivery","statename":"MANIPUR","regionname":"North Eastern","circlename":"North Eastern","divisionname":"Manipur","Taluk":"Nil"},{"officename":"Leiting B.O","pincode":"795145","officetype":"B.O","deliverystatus":"Delivery","statename":"MANIPUR","regionname":"North Eastern","circlename":"North Eastern","divisionname":"Manipur","Taluk":"Nil"},{"officename":"Phungyar B.O","pincode":"795145","officetype":"B.O","deliverystatus":"Delivery","statename":"MANIPUR","regionname":"North Eastern","circlename":"North Eastern","divisionname":"Manipur","Taluk":"Nil"},{"officename":"Shangsak B.O","pincode":"795145","officetype":"B.O","deliverystatus":"Delivery","statename":"MANIPUR","regionname":"North Eastern","circlename":"North Eastern","divisionname":"Manipur","Taluk":"Litan"},{"officename":"Sorde B.O","pincode":"795145","officetype":"B.O","deliverystatus":"Delivery","statename":"MANIPUR","regionname":"North Eastern","circlename":"North Eastern","divisionname":"Manipur","Taluk":"Nil"},{"officename":"Maokot B.O","pincode":"795145","officetype":"B.O","deliverystatus":"Delivery","statename":"MANIPUR","regionname":"North Eastern","circlename":"North Eastern","divisionname":"Manipur","Taluk":"Nil"},{"officename":"Arapti B.O","pincode":"795130","officetype":"B.O","deliverystatus":"Delivery","statename":"MANIPUR","regionname":"North Eastern","circlename":"North Eastern","divisionname":"Manipur","Taluk":"Lilong"},{"officename":"Chajing pt.-1 B.O","pincode":"795130","officetype":"B.O","deliverystatus":"Delivery","statename":"MANIPUR","regionname":"North Eastern","circlename":"North Eastern","divisionname":"Manipur","Taluk":"Lilong"},{"officename":"Haoreibi Mayai Leikai B.O","pincode":"795130","officetype":"B.O","deliverystatus":"Delivery","statename":"MANIPUR","regionname":"North Eastern","circlename":"North Eastern","divisionname":"Manipur","Taluk":"Nil"},{"officename":"Lairabokhong B.O","pincode":"795130","officetype":"B.O","deliverystatus":"Delivery","statename":"MANIPUR","regionname":"North Eastern","circlename":"North Eastern","divisionname":"Manipur","Taluk":"Nil"},{"officename":"Heinoumakhong B.O","pincode":"795130","officetype":"B.O","deliverystatus":"Delivery","statename":"MANIPUR","regionname":"North Eastern","circlename":"North Eastern","divisionname":"Manipur","Taluk":"Nil"},{"officename":"Nungei B.O","pincode":"795130","officetype":"B.O","deliverystatus":"Delivery","statename":"MANIPUR","regionname":"North Eastern","circlename":"North Eastern","divisionname":"Manipur","Taluk":"Nil"},{"officename":"Phunalmaring B.O","pincode":"795130","officetype":"B.O","deliverystatus":"Delivery","statename":"MANIPUR","regionname":"North Eastern","circlename":"North Eastern","divisionname":"Manipur","Taluk":"Nil"},{"officename":"Thiyamkonjil B.O","pincode":"795130","officetype":"B.O","deliverystatus":"Delivery","statename":"MANIPUR","regionname":"North Eastern","circlename":"North Eastern","divisionname":"Manipur","Taluk":"Nil"},{"officename":"Turelahnabi B.O","pincode":"795130","officetype":"B.O","deliverystatus":"Delivery","statename":"MANIPUR","regionname":"North Eastern","circlename":"North Eastern","divisionname":"Manipur","Taluk":"Nil"},{"officename":"Urup B.O","pincode":"795130","officetype":"B.O","deliverystatus":"Delivery","statename":"MANIPUR","regionname":"North Eastern","circlename":"North Eastern","divisionname":"Manipur","Taluk":"Nil"},{"officename":"Charoi Khullel B.O","pincode":"795124","officetype":"B.O","deliverystatus":"Delivery","statename":"MANIPUR","regionname":"North Eastern","circlename":"North Eastern","divisionname":"Manipur","Taluk":"Nil"},{"officename":"Jiban Nager B.O","pincode":"795124","officetype":"B.O","deliverystatus":"Delivery","statename":"MANIPUR","regionname":"North Eastern","circlename":"North Eastern","divisionname":"Manipur","Taluk":"Nil"},{"officename":"Leimatak B.O","pincode":"795124","officetype":"B.O","deliverystatus":"Delivery","statename":"MANIPUR","regionname":"North Eastern","circlename":"North Eastern","divisionname":"Manipur","Taluk":"Nil"},{"officename":"Mayuran B.O","pincode":"795124","officetype":"B.O","deliverystatus":"Delivery","statename":"MANIPUR","regionname":"North Eastern","circlename":"North Eastern","divisionname":"Manipur","Taluk":"Nil"},{"officename":"Sadukhoiroi B.O","pincode":"795124","officetype":"B.O","deliverystatus":"Delivery","statename":"MANIPUR","regionname":"North Eastern","circlename":"North Eastern","divisionname":"Manipur","Taluk":"Nil"},{"officename":"Tokpalamdan B.O","pincode":"795124","officetype":"B.O","deliverystatus":"Delivery","statename":"MANIPUR","regionname":"North Eastern","circlename":"North Eastern","divisionname":"Manipur","Taluk":"Nil"},{"officename":"Koide B.O","pincode":"795105","officetype":"B.O","deliverystatus":"Delivery","statename":"MANIPUR","regionname":"North Eastern","circlename":"North Eastern","divisionname":"Manipur","Taluk":"Nil"},{"officename":"Awangkhul B.O","pincode":"795159","officetype":"B.O","deliverystatus":"Delivery","statename":"MANIPUR","regionname":"North Eastern","circlename":"North Eastern","divisionname":"Manipur","Taluk":"Nil"},{"officename":"Lukhambi B.O","pincode":"795159","officetype":"B.O","deliverystatus":"Delivery","statename":"MANIPUR","regionname":"North Eastern","circlename":"North Eastern","divisionname":"Manipur","Taluk":"Nil"},{"officename":"Nagaching B.O","pincode":"795159","officetype":"B.O","deliverystatus":"Delivery","statename":"MANIPUR","regionname":"North Eastern","circlename":"North Eastern","divisionname":"Manipur","Taluk":"Nil"},{"officename":"Karuangmuan (Nungtek) B.O","pincode":"795159","officetype":"B.O","deliverystatus":"Delivery","statename":"MANIPUR","regionname":"North Eastern","circlename":"North Eastern","divisionname":"Manipur","Taluk":"Noney"},{"officename":"New Kabui Khullen B.O","pincode":"795159","officetype":"B.O","deliverystatus":"Delivery","statename":"MANIPUR","regionname":"North Eastern","circlename":"North Eastern","divisionname":"Manipur","Taluk":"Nil"},{"officename":"Thingra B.O","pincode":"795159","officetype":"B.O","deliverystatus":"Delivery","statename":"MANIPUR","regionname":"North Eastern","circlename":"North Eastern","divisionname":"Manipur","Taluk":"Nil"},{"officename":"Haochong B.O","pincode":"795159","officetype":"B.O","deliverystatus":"Delivery","statename":"MANIPUR","regionname":"North Eastern","circlename":"North Eastern","divisionname":"Manipur","Taluk":"Nil"},{"officename":"Kambiron B.O","pincode":"795147","officetype":"B.O","deliverystatus":"Delivery","statename":"MANIPUR","regionname":"North Eastern","circlename":"North Eastern","divisionname":"Manipur","Taluk":"Nil"},{"officename":"Mukti Khullen B.O","pincode":"795147","officetype":"B.O","deliverystatus":"Delivery","statename":"MANIPUR","regionname":"North Eastern","circlename":"North Eastern","divisionname":"Manipur","Taluk":"Nil"},{"officename":"Rengpang B.O","pincode":"795147","officetype":"B.O","deliverystatus":"Delivery","statename":"MANIPUR","regionname":"North Eastern","circlename":"North Eastern","divisionname":"Manipur","Taluk":"Nil"},{"officename":"Sibilong B.O","pincode":"795147","officetype":"B.O","deliverystatus":"Delivery","statename":"MANIPUR","regionname":"North Eastern","circlename":"North Eastern","divisionname":"Manipur","Taluk":"Nil"},{"officename":"Dolaithabi B.O","pincode":"795114","officetype":"B.O","deliverystatus":"Delivery","statename":"MANIPUR","regionname":"North Eastern","circlename":"North Eastern","divisionname":"Manipur","Taluk":"Nil"},{"officename":"Haraorou B.O","pincode":"795114","officetype":"B.O","deliverystatus":"Delivery","statename":"MANIPUR","regionname":"North Eastern","circlename":"North Eastern","divisionname":"Manipur","Taluk":"Nil"},{"officename":"Kairang Litan Makhong B.O","pincode":"795114","officetype":"B.O","deliverystatus":"Delivery","statename":"MANIPUR","regionname":"North Eastern","circlename":"North Eastern","divisionname":"Manipur","Taluk":"Nil"},{"officename":"Khumidok (P) B.O","pincode":"795114","officetype":"B.O","deliverystatus":"Delivery","statename":"MANIPUR","regionname":"North Eastern","circlename":"North Eastern","divisionname":"Manipur","Taluk":"Nil"},{"officename":"Khongbal Tangkhul B.O","pincode":"795114","officetype":"B.O","deliverystatus":"Delivery","statename":"MANIPUR","regionname":"North Eastern","circlename":"North Eastern","divisionname":"Manipur","Taluk":"Nil"},{"officename":"Pukhao Ahallup B.O","pincode":"795114","officetype":"B.O","deliverystatus":"Delivery","statename":"MANIPUR","regionname":"North Eastern","circlename":"North Eastern","divisionname":"Manipur","Taluk":"Nil"},{"officename":"Sagolmang B.O","pincode":"795114","officetype":"B.O","deliverystatus":"Delivery","statename":"MANIPUR","regionname":"North Eastern","circlename":"North Eastern","divisionname":"Manipur","Taluk":"Nil"},{"officename":"Satang B.O","pincode":"795114","officetype":"B.O","deliverystatus":"Delivery","statename":"MANIPUR","regionname":"North Eastern","circlename":"North Eastern","divisionname":"Manipur","Taluk":"Nil"},{"officename":"Thangal Surung B.O","pincode":"795114","officetype":"B.O","deliverystatus":"Delivery","statename":"MANIPUR","regionname":"North Eastern","circlename":"North Eastern","divisionname":"Manipur","Taluk":"Nil"},{"officename":"kongakhul BO","pincode":"795113","officetype":"B.O","deliverystatus":"Delivery","statename":"MANIPUR","regionname":"North Eastern","circlename":"North Eastern","divisionname":"Manipur","Taluk":"Langjing"},{"officename":"Khumbong Bazar B.O","pincode":"795113","officetype":"B.O","deliverystatus":"Delivery","statename":"MANIPUR","regionname":"North Eastern","circlename":"North Eastern","divisionname":"Manipur","Taluk":"Nil"},{"officename":"Konthoujam B.O","pincode":"795113","officetype":"B.O","deliverystatus":"Delivery","statename":"MANIPUR","regionname":"North Eastern","circlename":"North Eastern","divisionname":"Manipur","Taluk":"Nil"},{"officename":"Langjing Achouba B.O","pincode":"795113","officetype":"B.O","deliverystatus":"Delivery","statename":"MANIPUR","regionname":"North Eastern","circlename":"North Eastern","divisionname":"Manipur","Taluk":"Nil"},{"officename":"Dolang B.O","pincode":"795118","officetype":"B.O","deliverystatus":"Delivery","statename":"MANIPUR","regionname":"North Eastern","circlename":"North Eastern","divisionname":"Manipur","Taluk":"Nil"},{"officename":"Khoyathong B.O","pincode":"795001","officetype":"B.O","deliverystatus":"Non-Delivery","statename":"MANIPUR","regionname":"North Eastern","circlename":"North Eastern","divisionname":"Manipur","Taluk":"Nil"},{"officename":"Soibam Leikai B.O","pincode":"795001","officetype":"B.O","deliverystatus":"Non-Delivery","statename":"MANIPUR","regionname":"North Eastern","circlename":"North Eastern","divisionname":"Manipur","Taluk":"Nil"},{"officename":"Oklong B.O","pincode":"795106","officetype":"B.O","deliverystatus":"Delivery","statename":"MANIPUR","regionname":"North Eastern","circlename":"North Eastern","divisionname":"Manipur","Taluk":"Nil"},{"officename":"Tumuyen Khullen B.O","pincode":"795106","officetype":"B.O","deliverystatus":"Delivery","statename":"MANIPUR","regionname":"North Eastern","circlename":"North Eastern","divisionname":"Manipur","Taluk":"Senapati"},{"officename":"Khouwpuibung B.O","pincode":"795117","officetype":"B.O","deliverystatus":"Delivery","statename":"MANIPUR","regionname":"North Eastern","circlename":"North Eastern","divisionname":"Manipur","Taluk":"Nil"},{"officename":"Mual Vaiphei B.O","pincode":"795117","officetype":"B.O","deliverystatus":"Delivery","statename":"MANIPUR","regionname":"North Eastern","circlename":"North Eastern","divisionname":"Manipur","Taluk":"Nil"},{"officename":"Tuining B.O","pincode":"795117","officetype":"B.O","deliverystatus":"Delivery","statename":"MANIPUR","regionname":"North Eastern","circlename":"North Eastern","divisionname":"Manipur","Taluk":"Nil"},{"officename":"Tuikham B.O","pincode":"795117","officetype":"B.O","deliverystatus":"Delivery","statename":"MANIPUR","regionname":"North Eastern","circlename":"North Eastern","divisionname":"Manipur","Taluk":"Nil"},{"officename":"Tuitengphai B.O","pincode":"795117","officetype":"B.O","deliverystatus":"Delivery","statename":"MANIPUR","regionname":"North Eastern","circlename":"North Eastern","divisionname":"Manipur","Taluk":"Nil"},{"officename":"Awang Kongpal B.O","pincode":"795005","officetype":"B.O","deliverystatus":"Delivery","statename":"MANIPUR","regionname":"North Eastern","circlename":"North Eastern","divisionname":"Manipur","Taluk":"Porompat"},{"officename":"Khurai Khongnang Makhong B.O","pincode":"795005","officetype":"B.O","deliverystatus":"Delivery","statename":"MANIPUR","regionname":"North Eastern","circlename":"North Eastern","divisionname":"Manipur","Taluk":"Nil"},{"officename":"Moirang Kampu B.O","pincode":"795005","officetype":"B.O","deliverystatus":"Delivery","statename":"MANIPUR","regionname":"North Eastern","circlename":"North Eastern","divisionname":"Manipur","Taluk":"Nil"},{"officename":"Longa Koireng B.O","pincode":"795113","officetype":"B.O","deliverystatus":"Delivery","statename":"MANIPUR","regionname":"North Eastern","circlename":"North Eastern","divisionname":"Manipur","Taluk":"Nil"},{"officename":"Maklang Bazar B.O","pincode":"795113","officetype":"B.O","deliverystatus":"Delivery","statename":"MANIPUR","regionname":"North Eastern","circlename":"North Eastern","divisionname":"Manipur","Taluk":"Nil"},{"officename":"Natok Kabui B.O","pincode":"795113","officetype":"B.O","deliverystatus":"Delivery","statename":"MANIPUR","regionname":"North Eastern","circlename":"North Eastern","divisionname":"Manipur","Taluk":"Nil"},{"officename":"Sagang B.O","pincode":"795133","officetype":"B.O","deliverystatus":"Delivery","statename":"MANIPUR","regionname":"North Eastern","circlename":"North Eastern","divisionname":"Manipur","Taluk":"Nil"},{"officename":"Saiton B.O","pincode":"795133","officetype":"B.O","deliverystatus":"Delivery","statename":"MANIPUR","regionname":"North Eastern","circlename":"North Eastern","divisionname":"Manipur","Taluk":"Nil"},{"officename":"Thanga(P) B.O","pincode":"795133","officetype":"B.O","deliverystatus":"Delivery","statename":"MANIPUR","regionname":"North Eastern","circlename":"North Eastern","divisionname":"Manipur","Taluk":"Nil"},{"officename":"Luwangsangol B.O","pincode":"795136","officetype":"B.O","deliverystatus":"Delivery","statename":"MANIPUR","regionname":"North Eastern","circlename":"North Eastern","divisionname":"Manipur","Taluk":"Nil"},{"officename":"Makhan B.O","pincode":"795136","officetype":"B.O","deliverystatus":"Delivery","statename":"MANIPUR","regionname":"North Eastern","circlename":"North Eastern","divisionname":"Manipur","Taluk":"Nil"},{"officename":"Potsangbam Khoiru B.O","pincode":"795136","officetype":"B.O","deliverystatus":"Delivery","statename":"MANIPUR","regionname":"North Eastern","circlename":"North Eastern","divisionname":"Manipur","Taluk":"Sekmai"},{"officename":"Irilbung B.O","pincode":"795008","officetype":"B.O","deliverystatus":"Delivery","statename":"MANIPUR","regionname":"North Eastern","circlename":"North Eastern","divisionname":"Manipur","Taluk":"Nil"},{"officename":"Keirao Bitra Salam B.O","pincode":"795008","officetype":"B.O","deliverystatus":"Delivery","statename":"MANIPUR","regionname":"North Eastern","circlename":"North Eastern","divisionname":"Manipur","Taluk":"Nil"},{"officename":"Keirao Makting B.O","pincode":"795008","officetype":"B.O","deliverystatus":"Delivery","statename":"MANIPUR","regionname":"North Eastern","circlename":"North Eastern","divisionname":"Manipur","Taluk":"Nil"},{"officename":"Keirao Wangkhem B.O","pincode":"795008","officetype":"B.O","deliverystatus":"Delivery","statename":"MANIPUR","regionname":"North Eastern","circlename":"North Eastern","divisionname":"Manipur","Taluk":"Nil"},{"officename":"Khongangpheidekpi B.O","pincode":"795008","officetype":"B.O","deliverystatus":"Delivery","statename":"MANIPUR","regionname":"North Eastern","circlename":"North Eastern","divisionname":"Manipur","Taluk":"Nil"},{"officename":"Kitnapanung B.O","pincode":"795008","officetype":"B.O","deliverystatus":"Delivery","statename":"MANIPUR","regionname":"North Eastern","circlename":"North Eastern","divisionname":"Manipur","Taluk":"Nil"},{"officename":"Kshetrigao B.O","pincode":"795005","officetype":"B.O","deliverystatus":"Delivery","statename":"MANIPUR","regionname":"North Eastern","circlename":"North Eastern","divisionname":"Manipur","Taluk":"Porompat"},{"officename":"Kshetri Bengoon B.O","pincode":"795005","officetype":"B.O","deliverystatus":"Delivery","statename":"MANIPUR","regionname":"North Eastern","circlename":"North Eastern","divisionname":"Manipur","Taluk":"Porompat"},{"officename":"Laiphrak Maring B.O","pincode":"795008","officetype":"B.O","deliverystatus":"Delivery","statename":"MANIPUR","regionname":"North Eastern","circlename":"North Eastern","divisionname":"Manipur","Taluk":"Nil"},{"officename":"Mongkhang Lambi B.O","pincode":"795008","officetype":"B.O","deliverystatus":"Delivery","statename":"MANIPUR","regionname":"North Eastern","circlename":"North Eastern","divisionname":"Manipur","Taluk":"Nil"},{"officename":"Oinam Thingel B.O","pincode":"795008","officetype":"B.O","deliverystatus":"Delivery","statename":"MANIPUR","regionname":"North Eastern","circlename":"North Eastern","divisionname":"Manipur","Taluk":"Nil"},{"officename":"Uchekon B.O","pincode":"795008","officetype":"B.O","deliverystatus":"Delivery","statename":"MANIPUR","regionname":"North Eastern","circlename":"North Eastern","divisionname":"Manipur","Taluk":"Nil"},{"officename":"Kongba Bazar B.O","pincode":"795008","officetype":"B.O","deliverystatus":"Delivery","statename":"MANIPUR","regionname":"North Eastern","circlename":"North Eastern","divisionname":"Manipur","Taluk":"Nil"},{"officename":"Duthang B.O","pincode":"795127","officetype":"B.O","deliverystatus":"Delivery","statename":"MANIPUR","regionname":"North Eastern","circlename":"North Eastern","divisionname":"Manipur","Taluk":"Nil"},{"officename":"Liwasarai B.O","pincode":"795127","officetype":"B.O","deliverystatus":"Delivery","statename":"MANIPUR","regionname":"North Eastern","circlename":"North Eastern","divisionname":"Manipur","Taluk":"Chandel"},{"officename":"Mittong B.O","pincode":"795127","officetype":"B.O","deliverystatus":"Delivery","statename":"MANIPUR","regionname":"North Eastern","circlename":"North Eastern","divisionname":"Manipur","Taluk":"Nil"},{"officename":"Larong B.O","pincode":"795127","officetype":"B.O","deliverystatus":"Delivery","statename":"MANIPUR","regionname":"North Eastern","circlename":"North Eastern","divisionname":"Manipur","Taluk":"Nil"},{"officename":"Ngairangbam B.O","pincode":"795113","officetype":"B.O","deliverystatus":"Delivery","statename":"MANIPUR","regionname":"North Eastern","circlename":"North Eastern","divisionname":"Manipur","Taluk":"Nil"},{"officename":"Patsoi Part II B.O","pincode":"795113","officetype":"B.O","deliverystatus":"Delivery","statename":"MANIPUR","regionname":"North Eastern","circlename":"North Eastern","divisionname":"Manipur","Taluk":"Nil"},{"officename":"Sagoltongba Bazar B.O","pincode":"795113","officetype":"B.O","deliverystatus":"Delivery","statename":"MANIPUR","regionname":"North Eastern","circlename":"North Eastern","divisionname":"Manipur","Taluk":"Nil"},{"officename":"Tairenpokpi B.O","pincode":"795113","officetype":"B.O","deliverystatus":"Delivery","statename":"MANIPUR","regionname":"North Eastern","circlename":"North Eastern","divisionname":"Manipur","Taluk":"Nil"},{"officename":"Takyel Khongbal B.O","pincode":"795113","officetype":"B.O","deliverystatus":"Delivery","statename":"MANIPUR","regionname":"North Eastern","circlename":"North Eastern","divisionname":"Manipur","Taluk":"Nil"},{"officename":"Tharoijam B.O","pincode":"795113","officetype":"B.O","deliverystatus":"Delivery","statename":"MANIPUR","regionname":"North Eastern","circlename":"North Eastern","divisionname":"Manipur","Taluk":"Nil"},{"officename":"Yurembam B.O","pincode":"795113","officetype":"B.O","deliverystatus":"Delivery","statename":"MANIPUR","regionname":"North Eastern","circlename":"North Eastern","divisionname":"Manipur","Taluk":"Nil"},{"officename":"Anal Khullen B.O","pincode":"795102","officetype":"B.O","deliverystatus":"Delivery","statename":"MANIPUR","regionname":"North Eastern","circlename":"North Eastern","divisionname":"Manipur","Taluk":"Nil"},{"officename":"Gobok B.O","pincode":"795102","officetype":"B.O","deliverystatus":"Delivery","statename":"MANIPUR","regionname":"North Eastern","circlename":"North Eastern","divisionname":"Manipur","Taluk":"Nil"},{"officename":"Khubung Khullen B.O","pincode":"795102","officetype":"B.O","deliverystatus":"Delivery","statename":"MANIPUR","regionname":"North Eastern","circlename":"North Eastern","divisionname":"Manipur","Taluk":"Chakpikarong"},{"officename":"Phiran Machet B.O","pincode":"795102","officetype":"B.O","deliverystatus":"Delivery","statename":"MANIPUR","regionname":"North Eastern","circlename":"North Eastern","divisionname":"Manipur","Taluk":"Nil"},{"officename":"Thorchom B.O","pincode":"795102","officetype":"B.O","deliverystatus":"Delivery","statename":"MANIPUR","regionname":"North Eastern","circlename":"North Eastern","divisionname":"Manipur","Taluk":"Nil"},{"officename":"Toupokpi B.O","pincode":"795102","officetype":"B.O","deliverystatus":"Delivery","statename":"MANIPUR","regionname":"North Eastern","circlename":"North Eastern","divisionname":"Manipur","Taluk":"Nil"},{"officename":"Khengjoi B.O","pincode":"795102","officetype":"B.O","deliverystatus":"Delivery","statename":"MANIPUR","regionname":"North Eastern","circlename":"North Eastern","divisionname":"Manipur","Taluk":"Nil"},{"officename":"Monbi B.O","pincode":"795102","officetype":"B.O","deliverystatus":"Delivery","statename":"MANIPUR","regionname":"North Eastern","circlename":"North Eastern","divisionname":"Manipur","Taluk":"Nil"},{"officename":"Sajik Tampak B.O","pincode":"795102","officetype":"B.O","deliverystatus":"Delivery","statename":"MANIPUR","regionname":"North Eastern","circlename":"North Eastern","divisionname":"Manipur","Taluk":"Nil"},{"officename":"Aina B.O","pincode":"795128","officetype":"B.O","deliverystatus":"Delivery","statename":"MANIPUR","regionname":"North Eastern","circlename":"North Eastern","divisionname":"Manipur","Taluk":"Nil"},{"officename":"Waiton B.O","pincode":"795114","officetype":"B.O","deliverystatus":"Delivery","statename":"MANIPUR","regionname":"North Eastern","circlename":"North Eastern","divisionname":"Manipur","Taluk":"Nil"},{"officename":"Wakhen Phai B.O","pincode":"795114","officetype":"B.O","deliverystatus":"Delivery","statename":"MANIPUR","regionname":"North Eastern","circlename":"North Eastern","divisionname":"Manipur","Taluk":"Nil"},{"officename":"Yumnam Khunou B.O","pincode":"795114","officetype":"B.O","deliverystatus":"Delivery","statename":"MANIPUR","regionname":"North Eastern","circlename":"North Eastern","divisionname":"Manipur","Taluk":"Pangei Yangdong S.O"},{"officename":"Uyumpok B.O","pincode":"795114","officetype":"B.O","deliverystatus":"Delivery","statename":"MANIPUR","regionname":"North Eastern","circlename":"North Eastern","divisionname":"Manipur","Taluk":"Nil"},{"officename":"Aimol Kodamphai B.O","pincode":"795135","officetype":"B.O","deliverystatus":"Delivery","statename":"MANIPUR","regionname":"North Eastern","circlename":"North Eastern","divisionname":"Manipur","Taluk":"Nil"},{"officename":"Angbrashu B.O","pincode":"795135","officetype":"B.O","deliverystatus":"Delivery","statename":"MANIPUR","regionname":"North Eastern","circlename":"North Eastern","divisionname":"Manipur","Taluk":"Nil"},{"officename":"Chelhep B.O","pincode":"795135","officetype":"B.O","deliverystatus":"Delivery","statename":"MANIPUR","regionname":"North Eastern","circlename":"North Eastern","divisionname":"Manipur","Taluk":"Nil"},{"officename":"Kambang Khunou B.O","pincode":"795135","officetype":"B.O","deliverystatus":"Delivery","statename":"MANIPUR","regionname":"North Eastern","circlename":"North Eastern","divisionname":"Manipur","Taluk":"Nil"},{"officename":"Kharou Khullen B.O","pincode":"795135","officetype":"B.O","deliverystatus":"Delivery","statename":"MANIPUR","regionname":"North Eastern","circlename":"North Eastern","divisionname":"Manipur","Taluk":"Nil"},{"officename":"Khudei Khullen B.O","pincode":"795135","officetype":"B.O","deliverystatus":"Delivery","statename":"MANIPUR","regionname":"North Eastern","circlename":"North Eastern","divisionname":"Manipur","Taluk":"Pallel"},{"officename":"Khoibu B.O","pincode":"795135","officetype":"B.O","deliverystatus":"Delivery","statename":"MANIPUR","regionname":"North Eastern","circlename":"North Eastern","divisionname":"Manipur","Taluk":"Nil"},{"officename":"Khunbi B.O","pincode":"795135","officetype":"B.O","deliverystatus":"Delivery","statename":"MANIPUR","regionname":"North Eastern","circlename":"North Eastern","divisionname":"Manipur","Taluk":"Nil"},{"officename":"Khousat (T/C/D) B.O","pincode":"795135","officetype":"B.O","deliverystatus":"Delivery","statename":"MANIPUR","regionname":"North Eastern","circlename":"North Eastern","divisionname":"Manipur","Taluk":"Nil"},{"officename":"Lamlong Khunou B.O","pincode":"795135","officetype":"B.O","deliverystatus":"Delivery","statename":"MANIPUR","regionname":"North Eastern","circlename":"North Eastern","divisionname":"Manipur","Taluk":"Nil"},{"officename":"Lamkang Khunou B.O","pincode":"795135","officetype":"B.O","deliverystatus":"Delivery","statename":"MANIPUR","regionname":"North Eastern","circlename":"North Eastern","divisionname":"Manipur","Taluk":"Nil"},{"officename":"Laiching Tangsang B.O","pincode":"795135","officetype":"B.O","deliverystatus":"Delivery","statename":"MANIPUR","regionname":"North Eastern","circlename":"North Eastern","divisionname":"Manipur","Taluk":"Pallel"},{"officename":"Leibi B.O","pincode":"795135","officetype":"B.O","deliverystatus":"Delivery","statename":"MANIPUR","regionname":"North Eastern","circlename":"North Eastern","divisionname":"Manipur","Taluk":"Nil"},{"officename":"Liwachangning B.O","pincode":"795135","officetype":"B.O","deliverystatus":"Delivery","statename":"MANIPUR","regionname":"North Eastern","circlename":"North Eastern","divisionname":"Manipur","Taluk":"Nil"},{"officename":"Lamlong Khullen B.O","pincode":"795135","officetype":"B.O","deliverystatus":"Delivery","statename":"MANIPUR","regionname":"North Eastern","circlename":"North Eastern","divisionname":"Manipur","Taluk":"Nil"},{"officename":"Narum B.O","pincode":"795135","officetype":"B.O","deliverystatus":"Delivery","statename":"MANIPUR","regionname":"North Eastern","circlename":"North Eastern","divisionname":"Manipur","Taluk":"Nil"},{"officename":"Saibhom B.O","pincode":"795135","officetype":"B.O","deliverystatus":"Delivery","statename":"MANIPUR","regionname":"North Eastern","circlename":"North Eastern","divisionname":"Manipur","Taluk":"Nil"},{"officename":"Sita B.O","pincode":"795135","officetype":"B.O","deliverystatus":"Delivery","statename":"MANIPUR","regionname":"North Eastern","circlename":"North Eastern","divisionname":"Manipur","Taluk":"Nil"},{"officename":"Minou Khunjao B.O","pincode":"795135","officetype":"B.O","deliverystatus":"Delivery","statename":"MANIPUR","regionname":"North Eastern","circlename":"North Eastern","divisionname":"Manipur","Taluk":"Nil"},{"officename":"Chatong B.O","pincode":"795135","officetype":"B.O","deliverystatus":"Delivery","statename":"MANIPUR","regionname":"North Eastern","circlename":"North Eastern","divisionname":"Manipur","Taluk":"Pallel"},{"officename":"Bongli B.O","pincode":"795135","officetype":"B.O","deliverystatus":"Delivery","statename":"MANIPUR","regionname":"North Eastern","circlename":"North Eastern","divisionname":"Manipur","Taluk":"Nil"},{"officename":"Machi B.O","pincode":"795135","officetype":"B.O","deliverystatus":"Delivery","statename":"MANIPUR","regionname":"North Eastern","circlename":"North Eastern","divisionname":"Manipur","Taluk":"Nil"},{"officename":"Khangbarol B.O","pincode":"795135","officetype":"B.O","deliverystatus":"Delivery","statename":"MANIPUR","regionname":"North Eastern","circlename":"North Eastern","divisionname":"Manipur","Taluk":"Pallel"},{"officename":"Moltek B.O","pincode":"795135","officetype":"B.O","deliverystatus":"Delivery","statename":"MANIPUR","regionname":"North Eastern","circlename":"North Eastern","divisionname":"Manipur","Taluk":"Nil"},{"officename":"Songjang B.O","pincode":"795135","officetype":"B.O","deliverystatus":"Delivery","statename":"MANIPUR","regionname":"North Eastern","circlename":"North Eastern","divisionname":"Manipur","Taluk":"Nil"},{"officename":"Molhang B.O","pincode":"795135","officetype":"B.O","deliverystatus":"Delivery","statename":"MANIPUR","regionname":"North Eastern","circlename":"North Eastern","divisionname":"Manipur","Taluk":"Nil"},{"officename":"Thamnapokpi B.O","pincode":"795135","officetype":"B.O","deliverystatus":"Delivery","statename":"MANIPUR","regionname":"North Eastern","circlename":"North Eastern","divisionname":"Manipur","Taluk":"Nil"},{"officename":"Behiang B.O","pincode":"795139","officetype":"B.O","deliverystatus":"Delivery","statename":"MANIPUR","regionname":"North Eastern","circlename":"North Eastern","divisionname":"Manipur","Taluk":"Nil"},{"officename":"Hengtam B.O","pincode":"795139","officetype":"B.O","deliverystatus":"Delivery","statename":"MANIPUR","regionname":"North Eastern","circlename":"North Eastern","divisionname":"Manipur","Taluk":"Nil"},{"officename":"Kangkap B.O","pincode":"795139","officetype":"B.O","deliverystatus":"Delivery","statename":"MANIPUR","regionname":"North Eastern","circlename":"North Eastern","divisionname":"Manipur","Taluk":"Nil"},{"officename":"Lama Camp B.O","pincode":"795139","officetype":"B.O","deliverystatus":"Delivery","statename":"MANIPUR","regionname":"North Eastern","circlename":"North Eastern","divisionname":"Manipur","Taluk":"Nil"},{"officename":"Lungchin B.O","pincode":"795139","officetype":"B.O","deliverystatus":"Delivery","statename":"MANIPUR","regionname":"North Eastern","circlename":"North Eastern","divisionname":"Manipur","Taluk":"Nil"},{"officename":"Lungthul(L.Daijang) B.O","pincode":"795139","officetype":"B.O","deliverystatus":"Delivery","statename":"MANIPUR","regionname":"North Eastern","circlename":"North Eastern","divisionname":"Manipur","Taluk":"Singhat"},{"officename":"Mualmun B.O","pincode":"795139","officetype":"B.O","deliverystatus":"Delivery","statename":"MANIPUR","regionname":"North Eastern","circlename":"North Eastern","divisionname":"Manipur","Taluk":"Nil"},{"officename":"Siabu B.O","pincode":"795139","officetype":"B.O","deliverystatus":"Delivery","statename":"MANIPUR","regionname":"North Eastern","circlename":"North Eastern","divisionname":"Manipur","Taluk":"Nil"},{"officename":"Songtal B.O","pincode":"795139","officetype":"B.O","deliverystatus":"Delivery","statename":"MANIPUR","regionname":"North Eastern","circlename":"North Eastern","divisionname":"Manipur","Taluk":"Nil"},{"officename":"Suangdoh B.O","pincode":"795139","officetype":"B.O","deliverystatus":"Delivery","statename":"MANIPUR","regionname":"North Eastern","circlename":"North Eastern","divisionname":"Manipur","Taluk":"Singhat"},{"officename":"Vokbual B.O","pincode":"795139","officetype":"B.O","deliverystatus":"Delivery","statename":"MANIPUR","regionname":"North Eastern","circlename":"North Eastern","divisionname":"Manipur","Taluk":"Nil"},{"officename":"Chairen B.O","pincode":"795101","officetype":"B.O","deliverystatus":"Delivery","statename":"MANIPUR","regionname":"North Eastern","circlename":"North Eastern","divisionname":"Manipur","Taluk":"Nil"},{"officename":"K. Molnam B.O","pincode":"795101","officetype":"B.O","deliverystatus":"Delivery","statename":"MANIPUR","regionname":"North Eastern","circlename":"North Eastern","divisionname":"Manipur","Taluk":"Nil"},{"officename":"Khambathel B.O","pincode":"795101","officetype":"B.O","deliverystatus":"Delivery","statename":"MANIPUR","regionname":"North Eastern","circlename":"North Eastern","divisionname":"Manipur","Taluk":"Nil"},{"officename":"Chaiton B.O","pincode":"795125","officetype":"B.O","deliverystatus":"Delivery","statename":"MANIPUR","regionname":"North Eastern","circlename":"North Eastern","divisionname":"Manipur","Taluk":"Nil"},{"officename":"Dullen (T/C/D) B.O","pincode":"795125","officetype":"B.O","deliverystatus":"Delivery","statename":"MANIPUR","regionname":"North Eastern","circlename":"North Eastern","divisionname":"Manipur","Taluk":"Nil"},{"officename":"Khongnangpheisabi B.O","pincode":"795101","officetype":"B.O","deliverystatus":"Delivery","statename":"MANIPUR","regionname":"North Eastern","circlename":"North Eastern","divisionname":"Manipur","Taluk":"Sugnu"},{"officename":"Julbalching B.O","pincode":"795101","officetype":"B.O","deliverystatus":"Delivery","statename":"MANIPUR","regionname":"North Eastern","circlename":"North Eastern","divisionname":"Manipur","Taluk":"Sugnu"},{"officename":"Longja B.O","pincode":"795101","officetype":"B.O","deliverystatus":"Delivery","statename":"MANIPUR","regionname":"North Eastern","circlename":"North Eastern","divisionname":"Manipur","Taluk":"Nil"},{"officename":"Mahou Tera B.O","pincode":"795101","officetype":"B.O","deliverystatus":"Delivery","statename":"MANIPUR","regionname":"North Eastern","circlename":"North Eastern","divisionname":"Manipur","Taluk":"Nil"},{"officename":"M Bongmol B.O","pincode":"795101","officetype":"B.O","deliverystatus":"Delivery","statename":"MANIPUR","regionname":"North Eastern","circlename":"North Eastern","divisionname":"Manipur","Taluk":"Nil"},{"officename":"Sangaikot B.O","pincode":"795101","officetype":"B.O","deliverystatus":"Delivery","statename":"MANIPUR","regionname":"North Eastern","circlename":"North Eastern","divisionname":"Manipur","Taluk":"Nil"},{"officename":"Serou B.O","pincode":"795101","officetype":"B.O","deliverystatus":"Delivery","statename":"MANIPUR","regionname":"North Eastern","circlename":"North Eastern","divisionname":"Manipur","Taluk":"Nil"},{"officename":"Shahumphai B.O","pincode":"795101","officetype":"B.O","deliverystatus":"Delivery","statename":"MANIPUR","regionname":"North Eastern","circlename":"North Eastern","divisionname":"Manipur","Taluk":"Nil"},{"officename":"Bunglong B.O","pincode":"795118","officetype":"B.O","deliverystatus":"Delivery","statename":"MANIPUR","regionname":"North Eastern","circlename":"North Eastern","divisionname":"Manipur","Taluk":"Nil"},{"officename":"Galam B.O","pincode":"795118","officetype":"B.O","deliverystatus":"Delivery","statename":"MANIPUR","regionname":"North Eastern","circlename":"North Eastern","divisionname":"Manipur","Taluk":"Nil"},{"officename":"Gangpijang B.O","pincode":"795118","officetype":"B.O","deliverystatus":"Delivery","statename":"MANIPUR","regionname":"North Eastern","circlename":"North Eastern","divisionname":"Manipur","Taluk":"Nil"},{"officename":"Ichaigojang B.O","pincode":"795118","officetype":"B.O","deliverystatus":"Delivery","statename":"MANIPUR","regionname":"North Eastern","circlename":"North Eastern","divisionname":"Manipur","Taluk":"Nil"},{"officename":"Chawanamei B.O","pincode":"795104","officetype":"B.O","deliverystatus":"Delivery","statename":"MANIPUR","regionname":"North Eastern","circlename":"North Eastern","divisionname":"Manipur","Taluk":"Nil"},{"officename":"Chingai Khullen B.O","pincode":"795104","officetype":"B.O","deliverystatus":"Delivery","statename":"MANIPUR","regionname":"North Eastern","circlename":"North Eastern","divisionname":"Manipur","Taluk":"Nil"},{"officename":"Kaibi B.O","pincode":"795104","officetype":"B.O","deliverystatus":"Delivery","statename":"MANIPUR","regionname":"North Eastern","circlename":"North Eastern","divisionname":"Manipur","Taluk":"Nil"},{"officename":"Laii B.O","pincode":"795104","officetype":"B.O","deliverystatus":"Delivery","statename":"MANIPUR","regionname":"North Eastern","circlename":"North Eastern","divisionname":"Manipur","Taluk":"Nil"},{"officename":"Liyai B.O","pincode":"795104","officetype":"B.O","deliverystatus":"Delivery","statename":"MANIPUR","regionname":"North Eastern","circlename":"North Eastern","divisionname":"Manipur","Taluk":"Nil"},{"officename":"Liyai Khunou B.O","pincode":"795104","officetype":"B.O","deliverystatus":"Delivery","statename":"MANIPUR","regionname":"North Eastern","circlename":"North Eastern","divisionname":"Manipur","Taluk":"Tadubi"},{"officename":"Paomata Centre B.O","pincode":"795104","officetype":"B.O","deliverystatus":"Delivery","statename":"MANIPUR","regionname":"North Eastern","circlename":"North Eastern","divisionname":"Manipur","Taluk":"Nil"},{"officename":"Saranamei B.O","pincode":"795104","officetype":"B.O","deliverystatus":"Delivery","statename":"MANIPUR","regionname":"North Eastern","circlename":"North Eastern","divisionname":"Manipur","Taluk":"Nil"},{"officename":"Siraffi B.O","pincode":"795104","officetype":"B.O","deliverystatus":"Delivery","statename":"MANIPUR","regionname":"North Eastern","circlename":"North Eastern","divisionname":"Manipur","Taluk":"Nil"},{"officename":"Tungjoy B.O","pincode":"795104","officetype":"B.O","deliverystatus":"Delivery","statename":"MANIPUR","regionname":"North Eastern","circlename":"North Eastern","divisionname":"Manipur","Taluk":"Nil"},{"officename":"Phaibung Khullen B.O","pincode":"795104","officetype":"B.O","deliverystatus":"Delivery","statename":"MANIPUR","regionname":"North Eastern","circlename":"North Eastern","divisionname":"Manipur","Taluk":"Nil"},{"officename":"Atang Khunou B.O","pincode":"795125","officetype":"B.O","deliverystatus":"Delivery","statename":"MANIPUR","regionname":"North Eastern","circlename":"North Eastern","divisionname":"Manipur","Taluk":"Nil"},{"officename":"Illong B.O","pincode":"795125","officetype":"B.O","deliverystatus":"Delivery","statename":"MANIPUR","regionname":"North Eastern","circlename":"North Eastern","divisionname":"Manipur","Taluk":"Nil"},{"officename":"Jampii (T/C/D) B.O","pincode":"795125","officetype":"B.O","deliverystatus":"Delivery","statename":"MANIPUR","regionname":"North Eastern","circlename":"North Eastern","divisionname":"Manipur","Taluk":"Nil"},{"officename":"Khumphung B.O","pincode":"795125","officetype":"B.O","deliverystatus":"Delivery","statename":"MANIPUR","regionname":"North Eastern","circlename":"North Eastern","divisionname":"Manipur","Taluk":"Nil"},{"officename":"Lemta B.O","pincode":"795125","officetype":"B.O","deliverystatus":"Delivery","statename":"MANIPUR","regionname":"North Eastern","circlename":"North Eastern","divisionname":"Manipur","Taluk":"Nil"},{"officename":"Lenglong B.O","pincode":"795125","officetype":"B.O","deliverystatus":"Delivery","statename":"MANIPUR","regionname":"North Eastern","circlename":"North Eastern","divisionname":"Manipur","Taluk":"Nil"},{"officename":"Kadi B.O","pincode":"795125","officetype":"B.O","deliverystatus":"Delivery","statename":"MANIPUR","regionname":"North Eastern","circlename":"North Eastern","divisionname":"Manipur","Taluk":"Nil"},{"officename":"Magulong B.O","pincode":"795125","officetype":"B.O","deliverystatus":"Delivery","statename":"MANIPUR","regionname":"North Eastern","circlename":"North Eastern","divisionname":"Manipur","Taluk":"Nil"},{"officename":"New Lamlaba B.O","pincode":"795125","officetype":"B.O","deliverystatus":"Delivery","statename":"MANIPUR","regionname":"North Eastern","circlename":"North Eastern","divisionname":"Manipur","Taluk":"Tamei"},{"officename":"Upper Selsi (T/c/d) B.O","pincode":"795125","officetype":"B.O","deliverystatus":"Delivery","statename":"MANIPUR","regionname":"North Eastern","circlename":"North Eastern","divisionname":"Manipur","Taluk":"Nil"},{"officename":"Kuilong B.O","pincode":"795125","officetype":"B.O","deliverystatus":"Delivery","statename":"MANIPUR","regionname":"North Eastern","circlename":"North Eastern","divisionname":"Manipur","Taluk":"Nil"},{"officename":"Kasanlong B.O","pincode":"795125","officetype":"B.O","deliverystatus":"Delivery","statename":"MANIPUR","regionname":"North Eastern","circlename":"North Eastern","divisionname":"Manipur","Taluk":"Nil"},{"officename":"Takou B.O","pincode":"795125","officetype":"B.O","deliverystatus":"Delivery","statename":"MANIPUR","regionname":"North Eastern","circlename":"North Eastern","divisionname":"Manipur","Taluk":"Nil"},{"officename":"Athokpam B.O","pincode":"795138","officetype":"B.O","deliverystatus":"Delivery","statename":"MANIPUR","regionname":"North Eastern","circlename":"North Eastern","divisionname":"Manipur","Taluk":"Nil"},{"officename":"Athokpam Khunou B.O","pincode":"795138","officetype":"B.O","deliverystatus":"Delivery","statename":"MANIPUR","regionname":"North Eastern","circlename":"North Eastern","divisionname":"Manipur","Taluk":"Nil"},{"officename":"Charangpat B.O","pincode":"795138","officetype":"B.O","deliverystatus":"Delivery","statename":"MANIPUR","regionname":"North Eastern","circlename":"North Eastern","divisionname":"Manipur","Taluk":"Nil"},{"officename":"Haokha B.O","pincode":"795138","officetype":"B.O","deliverystatus":"Delivery","statename":"MANIPUR","regionname":"North Eastern","circlename":"North Eastern","divisionname":"Manipur","Taluk":"Nil"},{"officename":"Dailong B.O","pincode":"795141","officetype":"B.O","deliverystatus":"Delivery","statename":"MANIPUR","regionname":"North Eastern","circlename":"North Eastern","divisionname":"Manipur","Taluk":"Nil"},{"officename":"Kahulong B.O","pincode":"795141","officetype":"B.O","deliverystatus":"Delivery","statename":"MANIPUR","regionname":"North Eastern","circlename":"North Eastern","divisionname":"Manipur","Taluk":"Nil"},{"officename":"Khongjaron B.O","pincode":"795141","officetype":"B.O","deliverystatus":"Delivery","statename":"MANIPUR","regionname":"North Eastern","circlename":"North Eastern","divisionname":"Manipur","Taluk":"Nil"},{"officename":"Hanship B.O","pincode":"795006","officetype":"B.O","deliverystatus":"Delivery","statename":"MANIPUR","regionname":"North Eastern","circlename":"North Eastern","divisionname":"Manipur","Taluk":"New Lamka"},{"officename":"Dolang B.O","pincode":"795126","officetype":"B.O","deliverystatus":"Delivery","statename":"MANIPUR","regionname":"North Eastern","circlename":"North Eastern","divisionname":"Manipur","Taluk":"Nil"},{"officename":"Henbung B.O","pincode":"795129","officetype":"B.O","deliverystatus":"Delivery","statename":"MANIPUR","regionname":"North Eastern","circlename":"North Eastern","divisionname":"Manipur","Taluk":"Kangpokpi"},{"officename":"Kangpokpi Mission B.O","pincode":"795129","officetype":"B.O","deliverystatus":"Delivery","statename":"MANIPUR","regionname":"North Eastern","circlename":"North Eastern","divisionname":"Manipur","Taluk":"Nil"},{"officename":"Maohiing B.O","pincode":"795129","officetype":"B.O","deliverystatus":"Delivery","statename":"MANIPUR","regionname":"North Eastern","circlename":"North Eastern","divisionname":"Manipur","Taluk":"Nil"},{"officename":"Toribari B.O","pincode":"795129","officetype":"B.O","deliverystatus":"Delivery","statename":"MANIPUR","regionname":"North Eastern","circlename":"North Eastern","divisionname":"Manipur","Taluk":"Nil"},{"officename":"Taphou B.O","pincode":"795129","officetype":"B.O","deliverystatus":"Delivery","statename":"MANIPUR","regionname":"North Eastern","circlename":"North Eastern","divisionname":"Manipur","Taluk":"Nil"},{"officename":"Thonglang B.O","pincode":"795129","officetype":"B.O","deliverystatus":"Delivery","statename":"MANIPUR","regionname":"North Eastern","circlename":"North Eastern","divisionname":"Manipur","Taluk":"Nil"},{"officename":"Maohing B.O","pincode":"795129","officetype":"B.O","deliverystatus":"Delivery","statename":"MANIPUR","regionname":"North Eastern","circlename":"North Eastern","divisionname":"Manipur","Taluk":"Nil"},{"officename":"Arong Nongmaikhong B.O","pincode":"795103","officetype":"B.O","deliverystatus":"Delivery","statename":"MANIPUR","regionname":"North Eastern","circlename":"North Eastern","divisionname":"Manipur","Taluk":"Nil"},{"officename":"Elangkhangpokpi B.O","pincode":"795103","officetype":"B.O","deliverystatus":"Delivery","statename":"MANIPUR","regionname":"North Eastern","circlename":"North Eastern","divisionname":"Manipur","Taluk":"Nil"},{"officename":"Hiyanglam B.O","pincode":"795103","officetype":"B.O","deliverystatus":"Delivery","statename":"MANIPUR","regionname":"North Eastern","circlename":"North Eastern","divisionname":"Manipur","Taluk":"Kakching"},{"officename":"Kakching Khunou B.O","pincode":"795103","officetype":"B.O","deliverystatus":"Delivery","statename":"MANIPUR","regionname":"North Eastern","circlename":"North Eastern","divisionname":"Manipur","Taluk":"Kakching"},{"officename":"Kalikalok B.O","pincode":"795103","officetype":"B.O","deliverystatus":"Delivery","statename":"MANIPUR","regionname":"North Eastern","circlename":"North Eastern","divisionname":"Manipur","Taluk":"Nil"},{"officename":"Keirak B.O","pincode":"795103","officetype":"B.O","deliverystatus":"Delivery","statename":"MANIPUR","regionname":"North Eastern","circlename":"North Eastern","divisionname":"Manipur","Taluk":"Nil"},{"officename":"K M College B.O","pincode":"795103","officetype":"B.O","deliverystatus":"Delivery","statename":"MANIPUR","regionname":"North Eastern","circlename":"North Eastern","divisionname":"Manipur","Taluk":"Nil"},{"officename":"Khudei Khunou B.O","pincode":"795103","officetype":"B.O","deliverystatus":"Delivery","statename":"MANIPUR","regionname":"North Eastern","circlename":"North Eastern","divisionname":"Manipur","Taluk":"Nil"},{"officename":"Langmeidong B.O","pincode":"795103","officetype":"B.O","deliverystatus":"Delivery","statename":"MANIPUR","regionname":"North Eastern","circlename":"North Eastern","divisionname":"Manipur","Taluk":"Kakching"},{"officename":"Leingangching B.O","pincode":"795103","officetype":"B.O","deliverystatus":"Delivery","statename":"MANIPUR","regionname":"North Eastern","circlename":"North Eastern","divisionname":"Manipur","Taluk":"Nil"},{"officename":"Mairembam B.O","pincode":"795103","officetype":"B.O","deliverystatus":"Delivery","statename":"MANIPUR","regionname":"North Eastern","circlename":"North Eastern","divisionname":"Manipur","Taluk":"Nil"},{"officename":"Mantak B.O","pincode":"795103","officetype":"B.O","deliverystatus":"Delivery","statename":"MANIPUR","regionname":"North Eastern","circlename":"North Eastern","divisionname":"Manipur","Taluk":"Nil"},{"officename":"Kakching Lamkhai B.O","pincode":"795103","officetype":"B.O","deliverystatus":"Delivery","statename":"MANIPUR","regionname":"North Eastern","circlename":"North Eastern","divisionname":"Manipur","Taluk":"Kakching"},{"officename":"Pangaltabi B.O","pincode":"795103","officetype":"B.O","deliverystatus":"Delivery","statename":"MANIPUR","regionname":"North Eastern","circlename":"North Eastern","divisionname":"Manipur","Taluk":"Nil"},{"officename":"Purum Pantha B.O","pincode":"795103","officetype":"B.O","deliverystatus":"Delivery","statename":"MANIPUR","regionname":"North Eastern","circlename":"North Eastern","divisionname":"Manipur","Taluk":"Nil"},{"officename":"Naoremthong Bazar B.O","pincode":"795004","officetype":"B.O","deliverystatus":"Delivery","statename":"MANIPUR","regionname":"North Eastern","circlename":"North Eastern","divisionname":"Manipur","Taluk":"Lamkhelpat"},{"officename":"Sagolband Thingom Leikai B.O","pincode":"795004","officetype":"B.O","deliverystatus":"Delivery","statename":"MANIPUR","regionname":"North Eastern","circlename":"North Eastern","divisionname":"Manipur","Taluk":"Nil"},{"officename":"Sayang Kuraomakhong B.O","pincode":"795004","officetype":"B.O","deliverystatus":"Delivery","statename":"MANIPUR","regionname":"North Eastern","circlename":"North Eastern","divisionname":"Manipur","Taluk":"Nil"},{"officename":"Tera Bazar B.O","pincode":"795004","officetype":"B.O","deliverystatus":"Delivery","statename":"MANIPUR","regionname":"North Eastern","circlename":"North Eastern","divisionname":"Manipur","Taluk":"Nil"},{"officename":"Central Agriculture University B.O","pincode":"795004","officetype":"B.O","deliverystatus":"Delivery","statename":"MANIPUR","regionname":"North Eastern","circlename":"North Eastern","divisionname":"Manipur","Taluk":"Nil"},{"officename":"Heibongpokpi B.O","pincode":"795146","officetype":"B.O","deliverystatus":"Delivery","statename":"MANIPUR","regionname":"North Eastern","circlename":"North Eastern","divisionname":"Manipur","Taluk":"Nil"},{"officename":"Ijairong B.O","pincode":"795146","officetype":"B.O","deliverystatus":"Delivery","statename":"MANIPUR","regionname":"North Eastern","circlename":"North Eastern","divisionname":"Manipur","Taluk":"Nil"},{"officename":"Irengnaga B.O","pincode":"795146","officetype":"B.O","deliverystatus":"Delivery","statename":"MANIPUR","regionname":"North Eastern","circlename":"North Eastern","divisionname":"Manipur","Taluk":"Nil"},{"officename":"Khungdong Khungkhaiba B.O","pincode":"795146","officetype":"B.O","deliverystatus":"Delivery","statename":"MANIPUR","regionname":"North Eastern","circlename":"North Eastern","divisionname":"Manipur","Taluk":"Lamsang"},{"officename":"Kangchup Chiru B.O","pincode":"795146","officetype":"B.O","deliverystatus":"Delivery","statename":"MANIPUR","regionname":"North Eastern","circlename":"North Eastern","divisionname":"Manipur","Taluk":"Nil"},{"officename":"Kangchup Hill (P) B.O","pincode":"795146","officetype":"B.O","deliverystatus":"Delivery","statename":"MANIPUR","regionname":"North Eastern","circlename":"North Eastern","divisionname":"Manipur","Taluk":"Nil"},{"officename":"Kangchup Makhong B.O","pincode":"795146","officetype":"B.O","deliverystatus":"Delivery","statename":"MANIPUR","regionname":"North Eastern","circlename":"North Eastern","divisionname":"Manipur","Taluk":"Nil"},{"officename":"Lairen Sajik B.O","pincode":"795146","officetype":"B.O","deliverystatus":"Delivery","statename":"MANIPUR","regionname":"North Eastern","circlename":"North Eastern","divisionname":"Manipur","Taluk":"Nil"},{"officename":"Lamdeng B.O","pincode":"795146","officetype":"B.O","deliverystatus":"Delivery","statename":"MANIPUR","regionname":"North Eastern","circlename":"North Eastern","divisionname":"Manipur","Taluk":"Nil"},{"officename":"Christian Centre Haochong B.O","pincode":"795146","officetype":"B.O","deliverystatus":"Delivery","statename":"MANIPUR","regionname":"North Eastern","circlename":"North Eastern","divisionname":"Manipur","Taluk":"Lamsang"},{"officename":"Mongsangei B.O","pincode":"795003","officetype":"B.O","deliverystatus":"Delivery","statename":"MANIPUR","regionname":"North Eastern","circlename":"North Eastern","divisionname":"Manipur","Taluk":"Nil"},{"officename":"Ningombam B.O","pincode":"795003","officetype":"B.O","deliverystatus":"Delivery","statename":"MANIPUR","regionname":"North Eastern","circlename":"North Eastern","divisionname":"Manipur","Taluk":"Nil"},{"officename":"Ahallup B.O","pincode":"795002","officetype":"B.O","deliverystatus":"Delivery","statename":"MANIPUR","regionname":"North Eastern","circlename":"North Eastern","divisionname":"Manipur","Taluk":"Nil"},{"officename":"Phunanamei B.O","pincode":"795150","officetype":"B.O","deliverystatus":"Delivery","statename":"MANIPUR","regionname":"North Eastern","circlename":"North Eastern","divisionname":"Manipur","Taluk":"Nil"},{"officename":"Pudunamei B.O","pincode":"795150","officetype":"B.O","deliverystatus":"Delivery","statename":"MANIPUR","regionname":"North Eastern","circlename":"North Eastern","divisionname":"Manipur","Taluk":"Nil"},{"officename":"Haoreibi B.O","pincode":"795009","officetype":"B.O","deliverystatus":"Delivery","statename":"MANIPUR","regionname":"North Eastern","circlename":"North Eastern","divisionname":"Manipur","Taluk":"Nil"},{"officename":"Andro B.O","pincode":"795149","officetype":"B.O","deliverystatus":"Delivery","statename":"MANIPUR","regionname":"North Eastern","circlename":"North Eastern","divisionname":"Manipur","Taluk":"Nil;"},{"officename":"Angtha B.O","pincode":"795149","officetype":"B.O","deliverystatus":"Delivery","statename":"MANIPUR","regionname":"North Eastern","circlename":"North Eastern","divisionname":"Manipur","Taluk":"Nil"},{"officename":"Bongbal Khullen B.O","pincode":"795149","officetype":"B.O","deliverystatus":"Delivery","statename":"MANIPUR","regionname":"North Eastern","circlename":"North Eastern","divisionname":"Manipur","Taluk":"Nil"},{"officename":"Changamdabi B.O","pincode":"795149","officetype":"B.O","deliverystatus":"Delivery","statename":"MANIPUR","regionname":"North Eastern","circlename":"North Eastern","divisionname":"Manipur","Taluk":"Nil"},{"officename":"Haokhongching B.O","pincode":"795149","officetype":"B.O","deliverystatus":"Delivery","statename":"MANIPUR","regionname":"North Eastern","circlename":"North Eastern","divisionname":"Manipur","Taluk":"Nil"},{"officename":"Huikap B.O","pincode":"795149","officetype":"B.O","deliverystatus":"Delivery","statename":"MANIPUR","regionname":"North Eastern","circlename":"North Eastern","divisionname":"Manipur","Taluk":"Yairipok"},{"officename":"Heinganglok B.O","pincode":"795149","officetype":"B.O","deliverystatus":"Delivery","statename":"MANIPUR","regionname":"North Eastern","circlename":"North Eastern","divisionname":"Manipur","Taluk":"Nil"},{"officename":"Irong Tangkhul B.O","pincode":"795149","officetype":"B.O","deliverystatus":"Delivery","statename":"MANIPUR","regionname":"North Eastern","circlename":"North Eastern","divisionname":"Manipur","Taluk":"Nil"},{"officename":"Kamuching B.O","pincode":"795149","officetype":"B.O","deliverystatus":"Delivery","statename":"MANIPUR","regionname":"North Eastern","circlename":"North Eastern","divisionname":"Manipur","Taluk":"Nil"},{"officename":"Kamu Tampak B.O","pincode":"795149","officetype":"B.O","deliverystatus":"Delivery","statename":"MANIPUR","regionname":"North Eastern","circlename":"North Eastern","divisionname":"Manipur","Taluk":"Nil"},{"officename":"Kamu Tongnom B.O","pincode":"795149","officetype":"B.O","deliverystatus":"Delivery","statename":"MANIPUR","regionname":"North Eastern","circlename":"North Eastern","divisionname":"Manipur","Taluk":"Yairipok"},{"officename":"Khonglou Vaiphei (T/C/D) B.O","pincode":"795149","officetype":"B.O","deliverystatus":"Delivery","statename":"MANIPUR","regionname":"North Eastern","circlename":"North Eastern","divisionname":"Manipur","Taluk":"Nil"},{"officename":"Khoirom B.O","pincode":"795149","officetype":"B.O","deliverystatus":"Delivery","statename":"MANIPUR","regionname":"North Eastern","circlename":"North Eastern","divisionname":"Manipur","Taluk":"Nil"},{"officename":"Kasom Khullen B.O","pincode":"795149","officetype":"B.O","deliverystatus":"Delivery","statename":"MANIPUR","regionname":"North Eastern","circlename":"North Eastern","divisionname":"Manipur","Taluk":"Nil"},{"officename":"Lourembam B.O","pincode":"795149","officetype":"B.O","deliverystatus":"Delivery","statename":"MANIPUR","regionname":"North Eastern","circlename":"North Eastern","divisionname":"Manipur","Taluk":"Yairipok"},{"officename":"Lungthar B.O","pincode":"795149","officetype":"B.O","deliverystatus":"Delivery","statename":"MANIPUR","regionname":"North Eastern","circlename":"North Eastern","divisionname":"Manipur","Taluk":"Nil"},{"officename":"Mollen (T/C/D) B.O","pincode":"795149","officetype":"B.O","deliverystatus":"Delivery","statename":"MANIPUR","regionname":"North Eastern","circlename":"North Eastern","divisionname":"Manipur","Taluk":"Nil"},{"officename":"Nongpok Sekmai B.O","pincode":"795149","officetype":"B.O","deliverystatus":"Delivery","statename":"MANIPUR","regionname":"North Eastern","circlename":"North Eastern","divisionname":"Manipur","Taluk":"Nil"},{"officename":"Phouoibi B.O","pincode":"795149","officetype":"B.O","deliverystatus":"Delivery","statename":"MANIPUR","regionname":"North Eastern","circlename":"North Eastern","divisionname":"Manipur","Taluk":"Nil"},{"officename":"Soichang B.O","pincode":"795149","officetype":"B.O","deliverystatus":"Delivery","statename":"MANIPUR","regionname":"North Eastern","circlename":"North Eastern","divisionname":"Manipur","Taluk":"Nil"},{"officename":"Nambasi B.O","pincode":"795149","officetype":"B.O","deliverystatus":"Delivery","statename":"MANIPUR","regionname":"North Eastern","circlename":"North Eastern","divisionname":"Manipur","Taluk":"Nil"},{"officename":"Liklikhong Bazar B.O","pincode":"795114","officetype":"B.O","deliverystatus":"Delivery","statename":"MANIPUR","regionname":"North Eastern","circlename":"North Eastern","divisionname":"Manipur","Taluk":"Nil"},{"officename":"Mapao Keithelmanbi B.O","pincode":"795114","officetype":"B.O","deliverystatus":"Delivery","statename":"MANIPUR","regionname":"North Eastern","circlename":"North Eastern","divisionname":"Manipur","Taluk":"Nil"},{"officename":"Lakhamei B.O","pincode":"795105","officetype":"B.O","deliverystatus":"Delivery","statename":"MANIPUR","regionname":"North Eastern","circlename":"North Eastern","divisionname":"Manipur","Taluk":"Nil"},{"officename":"Makhan Bazar B.O","pincode":"795105","officetype":"B.O","deliverystatus":"Delivery","statename":"MANIPUR","regionname":"North Eastern","circlename":"North Eastern","divisionname":"Manipur","Taluk":"Nil"},{"officename":"Maiba B.O","pincode":"795105","officetype":"B.O","deliverystatus":"Delivery","statename":"MANIPUR","regionname":"North Eastern","circlename":"North Eastern","divisionname":"Manipur","Taluk":"Nil"},{"officename":"Phuba B.O","pincode":"795105","officetype":"B.O","deliverystatus":"Delivery","statename":"MANIPUR","regionname":"North Eastern","circlename":"North Eastern","divisionname":"Manipur","Taluk":"Nil"},{"officename":"Purul B.O","pincode":"795105","officetype":"B.O","deliverystatus":"Delivery","statename":"MANIPUR","regionname":"North Eastern","circlename":"North Eastern","divisionname":"Manipur","Taluk":"Nil"},{"officename":"Canchipur B.O","pincode":"795003","officetype":"B.O","deliverystatus":"Delivery","statename":"MANIPUR","regionname":"North Eastern","circlename":"North Eastern","divisionname":"Manipur","Taluk":"Langthabal"},{"officename":"Kyamgei B.O","pincode":"795003","officetype":"B.O","deliverystatus":"Delivery","statename":"MANIPUR","regionname":"North Eastern","circlename":"North Eastern","divisionname":"Manipur","Taluk":"Nil"},{"officename":"Kunja (P) B.O","pincode":"795003","officetype":"B.O","deliverystatus":"Delivery","statename":"MANIPUR","regionname":"North Eastern","circlename":"North Eastern","divisionname":"Manipur","Taluk":"Nil"},{"officename":"Langthabal B.O","pincode":"795003","officetype":"B.O","deliverystatus":"Delivery","statename":"MANIPUR","regionname":"North Eastern","circlename":"North Eastern","divisionname":"Manipur","Taluk":"Nil"},{"officename":"Jangnoi B.O","pincode":"795118","officetype":"B.O","deliverystatus":"Delivery","statename":"MANIPUR","regionname":"North Eastern","circlename":"North Eastern","divisionname":"Manipur","Taluk":"Nil"},{"officename":"Makokchung B.O","pincode":"795118","officetype":"B.O","deliverystatus":"Delivery","statename":"MANIPUR","regionname":"North Eastern","circlename":"North Eastern","divisionname":"Manipur","Taluk":"Nil"},{"officename":"Makeng Ngarolu B.O","pincode":"795118","officetype":"B.O","deliverystatus":"Delivery","statename":"MANIPUR","regionname":"North Eastern","circlename":"North Eastern","divisionname":"Manipur","Taluk":"Nil"},{"officename":"Molkon B.O","pincode":"795118","officetype":"B.O","deliverystatus":"Delivery","statename":"MANIPUR","regionname":"North Eastern","circlename":"North Eastern","divisionname":"Manipur","Taluk":"Nil"},{"officename":"Mutukhong B.O","pincode":"795118","officetype":"B.O","deliverystatus":"Delivery","statename":"MANIPUR","regionname":"North Eastern","circlename":"North Eastern","divisionname":"Manipur","Taluk":"Nil"},{"officename":"Pangjang B.O","pincode":"795118","officetype":"B.O","deliverystatus":"Delivery","statename":"MANIPUR","regionname":"North Eastern","circlename":"North Eastern","divisionname":"Manipur","Taluk":"Nil"},{"officename":"Phaikon B.O","pincode":"795118","officetype":"B.O","deliverystatus":"Delivery","statename":"MANIPUR","regionname":"North Eastern","circlename":"North Eastern","divisionname":"Manipur","Taluk":"Nil"},{"officename":"Songphel Khullen B.O","pincode":"795118","officetype":"B.O","deliverystatus":"Delivery","statename":"MANIPUR","regionname":"North Eastern","circlename":"North Eastern","divisionname":"Manipur","Taluk":"Saikul"},{"officename":"T. Awkhumbung B.O","pincode":"795118","officetype":"B.O","deliverystatus":"Delivery","statename":"MANIPUR","regionname":"North Eastern","circlename":"North Eastern","divisionname":"Manipur","Taluk":"Nil"},{"officename":"Tingpibung B.O","pincode":"795118","officetype":"B.O","deliverystatus":"Delivery","statename":"MANIPUR","regionname":"North Eastern","circlename":"North Eastern","divisionname":"Manipur","Taluk":"Nil"},{"officename":"Zelengphai B.O","pincode":"795118","officetype":"B.O","deliverystatus":"Delivery","statename":"MANIPUR","regionname":"North Eastern","circlename":"North Eastern","divisionname":"Manipur","Taluk":"Nil"},{"officename":"Paobitek B.O","pincode":"795009","officetype":"B.O","deliverystatus":"Delivery","statename":"MANIPUR","regionname":"North Eastern","circlename":"North Eastern","divisionname":"Manipur","Taluk":"Nil"}]