[{"officename":"Neigrihms S.O","pincode":"793018","officetype":"S.O","deliverystatus":"Delivery","statename":"MEGHALAYA","regionname":"Shillong HQ","circlename":"North Eastern","divisionname":"Meghalaya","Taluk":"NA"},{"officename":"Nangwalbibra S.O","pincode":"794107","officetype":"S.O","deliverystatus":"Delivery","statename":"MEGHALAYA","regionname":"Shillong HQ","circlename":"North Eastern","divisionname":"Meghalaya","Taluk":"Nangwalbibra"},{"officename":"Resubelpara S.O","pincode":"794108","officetype":"S.O","deliverystatus":"Delivery","statename":"MEGHALAYA","regionname":"Shillong HQ","circlename":"North Eastern","divisionname":"Meghalaya","Taluk":"Resubelpara"},{"officename":"Mendipathar S.O","pincode":"794112","officetype":"S.O","deliverystatus":"Delivery","statename":"MEGHALAYA","regionname":"Shillong HQ","circlename":"North Eastern","divisionname":"Meghalaya","Taluk":"Mendipathar"},{"officename":"Rongjeng S.O","pincode":"794110","officetype":"S.O","deliverystatus":"Delivery","statename":"MEGHALAYA","regionname":"Shillong HQ","circlename":"North Eastern","divisionname":"Meghalaya","Taluk":"Rongjeng"},{"officename":"Williamnagar S.O","pincode":"794111","officetype":"S.O","deliverystatus":"Delivery","statename":"MEGHALAYA","regionname":"Shillong HQ","circlename":"North Eastern","divisionname":"Meghalaya","Taluk":"Williamnagar"},{"officename":"Rongra S.O","pincode":"794114","officetype":"S.O","deliverystatus":"Delivery","statename":"MEGHALAYA","regionname":"Shillong HQ","circlename":"North Eastern","divisionname":"Meghalaya","Taluk":"Rongra"},{"officename":"Mawlai S.O","pincode":"793017","officetype":"S.O","deliverystatus":"Delivery","statename":"MEGHALAYA","regionname":"Shillong HQ","circlename":"North Eastern","divisionname":"Meghalaya","Taluk":"Shillong"},{"officename":"Mawphlang S.O","pincode":"793121","officetype":"S.O","deliverystatus":"Delivery","statename":"MEGHALAYA","regionname":"Shillong HQ","circlename":"North Eastern","divisionname":"Meghalaya","Taluk":"Mawphlang"},{"officename":"Mawiong S.O","pincode":"793016","officetype":"S.O","deliverystatus":"Delivery","statename":"MEGHALAYA","regionname":"Shillong HQ","circlename":"North Eastern","divisionname":"Meghalaya","Taluk":"Shillong"},{"officename":"Mawkyrwat S.O","pincode":"793114","officetype":"S.O","deliverystatus":"Delivery","statename":"MEGHALAYA","regionname":"Shillong HQ","circlename":"North Eastern","divisionname":"Meghalaya","Taluk":"Mawkyrwat"},{"officename":"Nonglyer S.O","pincode":"793009","officetype":"S.O","deliverystatus":"Delivery","statename":"MEGHALAYA","regionname":"Shillong HQ","circlename":"North Eastern","divisionname":"Meghalaya","Taluk":"Shillong"},{"officename":"Nongpoh S.O","pincode":"793102","officetype":"S.O","deliverystatus":"Delivery","statename":"MEGHALAYA","regionname":"Shillong HQ","circlename":"North Eastern","divisionname":"Meghalaya","Taluk":"Nongpoh"},{"officename":"Nongstoin S.O","pincode":"793119","officetype":"S.O","deliverystatus":"Delivery","statename":"MEGHALAYA","regionname":"Shillong HQ","circlename":"North Eastern","divisionname":"Meghalaya","Taluk":"Nongstoin"},{"officename":"Nongthymmai S.O","pincode":"793014","officetype":"S.O","deliverystatus":"Delivery","statename":"MEGHALAYA","regionname":"Shillong HQ","circlename":"North Eastern","divisionname":"Meghalaya","Taluk":"Shillong"},{"officename":"Nehu S.O","pincode":"793022","officetype":"S.O","deliverystatus":"Delivery","statename":"MEGHALAYA","regionname":"Shillong HQ","circlename":"North Eastern","divisionname":"Meghalaya","Taluk":"Shillong"},{"officename":"Oakland S.O","pincode":"793001","officetype":"S.O","deliverystatus":"Non-Delivery","statename":"MEGHALAYA","regionname":"Shillong HQ","circlename":"North Eastern","divisionname":"Meghalaya","Taluk":"Shillong"},{"officename":"Phudmawri S.O","pincode":"793008","officetype":"S.O","deliverystatus":"Delivery","statename":"MEGHALAYA","regionname":"Shillong HQ","circlename":"North Eastern","divisionname":"Meghalaya","Taluk":"Shillong"},{"officename":"Pynursla S.O","pincode":"793110","officetype":"S.O","deliverystatus":"Delivery","statename":"MEGHALAYA","regionname":"Shillong HQ","circlename":"North Eastern","divisionname":"Meghalaya","Taluk":"Pynursla"},{"officename":"Rilbong S.O","pincode":"793004","officetype":"S.O","deliverystatus":"Non-Delivery","statename":"MEGHALAYA","regionname":"Shillong HQ","circlename":"North Eastern","divisionname":"Meghalaya","Taluk":"Shillong"},{"officename":"Rynjah S.O","pincode":"793006","officetype":"S.O","deliverystatus":"Delivery","statename":"MEGHALAYA","regionname":"Shillong HQ","circlename":"North Eastern","divisionname":"Meghalaya","Taluk":"Shillong"},{"officename":"Shella S.O","pincode":"793112","officetype":"S.O","deliverystatus":"Delivery","statename":"MEGHALAYA","regionname":"Shillong HQ","circlename":"North Eastern","divisionname":"Meghalaya","Taluk":"Shella"},{"officename":"Sumer S.O","pincode":"793104","officetype":"S.O","deliverystatus":"Delivery","statename":"MEGHALAYA","regionname":"Shillong HQ","circlename":"North Eastern","divisionname":"Meghalaya","Taluk":"Sumer"},{"officename":"Smit S.O","pincode":"793015","officetype":"S.O","deliverystatus":"Delivery","statename":"MEGHALAYA","regionname":"Shillong HQ","circlename":"North Eastern","divisionname":"Meghalaya","Taluk":"Mawkynrew"},{"officename":"Thadlaskein S.O","pincode":"793151","officetype":"S.O","deliverystatus":"Delivery","statename":"MEGHALAYA","regionname":"Shillong HQ","circlename":"North Eastern","divisionname":"Meghalaya","Taluk":"Thadlaskein"},{"officename":"Upper Shillong S.O","pincode":"793005","officetype":"S.O","deliverystatus":"Delivery","statename":"MEGHALAYA","regionname":"Shillong HQ","circlename":"North Eastern","divisionname":"Meghalaya","Taluk":"Shillong"},{"officename":"Ucc S.O","pincode":"793122","officetype":"S.O","deliverystatus":"Delivery","statename":"MEGHALAYA","regionname":"Shillong HQ","circlename":"North Eastern","divisionname":"Meghalaya","Taluk":"Ucc"},{"officename":"Umsning S.O","pincode":"793105","officetype":"S.O","deliverystatus":"Delivery","statename":"MEGHALAYA","regionname":"Shillong HQ","circlename":"North Eastern","divisionname":"Meghalaya","Taluk":"Umsning"},{"officename":"Assam Rifles S.O","pincode":"793011","officetype":"S.O","deliverystatus":"Delivery","statename":"MEGHALAYA","regionname":"Shillong HQ","circlename":"North Eastern","divisionname":"Meghalaya","Taluk":"Shillong"},{"officename":"Balat S.O","pincode":"793106","officetype":"S.O","deliverystatus":"Delivery","statename":"MEGHALAYA","regionname":"Shillong HQ","circlename":"North Eastern","divisionname":"Meghalaya","Taluk":"Balat"},{"officename":"Byrnihat S.O","pincode":"793101","officetype":"S.O","deliverystatus":"Delivery","statename":"MEGHALAYA","regionname":"Shillong HQ","circlename":"North Eastern","divisionname":"Meghalaya","Taluk":"Byrnihat"},{"officename":"Bholaganj Bazar S.O","pincode":"793107","officetype":"S.O","deliverystatus":"Delivery","statename":"MEGHALAYA","regionname":"Shillong HQ","circlename":"North Eastern","divisionname":"Meghalaya","Taluk":"Bholaganj Bazar"},{"officename":"Cherrabazar S.O","pincode":"793111","officetype":"S.O","deliverystatus":"Delivery","statename":"MEGHALAYA","regionname":"Shillong HQ","circlename":"North Eastern","divisionname":"Meghalaya","Taluk":"Cherrabazar"},{"officename":"Cherrapunjee S.O","pincode":"793108","officetype":"S.O","deliverystatus":"Delivery","statename":"MEGHALAYA","regionname":"Shillong HQ","circlename":"North Eastern","divisionname":"Meghalaya","Taluk":"Cherrapunjee"},{"officename":"Dawki S.O","pincode":"793109","officetype":"S.O","deliverystatus":"Delivery","statename":"MEGHALAYA","regionname":"Shillong HQ","circlename":"North Eastern","divisionname":"Meghalaya","Taluk":"Dawki"},{"officename":"Happy Valley S.O","pincode":"793007","officetype":"S.O","deliverystatus":"Delivery","statename":"MEGHALAYA","regionname":"Shillong HQ","circlename":"North Eastern","divisionname":"Meghalaya","Taluk":"Shillong"},{"officename":"Iewduh S.O","pincode":"793002","officetype":"S.O","deliverystatus":"Delivery","statename":"MEGHALAYA","regionname":"Shillong HQ","circlename":"North Eastern","divisionname":"Meghalaya","Taluk":"Shillong"},{"officename":"Jaiaw S.O","pincode":"793002","officetype":"S.O","deliverystatus":"Non-Delivery","statename":"MEGHALAYA","regionname":"Shillong HQ","circlename":"North Eastern","divisionname":"Meghalaya","Taluk":"Shillong"},{"officename":"Jowai S.O","pincode":"793150","officetype":"S.O","deliverystatus":"Delivery","statename":"MEGHALAYA","regionname":"Shillong HQ","circlename":"North Eastern","divisionname":"Meghalaya","Taluk":"Jowai"},{"officename":"Khliehriat S.O","pincode":"793200","officetype":"S.O","deliverystatus":"Delivery","statename":"MEGHALAYA","regionname":"Shillong HQ","circlename":"North Eastern","divisionname":"Meghalaya","Taluk":"Khliehriat"},{"officename":"Ladrymbai S.O","pincode":"793160","officetype":"S.O","deliverystatus":"Delivery","statename":"MEGHALAYA","regionname":"Shillong HQ","circlename":"North Eastern","divisionname":"Meghalaya","Taluk":"Ladrymbai"},{"officename":"Laban S.O","pincode":"793004","officetype":"S.O","deliverystatus":"Delivery","statename":"MEGHALAYA","regionname":"Shillong HQ","circlename":"North Eastern","divisionname":"Meghalaya","Taluk":"Shillong"},{"officename":"Laitumkhrah S.O","pincode":"793003","officetype":"S.O","deliverystatus":"Delivery","statename":"MEGHALAYA","regionname":"Shillong HQ","circlename":"North Eastern","divisionname":"Meghalaya","Taluk":"Shillong"},{"officename":"Laitkor Peak S.O","pincode":"793010","officetype":"S.O","deliverystatus":"Delivery","statename":"MEGHALAYA","regionname":"Shillong HQ","circlename":"North Eastern","divisionname":"Meghalaya","Taluk":"Shillong"},{"officename":"Madanriting S.O","pincode":"793021","officetype":"S.O","deliverystatus":"Delivery","statename":"MEGHALAYA","regionname":"Shillong HQ","circlename":"North Eastern","divisionname":"Meghalaya","Taluk":"Shillong"},{"officename":"Mairang S.O","pincode":"793120","officetype":"S.O","deliverystatus":"Delivery","statename":"MEGHALAYA","regionname":"Shillong HQ","circlename":"North Eastern","divisionname":"Meghalaya","Taluk":"Mairang"},{"officename":"Mawpat S.O","pincode":"793012","officetype":"S.O","deliverystatus":"Delivery","statename":"MEGHALAYA","regionname":"Shillong HQ","circlename":"North Eastern","divisionname":"Meghalaya","Taluk":"Shillong"},{"officename":"Mawsynram S.O","pincode":"793113","officetype":"S.O","deliverystatus":"Delivery","statename":"MEGHALAYA","regionname":"Shillong HQ","circlename":"North Eastern","divisionname":"Meghalaya","Taluk":"Mawsynram"},{"officename":"Meghalaya Secretariat S.O","pincode":"793001","officetype":"S.O","deliverystatus":"Non-Delivery","statename":"MEGHALAYA","regionname":"Shillong HQ","circlename":"North Eastern","divisionname":"Meghalaya","Taluk":"Shillong"},{"officename":"Umiam S.O","pincode":"793103","officetype":"S.O","deliverystatus":"Delivery","statename":"MEGHALAYA","regionname":"Shillong HQ","circlename":"North Eastern","divisionname":"Meghalaya","Taluk":"Umiam"},{"officename":"Umsaw S.O","pincode":"793123","officetype":"S.O","deliverystatus":"Delivery","statename":"MEGHALAYA","regionname":"Shillong HQ","circlename":"North Eastern","divisionname":"Meghalaya","Taluk":"Umsaw"},{"officename":"Ampati S.O","pincode":"794115","officetype":"S.O","deliverystatus":"Delivery","statename":"MEGHALAYA","regionname":"Shillong HQ","circlename":"North Eastern","divisionname":"Meghalaya","Taluk":"Ampati"},{"officename":"Araimile S.O","pincode":"794101","officetype":"S.O","deliverystatus":"Delivery","statename":"MEGHALAYA","regionname":"Shillong HQ","circlename":"North Eastern","divisionname":"Meghalaya","Taluk":"Araimile"},{"officename":"Baghmara S.O","pincode":"794102","officetype":"S.O","deliverystatus":"Delivery","statename":"MEGHALAYA","regionname":"Shillong HQ","circlename":"North Eastern","divisionname":"Meghalaya","Taluk":"Baghmara"},{"officename":"Barengapara S.O","pincode":"794103","officetype":"S.O","deliverystatus":"Delivery","statename":"MEGHALAYA","regionname":"Shillong HQ","circlename":"North Eastern","divisionname":"Meghalaya","Taluk":"Barengapara"},{"officename":"Dobasipara S.O","pincode":"794005","officetype":"S.O","deliverystatus":"Delivery","statename":"MEGHALAYA","regionname":"Shillong HQ","circlename":"North Eastern","divisionname":"Meghalaya","Taluk":"Dobasipara"},{"officename":"Lower Chandmari S.O","pincode":"794002","officetype":"S.O","deliverystatus":"Delivery","statename":"MEGHALAYA","regionname":"Shillong HQ","circlename":"North Eastern","divisionname":"Meghalaya","Taluk":"Lower Chandmari"},{"officename":"Garobadha S.O","pincode":"794105","officetype":"S.O","deliverystatus":"Delivery","statename":"MEGHALAYA","regionname":"Shillong HQ","circlename":"North Eastern","divisionname":"Meghalaya","Taluk":"Grobadha"},{"officename":"Fulbari S.O (West Garo Hills)","pincode":"794104","officetype":"S.O","deliverystatus":"Delivery","statename":"MEGHALAYA","regionname":"Shillong HQ","circlename":"North Eastern","divisionname":"Meghalaya","Taluk":"Fulbari"},{"officename":"Tikrikilla S.O","pincode":"794109","officetype":"S.O","deliverystatus":"Delivery","statename":"MEGHALAYA","regionname":"Shillong HQ","circlename":"North Eastern","divisionname":"Meghalaya","Taluk":"Tikrikilla"},{"officename":"Mahendraganj S.O (West Garo Hills)","pincode":"794106","officetype":"S.O","deliverystatus":"Delivery","statename":"MEGHALAYA","regionname":"Shillong HQ","circlename":"North Eastern","divisionname":"Meghalaya","Taluk":"Mahendraganj"},{"officename":"Riangdo Bazar S.O","pincode":"793126","officetype":"S.O","deliverystatus":"Delivery","statename":"MEGHALAYA","regionname":"Shillong HQ","circlename":"North Eastern","divisionname":"Meghalaya","Taluk":"Nongstoin"},{"officename":"Amlarem S.O","pincode":"793161","officetype":"S.O","deliverystatus":"Delivery","statename":"MEGHALAYA","regionname":"Shillong HQ","circlename":"North Eastern","divisionname":"Meghalaya","Taluk":"Jowai"},{"officename":"Sohiong S.O","pincode":"793115","officetype":"S.O","deliverystatus":"Delivery","statename":"MEGHALAYA","regionname":"Shillong HQ","circlename":"North Eastern","divisionname":"Meghalaya","Taluk":"Mawphlang"},{"officename":"Nongmynsong S.O","pincode":"793019","officetype":"S.O","deliverystatus":"Delivery","statename":"MEGHALAYA","regionname":"Shillong HQ","circlename":"North Eastern","divisionname":"Meghalaya","Taluk":"Shillong"},{"officename":"Lumshnong S.O","pincode":"793210","officetype":"S.O","deliverystatus":"Delivery","statename":"MEGHALAYA","regionname":"Shillong HQ","circlename":"North Eastern","divisionname":"Meghalaya","Taluk":"Khliehriat"},{"officename":"Dadengiri S.O","pincode":"794003","officetype":"S.O","deliverystatus":"Delivery","statename":"MEGHALAYA","regionname":"Shillong HQ","circlename":"North Eastern","divisionname":"Meghalaya","Taluk":"Fulbari"},{"officename":"Shillong G.P.O.","pincode":"793001","officetype":"H.O","deliverystatus":"Delivery","statename":"MEGHALAYA","regionname":"Shillong HQ","circlename":"North Eastern","divisionname":"Meghalaya","Taluk":"Shillong"},{"officename":"Tura H.O","pincode":"794001","officetype":"H.O","deliverystatus":"Delivery","statename":"MEGHALAYA","regionname":"Shillong HQ","circlename":"North Eastern","divisionname":"Meghalaya","Taluk":"Tura"},{"officename":"Laitduh B.O","pincode":"793108","officetype":"B.O","deliverystatus":"Delivery","statename":"MEGHALAYA","regionname":"Shillong HQ","circlename":"North Eastern","divisionname":"Meghalaya","Taluk":"Senapati"},{"officename":"Lyngkhat B.O","pincode":"793110","officetype":"B.O","deliverystatus":"Delivery","statename":"MEGHALAYA","regionname":"Shillong HQ","circlename":"North Eastern","divisionname":"Meghalaya","Taluk":"Pynursla"},{"officename":"Mawkdok B.O","pincode":"793108","officetype":"B.O","deliverystatus":"Delivery","statename":"MEGHALAYA","regionname":"Shillong HQ","circlename":"North Eastern","divisionname":"Meghalaya","Taluk":"Cherrapunjee"},{"officename":"Mawlyngngad B.O","pincode":"793021","officetype":"B.O","deliverystatus":"Delivery","statename":"MEGHALAYA","regionname":"Shillong HQ","circlename":"North Eastern","divisionname":"Meghalaya","Taluk":"Madanriting"},{"officename":"Nongnah B.O","pincode":"793114","officetype":"B.O","deliverystatus":"Delivery","statename":"MEGHALAYA","regionname":"Shillong HQ","circlename":"North Eastern","divisionname":"Meghalaya","Taluk":"Mawkyrwat"},{"officename":"Nongtyngur B.O","pincode":"793110","officetype":"B.O","deliverystatus":"Delivery","statename":"MEGHALAYA","regionname":"Shillong HQ","circlename":"North Eastern","divisionname":"Meghalaya","Taluk":"Pynursla"},{"officename":"Pamshutia B.O","pincode":"793110","officetype":"B.O","deliverystatus":"Delivery","statename":"MEGHALAYA","regionname":"Shillong HQ","circlename":"North Eastern","divisionname":"Meghalaya","Taluk":"Pynursla"},{"officename":"Pongtung B.O","pincode":"793110","officetype":"B.O","deliverystatus":"Delivery","statename":"MEGHALAYA","regionname":"Shillong HQ","circlename":"North Eastern","divisionname":"Meghalaya","Taluk":"Pynursla"},{"officename":"Puriang B.O","pincode":"793021","officetype":"B.O","deliverystatus":"Delivery","statename":"MEGHALAYA","regionname":"Shillong HQ","circlename":"North Eastern","divisionname":"Meghalaya","Taluk":"Madanriting"},{"officename":"Ramdait B.O","pincode":"793108","officetype":"B.O","deliverystatus":"Delivery","statename":"MEGHALAYA","regionname":"Shillong HQ","circlename":"North Eastern","divisionname":"Meghalaya","Taluk":"Cherrapunjee"},{"officename":"Sohryngkham B.O","pincode":"793021","officetype":"B.O","deliverystatus":"Delivery","statename":"MEGHALAYA","regionname":"Shillong HQ","circlename":"North Eastern","divisionname":"Meghalaya","Taluk":"Madanriting"},{"officename":"Tynrong B.O","pincode":"793108","officetype":"B.O","deliverystatus":"Delivery","statename":"MEGHALAYA","regionname":"Shillong HQ","circlename":"North Eastern","divisionname":"Meghalaya","Taluk":"Cherrapunjee"},{"officename":"Wahkdait B.O","pincode":"793110","officetype":"B.O","deliverystatus":"Delivery","statename":"MEGHALAYA","regionname":"Shillong HQ","circlename":"North Eastern","divisionname":"Meghalaya","Taluk":"Pynursla"},{"officename":"Amlari B.O","pincode":"793161","officetype":"B.O","deliverystatus":"Delivery","statename":"MEGHALAYA","regionname":"Shillong HQ","circlename":"North Eastern","divisionname":"Meghalaya","Taluk":"Jowai"},{"officename":"Jarain B.O","pincode":"793161","officetype":"B.O","deliverystatus":"Delivery","statename":"MEGHALAYA","regionname":"Shillong HQ","circlename":"North Eastern","divisionname":"Meghalaya","Taluk":"Jowai"},{"officename":"Nongbareh B.O","pincode":"793161","officetype":"B.O","deliverystatus":"Delivery","statename":"MEGHALAYA","regionname":"Shillong HQ","circlename":"North Eastern","divisionname":"Meghalaya","Taluk":"Jowai"},{"officename":"Padu B.O","pincode":"793161","officetype":"B.O","deliverystatus":"Delivery","statename":"MEGHALAYA","regionname":"Shillong HQ","circlename":"North Eastern","divisionname":"Meghalaya","Taluk":"Jowai"},{"officename":"Pdengshakap B.O","pincode":"793161","officetype":"B.O","deliverystatus":"Delivery","statename":"MEGHALAYA","regionname":"Shillong HQ","circlename":"North Eastern","divisionname":"Meghalaya","Taluk":"Jowai"},{"officename":"Trangblang B.O","pincode":"793161","officetype":"B.O","deliverystatus":"Delivery","statename":"MEGHALAYA","regionname":"Shillong HQ","circlename":"North Eastern","divisionname":"Meghalaya","Taluk":"Jowai"},{"officename":"Lad Mawphlang B.O","pincode":"793108","officetype":"B.O","deliverystatus":"Delivery","statename":"MEGHALAYA","regionname":"Shillong HQ","circlename":"North Eastern","divisionname":"Meghalaya","Taluk":"Cherrapunjee"},{"officename":"Rom Bazar B.O","pincode":"794003","officetype":"B.O","deliverystatus":"Delivery","statename":"MEGHALAYA","regionname":"Shillong HQ","circlename":"North Eastern","divisionname":"Meghalaya","Taluk":"Fulbari"},{"officename":"Huroi B.O","pincode":"793210","officetype":"B.O","deliverystatus":"Delivery","statename":"MEGHALAYA","regionname":"Shillong HQ","circlename":"North Eastern","divisionname":"Meghalaya","Taluk":"Khliehriat"},{"officename":"Umkiang B.O","pincode":"793210","officetype":"B.O","deliverystatus":"Delivery","statename":"MEGHALAYA","regionname":"Shillong HQ","circlename":"North Eastern","divisionname":"Meghalaya","Taluk":"Khliehriat"},{"officename":"Diengpasoh B.O","pincode":"793018","officetype":"B.O","deliverystatus":"Delivery","statename":"MEGHALAYA","regionname":"Shillong HQ","circlename":"North Eastern","divisionname":"Meghalaya","Taluk":"NEIGRIHMS S.O"},{"officename":"Mawkhanu B.O","pincode":"793018","officetype":"B.O","deliverystatus":"Delivery","statename":"MEGHALAYA","regionname":"Shillong HQ","circlename":"North Eastern","divisionname":"Meghalaya","Taluk":"NEIGRIHMS S.O"},{"officename":"Tynring B.O","pincode":"793018","officetype":"B.O","deliverystatus":"Delivery","statename":"MEGHALAYA","regionname":"Shillong HQ","circlename":"North Eastern","divisionname":"Meghalaya","Taluk":"NEIGRIHMS S.O"},{"officename":"Langdongdai B.O","pincode":"793126","officetype":"B.O","deliverystatus":"Delivery","statename":"MEGHALAYA","regionname":"Shillong HQ","circlename":"North Eastern","divisionname":"Meghalaya","Taluk":"Nongstoin"},{"officename":"Mawthengkut B.O","pincode":"793126","officetype":"B.O","deliverystatus":"Delivery","statename":"MEGHALAYA","regionname":"Shillong HQ","circlename":"North Eastern","divisionname":"Meghalaya","Taluk":"Nongstoin"},{"officename":"Shallang B.O","pincode":"793126","officetype":"B.O","deliverystatus":"Delivery","statename":"MEGHALAYA","regionname":"Shillong HQ","circlename":"North Eastern","divisionname":"Meghalaya","Taluk":"Nongstoin"},{"officename":"Umsohpieng B.O","pincode":"793126","officetype":"B.O","deliverystatus":"Delivery","statename":"MEGHALAYA","regionname":"Shillong HQ","circlename":"North Eastern","divisionname":"Meghalaya","Taluk":"Nongstoin"},{"officename":"Khlieh Lyngkhoi B.O","pincode":"793115","officetype":"B.O","deliverystatus":"Delivery","statename":"MEGHALAYA","regionname":"Shillong HQ","circlename":"North Eastern","divisionname":"Meghalaya","Taluk":"Mawphlang"},{"officename":"Lyngkhoi B.O","pincode":"793115","officetype":"B.O","deliverystatus":"Delivery","statename":"MEGHALAYA","regionname":"Shillong HQ","circlename":"North Eastern","divisionname":"Meghalaya","Taluk":"Mawphlang"},{"officename":"Madan Bitaw B.O","pincode":"793115","officetype":"B.O","deliverystatus":"Delivery","statename":"MEGHALAYA","regionname":"Shillong HQ","circlename":"North Eastern","divisionname":"Meghalaya","Taluk":"Mawphlang"},{"officename":"Mawpun B.O","pincode":"793115","officetype":"B.O","deliverystatus":"Delivery","statename":"MEGHALAYA","regionname":"Shillong HQ","circlename":"North Eastern","divisionname":"Meghalaya","Taluk":"Mawphlang"},{"officename":"Nongspung B.O","pincode":"793115","officetype":"B.O","deliverystatus":"Delivery","statename":"MEGHALAYA","regionname":"Shillong HQ","circlename":"North Eastern","divisionname":"Meghalaya","Taluk":"Mawphlang"},{"officename":"Sohpian B.O","pincode":"793115","officetype":"B.O","deliverystatus":"Delivery","statename":"MEGHALAYA","regionname":"Shillong HQ","circlename":"North Eastern","divisionname":"Meghalaya","Taluk":"Mawphlang"},{"officename":"Dawagre B.O","pincode":"794111","officetype":"B.O","deliverystatus":"Delivery","statename":"MEGHALAYA","regionname":"Shillong HQ","circlename":"North Eastern","divisionname":"Meghalaya","Taluk":"Williamnagar"},{"officename":"Mynsngad B.O","pincode":"793151","officetype":"B.O","deliverystatus":"Delivery","statename":"MEGHALAYA","regionname":"Shillong HQ","circlename":"North Eastern","divisionname":"Meghalaya","Taluk":"Thadlaskein"},{"officename":"Mawlein Mawkhan B.O","pincode":"793104","officetype":"B.O","deliverystatus":"Delivery","statename":"MEGHALAYA","regionname":"Shillong HQ","circlename":"North Eastern","divisionname":"Meghalaya","Taluk":"Sumer"},{"officename":"Krang B.O","pincode":"793115","officetype":"B.O","deliverystatus":"Delivery","statename":"MEGHALAYA","regionname":"Shillong HQ","circlename":"North Eastern","divisionname":"Meghalaya","Taluk":"Umsning"},{"officename":"Myriem B.O","pincode":"793119","officetype":"B.O","deliverystatus":"Delivery","statename":"MEGHALAYA","regionname":"Shillong HQ","circlename":"North Eastern","divisionname":"Meghalaya","Taluk":"Nongstoin"},{"officename":"Chiruphi B.O","pincode":"793210","officetype":"B.O","deliverystatus":"Delivery","statename":"MEGHALAYA","regionname":"Shillong HQ","circlename":"North Eastern","divisionname":"Meghalaya","Taluk":"Lumshnong"},{"officename":"Bikonggre B.O","pincode":"794104","officetype":"B.O","deliverystatus":"Delivery","statename":"MEGHALAYA","regionname":"Shillong HQ","circlename":"North Eastern","divisionname":"Meghalaya","Taluk":"Fulbari"},{"officename":"Halchati B.O","pincode":"794103","officetype":"B.O","deliverystatus":"Delivery","statename":"MEGHALAYA","regionname":"Shillong HQ","circlename":"North Eastern","divisionname":"Meghalaya","Taluk":"Barengapara"},{"officename":"Mualsei B.O","pincode":"793200","officetype":"B.O","deliverystatus":"Delivery","statename":"MEGHALAYA","regionname":"Shillong HQ","circlename":"North Eastern","divisionname":"Meghalaya","Taluk":"Khliehriat"},{"officename":"Adakgiri B.O","pincode":"783123","officetype":"B.O","deliverystatus":"Delivery","statename":"MEGHALAYA","regionname":"Shillong HQ","circlename":"North Eastern","divisionname":"Meghalaya","Taluk":"Dambo Rongjeng"},{"officename":"Bolsong B.O","pincode":"794002","officetype":"B.O","deliverystatus":"Delivery","statename":"MEGHALAYA","regionname":"Shillong HQ","circlename":"North Eastern","divisionname":"Meghalaya","Taluk":"Lower Chandmari"},{"officename":"Gumaghat B.O","pincode":"793106","officetype":"B.O","deliverystatus":"Delivery","statename":"MEGHALAYA","regionname":"Shillong HQ","circlename":"North Eastern","divisionname":"Meghalaya","Taluk":"NA"},{"officename":"Khonjoy B.O","pincode":"793106","officetype":"B.O","deliverystatus":"Delivery","statename":"MEGHALAYA","regionname":"Shillong HQ","circlename":"North Eastern","divisionname":"Meghalaya","Taluk":"NA"},{"officename":"Makali B.O","pincode":"793106","officetype":"B.O","deliverystatus":"Delivery","statename":"MEGHALAYA","regionname":"Shillong HQ","circlename":"North Eastern","divisionname":"Meghalaya","Taluk":"NA"},{"officename":"Mawput B.O","pincode":"793106","officetype":"B.O","deliverystatus":"Delivery","statename":"MEGHALAYA","regionname":"Shillong HQ","circlename":"North Eastern","divisionname":"Meghalaya","Taluk":"NA"},{"officename":"Munai B.O","pincode":"793106","officetype":"B.O","deliverystatus":"Delivery","statename":"MEGHALAYA","regionname":"Shillong HQ","circlename":"North Eastern","divisionname":"Meghalaya","Taluk":"NA"},{"officename":"Yalang BO","pincode":"793150","officetype":"B.O","deliverystatus":"Delivery","statename":"MEGHALAYA","regionname":"Shillong HQ","circlename":"North Eastern","divisionname":"Meghalaya","Taluk":"Jowai"},{"officename":"Khatdum B.O","pincode":"793210","officetype":"B.O","deliverystatus":"Delivery","statename":"MEGHALAYA","regionname":"Shillong HQ","circlename":"North Eastern","divisionname":"Meghalaya","Taluk":"Khliehriat"},{"officename":"Umkiang B.O","pincode":"793200","officetype":"B.O","deliverystatus":"Delivery","statename":"MEGHALAYA","regionname":"Shillong HQ","circlename":"North Eastern","divisionname":"Meghalaya","Taluk":"NA"},{"officename":"Pyndeng Sohsaw B.O","pincode":"793106","officetype":"B.O","deliverystatus":"Delivery","statename":"MEGHALAYA","regionname":"Shillong HQ","circlename":"North Eastern","divisionname":"Meghalaya","Taluk":"NA"},{"officename":"Puksora B.O","pincode":"793106","officetype":"B.O","deliverystatus":"Delivery","statename":"MEGHALAYA","regionname":"Shillong HQ","circlename":"North Eastern","divisionname":"Meghalaya","Taluk":"NA"},{"officename":"Rajapara B.O","pincode":"793106","officetype":"B.O","deliverystatus":"Delivery","statename":"MEGHALAYA","regionname":"Shillong HQ","circlename":"North Eastern","divisionname":"Meghalaya","Taluk":"NA"},{"officename":"Ranikor B.O","pincode":"793106","officetype":"B.O","deliverystatus":"Delivery","statename":"MEGHALAYA","regionname":"Shillong HQ","circlename":"North Eastern","divisionname":"Meghalaya","Taluk":"NA"},{"officename":"Rongasora B.O","pincode":"793106","officetype":"B.O","deliverystatus":"Delivery","statename":"MEGHALAYA","regionname":"Shillong HQ","circlename":"North Eastern","divisionname":"Meghalaya","Taluk":"NA"},{"officename":"Sarin B.O","pincode":"793106","officetype":"B.O","deliverystatus":"Delivery","statename":"MEGHALAYA","regionname":"Shillong HQ","circlename":"North Eastern","divisionname":"Meghalaya","Taluk":"NA"},{"officename":"Sonatola B.O","pincode":"793106","officetype":"B.O","deliverystatus":"Delivery","statename":"MEGHALAYA","regionname":"Shillong HQ","circlename":"North Eastern","divisionname":"Meghalaya","Taluk":"NA"},{"officename":"Telsora B.O","pincode":"793106","officetype":"B.O","deliverystatus":"Delivery","statename":"MEGHALAYA","regionname":"Shillong HQ","circlename":"North Eastern","divisionname":"Meghalaya","Taluk":"NA"},{"officename":"Trongpleng B.O","pincode":"793106","officetype":"B.O","deliverystatus":"Delivery","statename":"MEGHALAYA","regionname":"Shillong HQ","circlename":"North Eastern","divisionname":"Meghalaya","Taluk":"Balat"},{"officename":"Umpung B.O","pincode":"793106","officetype":"B.O","deliverystatus":"Delivery","statename":"MEGHALAYA","regionname":"Shillong HQ","circlename":"North Eastern","divisionname":"Meghalaya","Taluk":"NA"},{"officename":"Belguri B.O","pincode":"794109","officetype":"B.O","deliverystatus":"Delivery","statename":"MEGHALAYA","regionname":"Shillong HQ","circlename":"North Eastern","divisionname":"Meghalaya","Taluk":"Tikrikilla"},{"officename":"Rymbai B.O","pincode":"793160","officetype":"B.O","deliverystatus":"Delivery","statename":"MEGHALAYA","regionname":"Shillong HQ","circlename":"North Eastern","divisionname":"Meghalaya","Taluk":"Ladrymbai"},{"officename":"Passadwar B.O","pincode":"793109","officetype":"B.O","deliverystatus":"Delivery","statename":"MEGHALAYA","regionname":"Shillong HQ","circlename":"North Eastern","divisionname":"Meghalaya","Taluk":"Dawki"},{"officename":"Lawsohtun B.O","pincode":"793004","officetype":"B.O","deliverystatus":"Delivery","statename":"MEGHALAYA","regionname":"Shillong HQ","circlename":"North Eastern","divisionname":"Meghalaya","Taluk":"Laban"},{"officename":"Mawkhanu B.O","pincode":"793012","officetype":"B.O","deliverystatus":"Delivery","statename":"MEGHALAYA","regionname":"Shillong HQ","circlename":"North Eastern","divisionname":"Meghalaya","Taluk":"Mawpat"},{"officename":"Laitnongrim B.O","pincode":"793114","officetype":"B.O","deliverystatus":"Delivery","statename":"MEGHALAYA","regionname":"Shillong HQ","circlename":"North Eastern","divisionname":"Meghalaya","Taluk":"Mawkyrwat"},{"officename":"Umshakhon Mathon B.O","pincode":"793102","officetype":"B.O","deliverystatus":"Delivery","statename":"MEGHALAYA","regionname":"Shillong HQ","circlename":"North Eastern","divisionname":"Meghalaya","Taluk":"Nongpoh"},{"officename":"Umyap B.O","pincode":"793119","officetype":"B.O","deliverystatus":"Delivery","statename":"MEGHALAYA","regionname":"Shillong HQ","circlename":"North Eastern","divisionname":"Meghalaya","Taluk":"Nongstoin"},{"officename":"Thynroit B.O","pincode":"793015","officetype":"B.O","deliverystatus":"Delivery","statename":"MEGHALAYA","regionname":"Shillong HQ","circlename":"North Eastern","divisionname":"Meghalaya","Taluk":"Smit"},{"officename":"Mawlasnai B.O","pincode":"793103","officetype":"B.O","deliverystatus":"Delivery","statename":"MEGHALAYA","regionname":"Shillong HQ","circlename":"North Eastern","divisionname":"Meghalaya","Taluk":"Umiam"},{"officename":"Killapara B.O","pincode":"794103","officetype":"B.O","deliverystatus":"Delivery","statename":"MEGHALAYA","regionname":"Shillong HQ","circlename":"North Eastern","divisionname":"Meghalaya","Taluk":"Barengapara"},{"officename":"Shyamnagar B.O","pincode":"794104","officetype":"B.O","deliverystatus":"Delivery","statename":"MEGHALAYA","regionname":"Shillong HQ","circlename":"North Eastern","divisionname":"Meghalaya","Taluk":"Fulbari"},{"officename":"Raja Apal B.O","pincode":"794002","officetype":"B.O","deliverystatus":"Delivery","statename":"MEGHALAYA","regionname":"Shillong HQ","circlename":"North Eastern","divisionname":"Meghalaya","Taluk":"Lower Chandmari"},{"officename":"Padu B.O","pincode":"793109","officetype":"B.O","deliverystatus":"Delivery","statename":"MEGHALAYA","regionname":"Shillong HQ","circlename":"North Eastern","divisionname":"Meghalaya","Taluk":"Dawki"},{"officename":"Rongkhum B.O","pincode":"793109","officetype":"B.O","deliverystatus":"Delivery","statename":"MEGHALAYA","regionname":"Shillong HQ","circlename":"North Eastern","divisionname":"Meghalaya","Taluk":"Dawki"},{"officename":"Sohkha B.O","pincode":"793109","officetype":"B.O","deliverystatus":"Delivery","statename":"MEGHALAYA","regionname":"Shillong HQ","circlename":"North Eastern","divisionname":"Meghalaya","Taluk":"Dawki"},{"officename":"Syndai B.O","pincode":"793109","officetype":"B.O","deliverystatus":"Delivery","statename":"MEGHALAYA","regionname":"Shillong HQ","circlename":"North Eastern","divisionname":"Meghalaya","Taluk":"Dawki"},{"officename":"Umsyiem B.O","pincode":"793109","officetype":"B.O","deliverystatus":"Delivery","statename":"MEGHALAYA","regionname":"Shillong HQ","circlename":"North Eastern","divisionname":"Meghalaya","Taluk":"Dawki"},{"officename":"Barato B.O","pincode":"793150","officetype":"B.O","deliverystatus":"Delivery","statename":"MEGHALAYA","regionname":"Shillong HQ","circlename":"North Eastern","divisionname":"Meghalaya","Taluk":"Jowai"},{"officename":"Iawthymmai B.O","pincode":"793150","officetype":"B.O","deliverystatus":"Delivery","statename":"MEGHALAYA","regionname":"Shillong HQ","circlename":"North Eastern","divisionname":"Meghalaya","Taluk":"Jowai"},{"officename":"Jarain B.O","pincode":"793150","officetype":"B.O","deliverystatus":"Delivery","statename":"MEGHALAYA","regionname":"Shillong HQ","circlename":"North Eastern","divisionname":"Meghalaya","Taluk":"Jowai"},{"officename":"Kyndong Tuber B.O","pincode":"793150","officetype":"B.O","deliverystatus":"Delivery","statename":"MEGHALAYA","regionname":"Shillong HQ","circlename":"North Eastern","divisionname":"Meghalaya","Taluk":"Jowai"},{"officename":"Laskein B.O","pincode":"793150","officetype":"B.O","deliverystatus":"Delivery","statename":"MEGHALAYA","regionname":"Shillong HQ","circlename":"North Eastern","divisionname":"Meghalaya","Taluk":"Jowai"},{"officename":"Mustem B.O","pincode":"793150","officetype":"B.O","deliverystatus":"Delivery","statename":"MEGHALAYA","regionname":"Shillong HQ","circlename":"North Eastern","divisionname":"Meghalaya","Taluk":"Jowai"},{"officename":"Mupyut B.O","pincode":"793150","officetype":"B.O","deliverystatus":"Delivery","statename":"MEGHALAYA","regionname":"Shillong HQ","circlename":"North Eastern","divisionname":"Meghalaya","Taluk":"Jowai"},{"officename":"Mawkyndeng B.O","pincode":"793150","officetype":"B.O","deliverystatus":"Delivery","statename":"MEGHALAYA","regionname":"Shillong HQ","circlename":"North Eastern","divisionname":"Meghalaya","Taluk":"Jowai"},{"officename":"Mawkaiaw B.O","pincode":"793150","officetype":"B.O","deliverystatus":"Delivery","statename":"MEGHALAYA","regionname":"Shillong HQ","circlename":"North Eastern","divisionname":"Meghalaya","Taluk":"Jowai"},{"officename":"Mynso B.O","pincode":"793150","officetype":"B.O","deliverystatus":"Delivery","statename":"MEGHALAYA","regionname":"Shillong HQ","circlename":"North Eastern","divisionname":"Meghalaya","Taluk":"Jowai"},{"officename":"Mihmyntdu B.O","pincode":"793150","officetype":"B.O","deliverystatus":"Delivery","statename":"MEGHALAYA","regionname":"Shillong HQ","circlename":"North Eastern","divisionname":"Meghalaya","Taluk":"Jowai"},{"officename":"Nongryngkoh B.O","pincode":"793150","officetype":"B.O","deliverystatus":"Delivery","statename":"MEGHALAYA","regionname":"Shillong HQ","circlename":"North Eastern","divisionname":"Meghalaya","Taluk":"Jowai"},{"officename":"Nongbah B.O","pincode":"793150","officetype":"B.O","deliverystatus":"Delivery","statename":"MEGHALAYA","regionname":"Shillong HQ","circlename":"North Eastern","divisionname":"Meghalaya","Taluk":"Jowai"},{"officename":"Pdengshakap B.O","pincode":"793150","officetype":"B.O","deliverystatus":"Delivery","statename":"MEGHALAYA","regionname":"Shillong HQ","circlename":"North Eastern","divisionname":"Meghalaya","Taluk":"Jowai"},{"officename":"Raliang B.O","pincode":"793150","officetype":"B.O","deliverystatus":"Delivery","statename":"MEGHALAYA","regionname":"Shillong HQ","circlename":"North Eastern","divisionname":"Meghalaya","Taluk":"Jowai"},{"officename":"Sohmynting B.O","pincode":"793150","officetype":"B.O","deliverystatus":"Delivery","statename":"MEGHALAYA","regionname":"Shillong HQ","circlename":"North Eastern","divisionname":"Meghalaya","Taluk":"Jowai"},{"officename":"Shangpung B.O","pincode":"793150","officetype":"B.O","deliverystatus":"Delivery","statename":"MEGHALAYA","regionname":"Shillong HQ","circlename":"North Eastern","divisionname":"Meghalaya","Taluk":"Jowai"},{"officename":"Tuber Kmaishnong B.O","pincode":"793160","officetype":"B.O","deliverystatus":"Delivery","statename":"MEGHALAYA","regionname":"Shillong HQ","circlename":"North Eastern","divisionname":"Meghalaya","Taluk":"L;adrymbai"},{"officename":"Wapung B.O","pincode":"793160","officetype":"B.O","deliverystatus":"Delivery","statename":"MEGHALAYA","regionname":"Shillong HQ","circlename":"North Eastern","divisionname":"Meghalaya","Taluk":"Ladrymbai"},{"officename":"Laitkor B.O","pincode":"793010","officetype":"B.O","deliverystatus":"Delivery","statename":"MEGHALAYA","regionname":"Shillong HQ","circlename":"North Eastern","divisionname":"Meghalaya","Taluk":"Laitkor Peak"},{"officename":"Pomlakrai B.O","pincode":"793010","officetype":"B.O","deliverystatus":"Delivery","statename":"MEGHALAYA","regionname":"Shillong HQ","circlename":"North Eastern","divisionname":"Meghalaya","Taluk":"Laitkor Peak"},{"officename":"Kynton - U - Mon B.O","pincode":"793021","officetype":"B.O","deliverystatus":"Delivery","statename":"MEGHALAYA","regionname":"Shillong HQ","circlename":"North Eastern","divisionname":"Meghalaya","Taluk":"Madanriting"},{"officename":"Mawryngkneng B.O","pincode":"793021","officetype":"B.O","deliverystatus":"Delivery","statename":"MEGHALAYA","regionname":"Shillong HQ","circlename":"North Eastern","divisionname":"Meghalaya","Taluk":"Madanriting"},{"officename":"Pamora B.O","pincode":"793021","officetype":"B.O","deliverystatus":"Delivery","statename":"MEGHALAYA","regionname":"Shillong HQ","circlename":"North Eastern","divisionname":"Meghalaya","Taluk":"Madanriting"},{"officename":"Dungki - Ingdong B.O","pincode":"793120","officetype":"B.O","deliverystatus":"Delivery","statename":"MEGHALAYA","regionname":"Shillong HQ","circlename":"North Eastern","divisionname":"Meghalaya","Taluk":"Mairang"},{"officename":"Iewmaroid B.O","pincode":"793120","officetype":"B.O","deliverystatus":"Delivery","statename":"MEGHALAYA","regionname":"Shillong HQ","circlename":"North Eastern","divisionname":"Meghalaya","Taluk":"Mairang"},{"officename":"Kynshi B.O","pincode":"793120","officetype":"B.O","deliverystatus":"Delivery","statename":"MEGHALAYA","regionname":"Shillong HQ","circlename":"North Eastern","divisionname":"Meghalaya","Taluk":"Mairang"},{"officename":"Khlieh Lyngkhoi B.O","pincode":"793120","officetype":"B.O","deliverystatus":"Delivery","statename":"MEGHALAYA","regionname":"Shillong HQ","circlename":"North Eastern","divisionname":"Meghalaya","Taluk":"Mairang"},{"officename":"Kynrut B.O","pincode":"793120","officetype":"B.O","deliverystatus":"Delivery","statename":"MEGHALAYA","regionname":"Shillong HQ","circlename":"North Eastern","divisionname":"Meghalaya","Taluk":"Mairang"},{"officename":"Laitdombah B.O","pincode":"793120","officetype":"B.O","deliverystatus":"Delivery","statename":"MEGHALAYA","regionname":"Shillong HQ","circlename":"North Eastern","divisionname":"Meghalaya","Taluk":"Mairang"},{"officename":"Langtor B.O","pincode":"793120","officetype":"B.O","deliverystatus":"Delivery","statename":"MEGHALAYA","regionname":"Shillong HQ","circlename":"North Eastern","divisionname":"Meghalaya","Taluk":"Mairang"},{"officename":"Lawbyrtun B.O","pincode":"793120","officetype":"B.O","deliverystatus":"Delivery","statename":"MEGHALAYA","regionname":"Shillong HQ","circlename":"North Eastern","divisionname":"Meghalaya","Taluk":"Mairang"},{"officename":"Lyngkhoi B.O","pincode":"793120","officetype":"B.O","deliverystatus":"Delivery","statename":"MEGHALAYA","regionname":"Shillong HQ","circlename":"North Eastern","divisionname":"Meghalaya","Taluk":"Mairang"},{"officename":"Manai B.O","pincode":"793120","officetype":"B.O","deliverystatus":"Delivery","statename":"MEGHALAYA","regionname":"Shillong HQ","circlename":"North Eastern","divisionname":"Meghalaya","Taluk":"Mairang"},{"officename":"Mawshut B.O","pincode":"793120","officetype":"B.O","deliverystatus":"Delivery","statename":"MEGHALAYA","regionname":"Shillong HQ","circlename":"North Eastern","divisionname":"Meghalaya","Taluk":"Mairang"},{"officename":"Mawkarah B.O","pincode":"793120","officetype":"B.O","deliverystatus":"Delivery","statename":"MEGHALAYA","regionname":"Shillong HQ","circlename":"North Eastern","divisionname":"Meghalaya","Taluk":"Mairang"},{"officename":"Myriaw B.O","pincode":"793120","officetype":"B.O","deliverystatus":"Delivery","statename":"MEGHALAYA","regionname":"Shillong HQ","circlename":"North Eastern","divisionname":"Meghalaya","Taluk":"Mairang"},{"officename":"Madanbynther B.O","pincode":"793120","officetype":"B.O","deliverystatus":"Delivery","statename":"MEGHALAYA","regionname":"Shillong HQ","circlename":"North Eastern","divisionname":"Meghalaya","Taluk":"Mairang"},{"officename":"Nongkhlaw B.O","pincode":"793120","officetype":"B.O","deliverystatus":"Delivery","statename":"MEGHALAYA","regionname":"Shillong HQ","circlename":"North Eastern","divisionname":"Meghalaya","Taluk":"Mairang"},{"officename":"Nongum B.O","pincode":"793120","officetype":"B.O","deliverystatus":"Delivery","statename":"MEGHALAYA","regionname":"Shillong HQ","circlename":"North Eastern","divisionname":"Meghalaya","Taluk":"Mairang"},{"officename":"Nongthliew B.O","pincode":"793120","officetype":"B.O","deliverystatus":"Delivery","statename":"MEGHALAYA","regionname":"Shillong HQ","circlename":"North Eastern","divisionname":"Meghalaya","Taluk":"Mairang"},{"officename":"Pariong B.O","pincode":"793120","officetype":"B.O","deliverystatus":"Delivery","statename":"MEGHALAYA","regionname":"Shillong HQ","circlename":"North Eastern","divisionname":"Meghalaya","Taluk":"Mairang"},{"officename":"Tiehnongbah B.O","pincode":"793120","officetype":"B.O","deliverystatus":"Delivery","statename":"MEGHALAYA","regionname":"Shillong HQ","circlename":"North Eastern","divisionname":"Meghalaya","Taluk":"Mairang"},{"officename":"Umkrem B.O","pincode":"793120","officetype":"B.O","deliverystatus":"Delivery","statename":"MEGHALAYA","regionname":"Shillong HQ","circlename":"North Eastern","divisionname":"Meghalaya","Taluk":"Mairang"},{"officename":"Umthlong B.O","pincode":"793120","officetype":"B.O","deliverystatus":"Delivery","statename":"MEGHALAYA","regionname":"Shillong HQ","circlename":"North Eastern","divisionname":"Meghalaya","Taluk":"Mairang"},{"officename":"Diengpasoh B.O","pincode":"793012","officetype":"B.O","deliverystatus":"Delivery","statename":"MEGHALAYA","regionname":"Shillong HQ","circlename":"North Eastern","divisionname":"Meghalaya","Taluk":"Mawpat"},{"officename":"Tynring B.O","pincode":"793012","officetype":"B.O","deliverystatus":"Delivery","statename":"MEGHALAYA","regionname":"Shillong HQ","circlename":"North Eastern","divisionname":"Meghalaya","Taluk":"Mawpat"},{"officename":"Lawbah B.O","pincode":"793113","officetype":"B.O","deliverystatus":"Delivery","statename":"MEGHALAYA","regionname":"Shillong HQ","circlename":"North Eastern","divisionname":"Meghalaya","Taluk":"Mawsynram"},{"officename":"Mawhiang B.O","pincode":"793113","officetype":"B.O","deliverystatus":"Delivery","statename":"MEGHALAYA","regionname":"Shillong HQ","circlename":"North Eastern","divisionname":"Meghalaya","Taluk":"Mawsynram"},{"officename":"Mawdongbazar B.O","pincode":"793113","officetype":"B.O","deliverystatus":"Delivery","statename":"MEGHALAYA","regionname":"Shillong HQ","circlename":"North Eastern","divisionname":"Meghalaya","Taluk":"Mawsynram"},{"officename":"Phlangwanbroi B.O","pincode":"793113","officetype":"B.O","deliverystatus":"Delivery","statename":"MEGHALAYA","regionname":"Shillong HQ","circlename":"North Eastern","divisionname":"Meghalaya","Taluk":"Mawsynram"},{"officename":"Phlang Mawsyrpat B.O","pincode":"793113","officetype":"B.O","deliverystatus":"Delivery","statename":"MEGHALAYA","regionname":"Shillong HQ","circlename":"North Eastern","divisionname":"Meghalaya","Taluk":"Mawsynram"},{"officename":"Rynkubazar B.O","pincode":"793113","officetype":"B.O","deliverystatus":"Delivery","statename":"MEGHALAYA","regionname":"Shillong HQ","circlename":"North Eastern","divisionname":"Meghalaya","Taluk":"Mawsynram"},{"officename":"Syntein B.O","pincode":"793113","officetype":"B.O","deliverystatus":"Delivery","statename":"MEGHALAYA","regionname":"Shillong HQ","circlename":"North Eastern","divisionname":"Meghalaya","Taluk":"Mawsynram"},{"officename":"Thyllaw B.O","pincode":"793113","officetype":"B.O","deliverystatus":"Delivery","statename":"MEGHALAYA","regionname":"Shillong HQ","circlename":"North Eastern","divisionname":"Meghalaya","Taluk":"Mawsynram"},{"officename":"Tynger B.O","pincode":"793113","officetype":"B.O","deliverystatus":"Delivery","statename":"MEGHALAYA","regionname":"Shillong HQ","circlename":"North Eastern","divisionname":"Meghalaya","Taluk":"Mawsynram"},{"officename":"Lyngiong B.O","pincode":"793121","officetype":"B.O","deliverystatus":"Delivery","statename":"MEGHALAYA","regionname":"Shillong HQ","circlename":"North Eastern","divisionname":"Meghalaya","Taluk":"Mawphlang"},{"officename":"Marbisu B.O","pincode":"793121","officetype":"B.O","deliverystatus":"Delivery","statename":"MEGHALAYA","regionname":"Shillong HQ","circlename":"North Eastern","divisionname":"Meghalaya","Taluk":"Mawphlang"},{"officename":"Mawreng B.O","pincode":"793121","officetype":"B.O","deliverystatus":"Delivery","statename":"MEGHALAYA","regionname":"Shillong HQ","circlename":"North Eastern","divisionname":"Meghalaya","Taluk":"Mawphlang"},{"officename":"Mawngap B.O","pincode":"793121","officetype":"B.O","deliverystatus":"Delivery","statename":"MEGHALAYA","regionname":"Shillong HQ","circlename":"North Eastern","divisionname":"Meghalaya","Taluk":"Mawphlang"},{"officename":"Mawkriah B.O","pincode":"793121","officetype":"B.O","deliverystatus":"Delivery","statename":"MEGHALAYA","regionname":"Shillong HQ","circlename":"North Eastern","divisionname":"Meghalaya","Taluk":"Mawphlang"},{"officename":"Mawtiehbah B.O","pincode":"793121","officetype":"B.O","deliverystatus":"Delivery","statename":"MEGHALAYA","regionname":"Shillong HQ","circlename":"North Eastern","divisionname":"Meghalaya","Taluk":"Mawphlang"},{"officename":"Mawpun B.O","pincode":"793121","officetype":"B.O","deliverystatus":"Delivery","statename":"MEGHALAYA","regionname":"Shillong HQ","circlename":"North Eastern","divisionname":"Meghalaya","Taluk":"Mawphlang"},{"officename":"Madan Bitaw B.O","pincode":"793121","officetype":"B.O","deliverystatus":"Delivery","statename":"MEGHALAYA","regionname":"Shillong HQ","circlename":"North Eastern","divisionname":"Meghalaya","Taluk":"Mawphlang"},{"officename":"Nongspung B.O","pincode":"793121","officetype":"B.O","deliverystatus":"Delivery","statename":"MEGHALAYA","regionname":"Shillong HQ","circlename":"North Eastern","divisionname":"Meghalaya","Taluk":"Mawphlang"},{"officename":"Pongkung B.O","pincode":"793121","officetype":"B.O","deliverystatus":"Delivery","statename":"MEGHALAYA","regionname":"Shillong HQ","circlename":"North Eastern","divisionname":"Meghalaya","Taluk":"Mawphlang"},{"officename":"Sohpian B.O","pincode":"793121","officetype":"B.O","deliverystatus":"Delivery","statename":"MEGHALAYA","regionname":"Shillong HQ","circlename":"North Eastern","divisionname":"Meghalaya","Taluk":"Mawphlang"},{"officename":"Rangshken B.O","pincode":"793121","officetype":"B.O","deliverystatus":"Delivery","statename":"MEGHALAYA","regionname":"Shillong HQ","circlename":"North Eastern","divisionname":"Meghalaya","Taluk":"Mawphlang"},{"officename":"Tyrsad B.O","pincode":"793121","officetype":"B.O","deliverystatus":"Delivery","statename":"MEGHALAYA","regionname":"Shillong HQ","circlename":"North Eastern","divisionname":"Meghalaya","Taluk":"Mawphlang"},{"officename":"Weiloi B.O","pincode":"793121","officetype":"B.O","deliverystatus":"Delivery","statename":"MEGHALAYA","regionname":"Shillong HQ","circlename":"North Eastern","divisionname":"Meghalaya","Taluk":"Mawphlang"},{"officename":"Jakrem B.O","pincode":"793114","officetype":"B.O","deliverystatus":"Delivery","statename":"MEGHALAYA","regionname":"Shillong HQ","circlename":"North Eastern","divisionname":"Meghalaya","Taluk":"Mawkyrwat"},{"officename":"Jashier B.O","pincode":"793114","officetype":"B.O","deliverystatus":"Delivery","statename":"MEGHALAYA","regionname":"Shillong HQ","circlename":"North Eastern","divisionname":"Meghalaya","Taluk":"Mawkyrwat"},{"officename":"Mawsaw B.O","pincode":"793114","officetype":"B.O","deliverystatus":"Delivery","statename":"MEGHALAYA","regionname":"Shillong HQ","circlename":"North Eastern","divisionname":"Meghalaya","Taluk":"Mawkyrwat"},{"officename":"Mawlyngwir B.O","pincode":"793114","officetype":"B.O","deliverystatus":"Delivery","statename":"MEGHALAYA","regionname":"Shillong HQ","circlename":"North Eastern","divisionname":"Meghalaya","Taluk":"Mawkyrwat"},{"officename":"Mawthapdoh B.O","pincode":"793114","officetype":"B.O","deliverystatus":"Delivery","statename":"MEGHALAYA","regionname":"Shillong HQ","circlename":"North Eastern","divisionname":"Meghalaya","Taluk":"Mawkyrwat"},{"officename":"Mawten B.O","pincode":"793114","officetype":"B.O","deliverystatus":"Delivery","statename":"MEGHALAYA","regionname":"Shillong HQ","circlename":"North Eastern","divisionname":"Meghalaya","Taluk":"Mawkyrwat"},{"officename":"Nongsynrih B.O","pincode":"793114","officetype":"B.O","deliverystatus":"Delivery","statename":"MEGHALAYA","regionname":"Shillong HQ","circlename":"North Eastern","divisionname":"Meghalaya","Taluk":"Mawkyrwat"},{"officename":"Ngunraw B.O","pincode":"793114","officetype":"B.O","deliverystatus":"Delivery","statename":"MEGHALAYA","regionname":"Shillong HQ","circlename":"North Eastern","divisionname":"Meghalaya","Taluk":"Mawkyrwat"},{"officename":"Nonglang B.O","pincode":"793114","officetype":"B.O","deliverystatus":"Delivery","statename":"MEGHALAYA","regionname":"Shillong HQ","circlename":"North Eastern","divisionname":"Meghalaya","Taluk":"Mawkyrwat"},{"officename":"Phudjaud B.O","pincode":"793114","officetype":"B.O","deliverystatus":"Delivery","statename":"MEGHALAYA","regionname":"Shillong HQ","circlename":"North Eastern","divisionname":"Meghalaya","Taluk":"Mawkyrwat"},{"officename":"Phlang Kynshi B.O","pincode":"793114","officetype":"B.O","deliverystatus":"Delivery","statename":"MEGHALAYA","regionname":"Shillong HQ","circlename":"North Eastern","divisionname":"Meghalaya","Taluk":"Mawkyrwat"},{"officename":"Pyndemsakwang B.O","pincode":"793114","officetype":"B.O","deliverystatus":"Delivery","statename":"MEGHALAYA","regionname":"Shillong HQ","circlename":"North Eastern","divisionname":"Meghalaya","Taluk":"Mawkyrwat"},{"officename":"Rangthong B.O","pincode":"793114","officetype":"B.O","deliverystatus":"Delivery","statename":"MEGHALAYA","regionname":"Shillong HQ","circlename":"North Eastern","divisionname":"Meghalaya","Taluk":"Mawkyrwat"},{"officename":"Rangmaw B.O","pincode":"793114","officetype":"B.O","deliverystatus":"Delivery","statename":"MEGHALAYA","regionname":"Shillong HQ","circlename":"North Eastern","divisionname":"Meghalaya","Taluk":"Mawkyrwat"},{"officename":"Sngimawlein B.O","pincode":"793114","officetype":"B.O","deliverystatus":"Delivery","statename":"MEGHALAYA","regionname":"Shillong HQ","circlename":"North Eastern","divisionname":"Meghalaya","Taluk":"Mawkyrwat"},{"officename":"Umjarain B.O","pincode":"793114","officetype":"B.O","deliverystatus":"Delivery","statename":"MEGHALAYA","regionname":"Shillong HQ","circlename":"North Eastern","divisionname":"Meghalaya","Taluk":"Mawkyrwat"},{"officename":"Mawklot B.O","pincode":"793009","officetype":"B.O","deliverystatus":"Delivery","statename":"MEGHALAYA","regionname":"Shillong HQ","circlename":"North Eastern","divisionname":"Meghalaya","Taluk":"Nonglyer"},{"officename":"Mylliem Syllai U Lar B.O","pincode":"793009","officetype":"B.O","deliverystatus":"Delivery","statename":"MEGHALAYA","regionname":"Shillong HQ","circlename":"North Eastern","divisionname":"Meghalaya","Taluk":"Nonglyer"},{"officename":"Hatumling B.O","pincode":"793102","officetype":"B.O","deliverystatus":"Delivery","statename":"MEGHALAYA","regionname":"Shillong HQ","circlename":"North Eastern","divisionname":"Meghalaya","Taluk":"Nongpoh"},{"officename":"Kynjoin Umran B.O","pincode":"793102","officetype":"B.O","deliverystatus":"Delivery","statename":"MEGHALAYA","regionname":"Shillong HQ","circlename":"North Eastern","divisionname":"Meghalaya","Taluk":"Nongpoh"},{"officename":"Lailad B.O","pincode":"793102","officetype":"B.O","deliverystatus":"Delivery","statename":"MEGHALAYA","regionname":"Shillong HQ","circlename":"North Eastern","divisionname":"Meghalaya","Taluk":"Nongpoh"},{"officename":"Marngar B.O","pincode":"793102","officetype":"B.O","deliverystatus":"Delivery","statename":"MEGHALAYA","regionname":"Shillong HQ","circlename":"North Eastern","divisionname":"Meghalaya","Taluk":"Nongpoh"},{"officename":"Mawlong B.O","pincode":"793102","officetype":"B.O","deliverystatus":"Delivery","statename":"MEGHALAYA","regionname":"Shillong HQ","circlename":"North Eastern","divisionname":"Meghalaya","Taluk":"Nongpoh"},{"officename":"Marmain B.O","pincode":"793102","officetype":"B.O","deliverystatus":"Delivery","statename":"MEGHALAYA","regionname":"Shillong HQ","circlename":"North Eastern","divisionname":"Meghalaya","Taluk":"Nongpoh"},{"officename":"Nongladew B.O","pincode":"793102","officetype":"B.O","deliverystatus":"Delivery","statename":"MEGHALAYA","regionname":"Shillong HQ","circlename":"North Eastern","divisionname":"Meghalaya","Taluk":"Nongpoh"},{"officename":"Niangbari B.O","pincode":"793102","officetype":"B.O","deliverystatus":"Delivery","statename":"MEGHALAYA","regionname":"Shillong HQ","circlename":"North Eastern","divisionname":"Meghalaya","Taluk":"Nongpoh"},{"officename":"Saiden B.O","pincode":"793102","officetype":"B.O","deliverystatus":"Delivery","statename":"MEGHALAYA","regionname":"Shillong HQ","circlename":"North Eastern","divisionname":"Meghalaya","Taluk":"Nongpoh"},{"officename":"Umdihar B.O","pincode":"793102","officetype":"B.O","deliverystatus":"Delivery","statename":"MEGHALAYA","regionname":"Shillong HQ","circlename":"North Eastern","divisionname":"Meghalaya","Taluk":"Nongpoh"},{"officename":"Umden B.O","pincode":"793102","officetype":"B.O","deliverystatus":"Delivery","statename":"MEGHALAYA","regionname":"Shillong HQ","circlename":"North Eastern","divisionname":"Meghalaya","Taluk":"Nongpoh"},{"officename":"Umsawnongbri B.O","pincode":"793102","officetype":"B.O","deliverystatus":"Delivery","statename":"MEGHALAYA","regionname":"Shillong HQ","circlename":"North Eastern","divisionname":"Meghalaya","Taluk":"Nongpoh"},{"officename":"Umrit B.O","pincode":"793102","officetype":"B.O","deliverystatus":"Delivery","statename":"MEGHALAYA","regionname":"Shillong HQ","circlename":"North Eastern","divisionname":"Meghalaya","Taluk":"Nongpoh"},{"officename":"Byrki B.O","pincode":"793119","officetype":"B.O","deliverystatus":"Delivery","statename":"MEGHALAYA","regionname":"Shillong HQ","circlename":"North Eastern","divisionname":"Meghalaya","Taluk":"Nongstoin"},{"officename":"Jaidoh B.O","pincode":"793119","officetype":"B.O","deliverystatus":"Delivery","statename":"MEGHALAYA","regionname":"Shillong HQ","circlename":"North Eastern","divisionname":"Meghalaya","Taluk":"Nongstoin"},{"officename":"Khliehmawlieh B.O","pincode":"793119","officetype":"B.O","deliverystatus":"Delivery","statename":"MEGHALAYA","regionname":"Shillong HQ","circlename":"North Eastern","divisionname":"Meghalaya","Taluk":"Nongstoin"},{"officename":"Laitkseh B.O","pincode":"793119","officetype":"B.O","deliverystatus":"Delivery","statename":"MEGHALAYA","regionname":"Shillong HQ","circlename":"North Eastern","divisionname":"Meghalaya","Taluk":"Nongstoin"},{"officename":"Langdongdai B.O","pincode":"793119","officetype":"B.O","deliverystatus":"Delivery","statename":"MEGHALAYA","regionname":"Shillong HQ","circlename":"North Eastern","divisionname":"Meghalaya","Taluk":"Nongstoin"},{"officename":"Marskuin B.O","pincode":"793119","officetype":"B.O","deliverystatus":"Delivery","statename":"MEGHALAYA","regionname":"Shillong HQ","circlename":"North Eastern","divisionname":"Meghalaya","Taluk":"Nongstoin"},{"officename":"Mawthungkper B.O","pincode":"793119","officetype":"B.O","deliverystatus":"Delivery","statename":"MEGHALAYA","regionname":"Shillong HQ","circlename":"North Eastern","divisionname":"Meghalaya","Taluk":"Nongstoin"},{"officename":"Maweitlyngngam B.O","pincode":"793119","officetype":"B.O","deliverystatus":"Delivery","statename":"MEGHALAYA","regionname":"Shillong HQ","circlename":"North Eastern","divisionname":"Meghalaya","Taluk":"Nongstoin"},{"officename":"Mawkohngei B.O","pincode":"793119","officetype":"B.O","deliverystatus":"Delivery","statename":"MEGHALAYA","regionname":"Shillong HQ","circlename":"North Eastern","divisionname":"Meghalaya","Taluk":"Nongstoin"},{"officename":"Mawlieh B.O","pincode":"793119","officetype":"B.O","deliverystatus":"Delivery","statename":"MEGHALAYA","regionname":"Shillong HQ","circlename":"North Eastern","divisionname":"Meghalaya","Taluk":"Nongstoin"},{"officename":"Mawthengkut B.O","pincode":"793119","officetype":"B.O","deliverystatus":"Delivery","statename":"MEGHALAYA","regionname":"Shillong HQ","circlename":"North Eastern","divisionname":"Meghalaya","Taluk":"Nongstoin"},{"officename":"Nongbah B.O","pincode":"793119","officetype":"B.O","deliverystatus":"Delivery","statename":"MEGHALAYA","regionname":"Shillong HQ","circlename":"North Eastern","divisionname":"Meghalaya","Taluk":"Nongstoin"},{"officename":"Nonglang B.O","pincode":"793119","officetype":"B.O","deliverystatus":"Delivery","statename":"MEGHALAYA","regionname":"Shillong HQ","circlename":"North Eastern","divisionname":"Meghalaya","Taluk":"Nongstoin"},{"officename":"Nongkasen B.O","pincode":"793119","officetype":"B.O","deliverystatus":"Delivery","statename":"MEGHALAYA","regionname":"Shillong HQ","circlename":"North Eastern","divisionname":"Meghalaya","Taluk":"Nongstoin"},{"officename":"Nongpyndeng B.O","pincode":"793119","officetype":"B.O","deliverystatus":"Delivery","statename":"MEGHALAYA","regionname":"Shillong HQ","circlename":"North Eastern","divisionname":"Meghalaya","Taluk":"Nongstoin"},{"officename":"Nongshyrkon B.O","pincode":"793119","officetype":"B.O","deliverystatus":"Delivery","statename":"MEGHALAYA","regionname":"Shillong HQ","circlename":"North Eastern","divisionname":"Meghalaya","Taluk":"Nongstoin"},{"officename":"Nongthynniew B.O","pincode":"793119","officetype":"B.O","deliverystatus":"Delivery","statename":"MEGHALAYA","regionname":"Shillong HQ","circlename":"North Eastern","divisionname":"Meghalaya","Taluk":"Nongstoin"},{"officename":"Nongsdad  Dkhar B.O","pincode":"793119","officetype":"B.O","deliverystatus":"Delivery","statename":"MEGHALAYA","regionname":"Shillong HQ","circlename":"North Eastern","divisionname":"Meghalaya","Taluk":"Nongstoin"},{"officename":"Pam Briew B.O","pincode":"793119","officetype":"B.O","deliverystatus":"Delivery","statename":"MEGHALAYA","regionname":"Shillong HQ","circlename":"North Eastern","divisionname":"Meghalaya","Taluk":"Nongstoin"},{"officename":"Pyndengrei B.O","pincode":"793119","officetype":"B.O","deliverystatus":"Delivery","statename":"MEGHALAYA","regionname":"Shillong HQ","circlename":"North Eastern","divisionname":"Meghalaya","Taluk":"Nongstoin"},{"officename":"Phlangdiloin B.O","pincode":"793119","officetype":"B.O","deliverystatus":"Delivery","statename":"MEGHALAYA","regionname":"Shillong HQ","circlename":"North Eastern","divisionname":"Meghalaya","Taluk":"Nongstoin"},{"officename":"Rambrai B.O","pincode":"793119","officetype":"B.O","deliverystatus":"Delivery","statename":"MEGHALAYA","regionname":"Shillong HQ","circlename":"North Eastern","divisionname":"Meghalaya","Taluk":"Nongstoin"},{"officename":"Rangblang B.O","pincode":"793119","officetype":"B.O","deliverystatus":"Delivery","statename":"MEGHALAYA","regionname":"Shillong HQ","circlename":"North Eastern","divisionname":"Meghalaya","Taluk":"Nongstoin"},{"officename":"Seinduli B.O","pincode":"793126","officetype":"B.O","deliverystatus":"Delivery","statename":"MEGHALAYA","regionname":"Shillong HQ","circlename":"North Eastern","divisionname":"Meghalaya","Taluk":"Nongstoin"},{"officename":"Shallang B.O","pincode":"793119","officetype":"B.O","deliverystatus":"Delivery","statename":"MEGHALAYA","regionname":"Shillong HQ","circlename":"North Eastern","divisionname":"Meghalaya","Taluk":"Nongstoin"},{"officename":"Thangpylleng Pyndemkseh B.O","pincode":"793119","officetype":"B.O","deliverystatus":"Delivery","statename":"MEGHALAYA","regionname":"Shillong HQ","circlename":"North Eastern","divisionname":"Meghalaya","Taluk":"Nongstoin"},{"officename":"Umsohpieng B.O","pincode":"793119","officetype":"B.O","deliverystatus":"Delivery","statename":"MEGHALAYA","regionname":"Shillong HQ","circlename":"North Eastern","divisionname":"Meghalaya","Taluk":"Nongstoin"},{"officename":"Wahkaji B.O","pincode":"793119","officetype":"B.O","deliverystatus":"Delivery","statename":"MEGHALAYA","regionname":"Shillong HQ","circlename":"North Eastern","divisionname":"Meghalaya","Taluk":"Nongstoin"},{"officename":"Umdohlun B.O","pincode":"793119","officetype":"B.O","deliverystatus":"Delivery","statename":"MEGHALAYA","regionname":"Shillong HQ","circlename":"North Eastern","divisionname":"Meghalaya","Taluk":"Nongstoin"},{"officename":"Mawtawar B.O","pincode":"793022","officetype":"B.O","deliverystatus":"Delivery","statename":"MEGHALAYA","regionname":"Shillong HQ","circlename":"North Eastern","divisionname":"Meghalaya","Taluk":"Mawlai"},{"officename":"Kynton Massar B.O","pincode":"793022","officetype":"B.O","deliverystatus":"Delivery","statename":"MEGHALAYA","regionname":"Shillong HQ","circlename":"North Eastern","divisionname":"Meghalaya","Taluk":"Mawlai"},{"officename":"Mawroh B.O","pincode":"793008","officetype":"B.O","deliverystatus":"Delivery","statename":"MEGHALAYA","regionname":"Shillong HQ","circlename":"North Eastern","divisionname":"Meghalaya","Taluk":"Mawlai"},{"officename":"Iewmawiong B.O","pincode":"793110","officetype":"B.O","deliverystatus":"Delivery","statename":"MEGHALAYA","regionname":"Shillong HQ","circlename":"North Eastern","divisionname":"Meghalaya","Taluk":"Pynursla"},{"officename":"Laitlyngkot B.O","pincode":"793110","officetype":"B.O","deliverystatus":"Delivery","statename":"MEGHALAYA","regionname":"Shillong HQ","circlename":"North Eastern","divisionname":"Meghalaya","Taluk":"Pynursla"},{"officename":"Langkyrdem B.O","pincode":"793110","officetype":"B.O","deliverystatus":"Delivery","statename":"MEGHALAYA","regionname":"Shillong HQ","circlename":"North Eastern","divisionname":"Meghalaya","Taluk":"Pynursla"},{"officename":"Mawbeh B.O","pincode":"793110","officetype":"B.O","deliverystatus":"Delivery","statename":"MEGHALAYA","regionname":"Shillong HQ","circlename":"North Eastern","divisionname":"Meghalaya","Taluk":"Pynursla"},{"officename":"Myllat B.O","pincode":"793110","officetype":"B.O","deliverystatus":"Delivery","statename":"MEGHALAYA","regionname":"Shillong HQ","circlename":"North Eastern","divisionname":"Meghalaya","Taluk":"Pynursla"},{"officename":"Nongjri B.O","pincode":"793110","officetype":"B.O","deliverystatus":"Delivery","statename":"MEGHALAYA","regionname":"Shillong HQ","circlename":"North Eastern","divisionname":"Meghalaya","Taluk":"Pynursla"},{"officename":"Nongkynrih B.O","pincode":"793110","officetype":"B.O","deliverystatus":"Delivery","statename":"MEGHALAYA","regionname":"Shillong HQ","circlename":"North Eastern","divisionname":"Meghalaya","Taluk":"Pynursla"},{"officename":"Umniuh - Tmar B.O","pincode":"793110","officetype":"B.O","deliverystatus":"Delivery","statename":"MEGHALAYA","regionname":"Shillong HQ","circlename":"North Eastern","divisionname":"Meghalaya","Taluk":"Pynursla"},{"officename":"Wahshiarkhmut B.O","pincode":"793110","officetype":"B.O","deliverystatus":"Delivery","statename":"MEGHALAYA","regionname":"Shillong HQ","circlename":"North Eastern","divisionname":"Meghalaya","Taluk":"Pynursla"},{"officename":"Umkdait B.O","pincode":"793006","officetype":"B.O","deliverystatus":"Delivery","statename":"MEGHALAYA","regionname":"Shillong HQ","circlename":"North Eastern","divisionname":"Meghalaya","Taluk":"Rynjah"},{"officename":"Disong B.O","pincode":"793112","officetype":"B.O","deliverystatus":"Delivery","statename":"MEGHALAYA","regionname":"Shillong HQ","circlename":"North Eastern","divisionname":"Meghalaya","Taluk":"Shella"},{"officename":"Dalia B.O","pincode":"793112","officetype":"B.O","deliverystatus":"Delivery","statename":"MEGHALAYA","regionname":"Shillong HQ","circlename":"North Eastern","divisionname":"Meghalaya","Taluk":"Shella"},{"officename":"Ichamati B.O","pincode":"793112","officetype":"B.O","deliverystatus":"Delivery","statename":"MEGHALAYA","regionname":"Shillong HQ","circlename":"North Eastern","divisionname":"Meghalaya","Taluk":"Shella"},{"officename":"Kalatak B.O","pincode":"793112","officetype":"B.O","deliverystatus":"Delivery","statename":"MEGHALAYA","regionname":"Shillong HQ","circlename":"North Eastern","divisionname":"Meghalaya","Taluk":"Shella"},{"officename":"Barua Basti B.O","pincode":"793104","officetype":"B.O","deliverystatus":"Delivery","statename":"MEGHALAYA","regionname":"Shillong HQ","circlename":"North Eastern","divisionname":"Meghalaya","Taluk":"Sumer"},{"officename":"Jongksha B.O","pincode":"793015","officetype":"B.O","deliverystatus":"Delivery","statename":"MEGHALAYA","regionname":"Shillong HQ","circlename":"North Eastern","divisionname":"Meghalaya","Taluk":"Smit"},{"officename":"Kharang B.O","pincode":"793015","officetype":"B.O","deliverystatus":"Delivery","statename":"MEGHALAYA","regionname":"Shillong HQ","circlename":"North Eastern","divisionname":"Meghalaya","Taluk":"Smit"},{"officename":"Mawkynrew B.O","pincode":"793015","officetype":"B.O","deliverystatus":"Delivery","statename":"MEGHALAYA","regionname":"Shillong HQ","circlename":"North Eastern","divisionname":"Meghalaya","Taluk":"Smit"},{"officename":"Mawlong B.O","pincode":"793015","officetype":"B.O","deliverystatus":"Delivery","statename":"MEGHALAYA","regionname":"Shillong HQ","circlename":"North Eastern","divisionname":"Meghalaya","Taluk":"Smit"},{"officename":"Nongkrem B.O","pincode":"793015","officetype":"B.O","deliverystatus":"Delivery","statename":"MEGHALAYA","regionname":"Shillong HQ","circlename":"North Eastern","divisionname":"Meghalaya","Taluk":"Smit"},{"officename":"Thangsning B.O","pincode":"793015","officetype":"B.O","deliverystatus":"Delivery","statename":"MEGHALAYA","regionname":"Shillong HQ","circlename":"North Eastern","divisionname":"Meghalaya","Taluk":"Smit"},{"officename":"Umphyrnai B.O","pincode":"793015","officetype":"B.O","deliverystatus":"Delivery","statename":"MEGHALAYA","regionname":"Shillong HQ","circlename":"North Eastern","divisionname":"Meghalaya","Taluk":"Smit"},{"officename":"Mawlat B.O","pincode":"793015","officetype":"B.O","deliverystatus":"Delivery","statename":"MEGHALAYA","regionname":"Shillong HQ","circlename":"North Eastern","divisionname":"Meghalaya","Taluk":"Smit"},{"officename":"Lynshing B.O","pincode":"793015","officetype":"B.O","deliverystatus":"Delivery","statename":"MEGHALAYA","regionname":"Shillong HQ","circlename":"North Eastern","divisionname":"Meghalaya","Taluk":"Smit"},{"officename":"Ryngibah B.O","pincode":"793015","officetype":"B.O","deliverystatus":"Delivery","statename":"MEGHALAYA","regionname":"Shillong HQ","circlename":"North Eastern","divisionname":"Meghalaya","Taluk":"Smit"},{"officename":"Umsning B.O","pincode":"793015","officetype":"B.O","deliverystatus":"Delivery","statename":"MEGHALAYA","regionname":"Shillong HQ","circlename":"North Eastern","divisionname":"Meghalaya","Taluk":"Smit"},{"officename":"Khanduli B.O","pincode":"793151","officetype":"B.O","deliverystatus":"Delivery","statename":"MEGHALAYA","regionname":"Shillong HQ","circlename":"North Eastern","divisionname":"Meghalaya","Taluk":"Thadlaskein"},{"officename":"Mookynniang B.O","pincode":"793151","officetype":"B.O","deliverystatus":"Delivery","statename":"MEGHALAYA","regionname":"Shillong HQ","circlename":"North Eastern","divisionname":"Meghalaya","Taluk":"Thadlaskein"},{"officename":"Mawdymmai B.O","pincode":"793151","officetype":"B.O","deliverystatus":"Delivery","statename":"MEGHALAYA","regionname":"Shillong HQ","circlename":"North Eastern","divisionname":"Meghalaya","Taluk":"Thadlaskein"},{"officename":"Mawbakhon B.O","pincode":"793151","officetype":"B.O","deliverystatus":"Delivery","statename":"MEGHALAYA","regionname":"Shillong HQ","circlename":"North Eastern","divisionname":"Meghalaya","Taluk":"Thadlaskein"},{"officename":"Nartiang B.O","pincode":"793151","officetype":"B.O","deliverystatus":"Delivery","statename":"MEGHALAYA","regionname":"Shillong HQ","circlename":"North Eastern","divisionname":"Meghalaya","Taluk":"Thadlaskein"},{"officename":"Namdong B.O","pincode":"793151","officetype":"B.O","deliverystatus":"Delivery","statename":"MEGHALAYA","regionname":"Shillong HQ","circlename":"North Eastern","divisionname":"Meghalaya","Taluk":"Thadlaskein"},{"officename":"Nongjngi B.O","pincode":"793151","officetype":"B.O","deliverystatus":"Delivery","statename":"MEGHALAYA","regionname":"Shillong HQ","circlename":"North Eastern","divisionname":"Meghalaya","Taluk":"Thadlaskein"},{"officename":"Saitsama B.O","pincode":"793151","officetype":"B.O","deliverystatus":"Delivery","statename":"MEGHALAYA","regionname":"Shillong HQ","circlename":"North Eastern","divisionname":"Meghalaya","Taluk":"Thadlaskein"},{"officename":"Ummulong B.O","pincode":"793151","officetype":"B.O","deliverystatus":"Delivery","statename":"MEGHALAYA","regionname":"Shillong HQ","circlename":"North Eastern","divisionname":"Meghalaya","Taluk":"Thadlaskein"},{"officename":"Umladang B.O","pincode":"793151","officetype":"B.O","deliverystatus":"Delivery","statename":"MEGHALAYA","regionname":"Shillong HQ","circlename":"North Eastern","divisionname":"Meghalaya","Taluk":"Thadlasken"},{"officename":"Wahiajer B.O","pincode":"793151","officetype":"B.O","deliverystatus":"Delivery","statename":"MEGHALAYA","regionname":"Shillong HQ","circlename":"North Eastern","divisionname":"Meghalaya","Taluk":"Thadlaskein"},{"officename":"Diengiei B.O","pincode":"793005","officetype":"B.O","deliverystatus":"Delivery","statename":"MEGHALAYA","regionname":"Shillong HQ","circlename":"North Eastern","divisionname":"Meghalaya","Taluk":"Upper Shillong"},{"officename":"Nongumlong B.O","pincode":"793005","officetype":"B.O","deliverystatus":"Delivery","statename":"MEGHALAYA","regionname":"Shillong HQ","circlename":"North Eastern","divisionname":"Meghalaya","Taluk":"Upper Shillong"},{"officename":"Kyrdem Kulai B.O","pincode":"793105","officetype":"B.O","deliverystatus":"Delivery","statename":"MEGHALAYA","regionname":"Shillong HQ","circlename":"North Eastern","divisionname":"Meghalaya","Taluk":"Umsning"},{"officename":"Mawhati B.O","pincode":"793105","officetype":"B.O","deliverystatus":"Delivery","statename":"MEGHALAYA","regionname":"Shillong HQ","circlename":"North Eastern","divisionname":"Meghalaya","Taluk":"Umsning"},{"officename":"Mawrong B.O","pincode":"793105","officetype":"B.O","deliverystatus":"Delivery","statename":"MEGHALAYA","regionname":"Shillong HQ","circlename":"North Eastern","divisionname":"Meghalaya","Taluk":"Umsning"},{"officename":"Sanidon B.O","pincode":"793105","officetype":"B.O","deliverystatus":"Delivery","statename":"MEGHALAYA","regionname":"Shillong HQ","circlename":"North Eastern","divisionname":"Meghalaya","Taluk":"Umsning"},{"officename":"Umsohlait B.O","pincode":"793105","officetype":"B.O","deliverystatus":"Delivery","statename":"MEGHALAYA","regionname":"Shillong HQ","circlename":"North Eastern","divisionname":"Meghalaya","Taluk":"Umsning"},{"officename":"Umran B.O","pincode":"793105","officetype":"B.O","deliverystatus":"Delivery","statename":"MEGHALAYA","regionname":"Shillong HQ","circlename":"North Eastern","divisionname":"Meghalaya","Taluk":"Umsning"},{"officename":"Kyrdem B.O","pincode":"793103","officetype":"B.O","deliverystatus":"Delivery","statename":"MEGHALAYA","regionname":"Shillong HQ","circlename":"North Eastern","divisionname":"Meghalaya","Taluk":"Umiam"},{"officename":"Mawbri B.O","pincode":"793103","officetype":"B.O","deliverystatus":"Delivery","statename":"MEGHALAYA","regionname":"Shillong HQ","circlename":"North Eastern","divisionname":"Meghalaya","Taluk":"Umiam"},{"officename":"Rongmen B.O","pincode":"793103","officetype":"B.O","deliverystatus":"Delivery","statename":"MEGHALAYA","regionname":"Shillong HQ","circlename":"North Eastern","divisionname":"Meghalaya","Taluk":"Umiam"},{"officename":"Umroi B.O","pincode":"793103","officetype":"B.O","deliverystatus":"Delivery","statename":"MEGHALAYA","regionname":"Shillong HQ","circlename":"North Eastern","divisionname":"Meghalaya","Taluk":"Umiam"},{"officename":"Umktieh B.O","pincode":"793103","officetype":"B.O","deliverystatus":"Delivery","statename":"MEGHALAYA","regionname":"Shillong HQ","circlename":"North Eastern","divisionname":"Meghalaya","Taluk":"Umiam"},{"officename":"Betsing B.O","pincode":"794115","officetype":"B.O","deliverystatus":"Delivery","statename":"MEGHALAYA","regionname":"Shillong HQ","circlename":"North Eastern","divisionname":"Meghalaya","Taluk":"Ampati"},{"officename":"Bandelkona B.O","pincode":"794115","officetype":"B.O","deliverystatus":"Delivery","statename":"MEGHALAYA","regionname":"Shillong HQ","circlename":"North Eastern","divisionname":"Meghalaya","Taluk":"Ampati"},{"officename":"Kalaichar B.O","pincode":"794115","officetype":"B.O","deliverystatus":"Delivery","statename":"MEGHALAYA","regionname":"Shillong HQ","circlename":"North Eastern","divisionname":"Meghalaya","Taluk":"Ampati"},{"officename":"Katuli B.O","pincode":"794115","officetype":"B.O","deliverystatus":"Delivery","statename":"MEGHALAYA","regionname":"Shillong HQ","circlename":"North Eastern","divisionname":"Meghalaya","Taluk":"Ampati"},{"officename":"Sulguri B.O","pincode":"794115","officetype":"B.O","deliverystatus":"Delivery","statename":"MEGHALAYA","regionname":"Shillong HQ","circlename":"North Eastern","divisionname":"Meghalaya","Taluk":"Ampati"},{"officename":"Salmanpara B.O","pincode":"794115","officetype":"B.O","deliverystatus":"Delivery","statename":"MEGHALAYA","regionname":"Shillong HQ","circlename":"North Eastern","divisionname":"Meghalaya","Taluk":"Ampati"},{"officename":"Zigzak B.O","pincode":"794115","officetype":"B.O","deliverystatus":"Delivery","statename":"MEGHALAYA","regionname":"Shillong HQ","circlename":"North Eastern","divisionname":"Meghalaya","Taluk":"Ampati"},{"officename":"Dakopgiri B.O","pincode":"794101","officetype":"B.O","deliverystatus":"Delivery","statename":"MEGHALAYA","regionname":"Shillong HQ","circlename":"North Eastern","divisionname":"Meghalaya","Taluk":"Araimile"},{"officename":"Captain Reserve B.O","pincode":"794101","officetype":"B.O","deliverystatus":"Delivery","statename":"MEGHALAYA","regionname":"Shillong HQ","circlename":"North Eastern","divisionname":"Meghalaya","Taluk":"Araimile"},{"officename":"Balkhalbazar B.O","pincode":"794102","officetype":"B.O","deliverystatus":"Delivery","statename":"MEGHALAYA","regionname":"Shillong HQ","circlename":"North Eastern","divisionname":"Meghalaya","Taluk":"Baghmara"},{"officename":"Balsalgiri B.O","pincode":"794102","officetype":"B.O","deliverystatus":"Delivery","statename":"MEGHALAYA","regionname":"Shillong HQ","circlename":"North Eastern","divisionname":"Meghalaya","Taluk":"Baghmara"},{"officename":"Emangiri B.O","pincode":"794102","officetype":"B.O","deliverystatus":"Delivery","statename":"MEGHALAYA","regionname":"Shillong HQ","circlename":"North Eastern","divisionname":"Meghalaya","Taluk":"Baghmara"},{"officename":"Mendikgiri B.O","pincode":"794102","officetype":"B.O","deliverystatus":"Delivery","statename":"MEGHALAYA","regionname":"Shillong HQ","circlename":"North Eastern","divisionname":"Meghalaya","Taluk":"Baghmara"},{"officename":"Nilwalgiri B.O","pincode":"794102","officetype":"B.O","deliverystatus":"Delivery","statename":"MEGHALAYA","regionname":"Shillong HQ","circlename":"North Eastern","divisionname":"Meghalaya","Taluk":"Baghmara"},{"officename":"Panda B.O","pincode":"794102","officetype":"B.O","deliverystatus":"Delivery","statename":"MEGHALAYA","regionname":"Shillong HQ","circlename":"North Eastern","divisionname":"Meghalaya","Taluk":"Baghmara"},{"officename":"Siju B.O","pincode":"794102","officetype":"B.O","deliverystatus":"Delivery","statename":"MEGHALAYA","regionname":"Shillong HQ","circlename":"North Eastern","divisionname":"Meghalaya","Taluk":"Baghmara"},{"officename":"Chandabhui B.O","pincode":"794103","officetype":"B.O","deliverystatus":"Delivery","statename":"MEGHALAYA","regionname":"Shillong HQ","circlename":"North Eastern","divisionname":"Meghalaya","Taluk":"Barengapara"},{"officename":"Chengapara B.O","pincode":"794103","officetype":"B.O","deliverystatus":"Delivery","statename":"MEGHALAYA","regionname":"Shillong HQ","circlename":"North Eastern","divisionname":"Meghalaya","Taluk":"Barengapara"},{"officename":"Dimapara B.O","pincode":"794103","officetype":"B.O","deliverystatus":"Delivery","statename":"MEGHALAYA","regionname":"Shillong HQ","circlename":"North Eastern","divisionname":"Meghalaya","Taluk":"Barengapara"},{"officename":"Gachuapara B.O","pincode":"794103","officetype":"B.O","deliverystatus":"Delivery","statename":"MEGHALAYA","regionname":"Shillong HQ","circlename":"North Eastern","divisionname":"Meghalaya","Taluk":"Barengapara"},{"officename":"Ganchudari B.O","pincode":"794103","officetype":"B.O","deliverystatus":"Delivery","statename":"MEGHALAYA","regionname":"Shillong HQ","circlename":"North Eastern","divisionname":"Meghalaya","Taluk":"Barengapara"},{"officename":"Chati B.O","pincode":"794103","officetype":"B.O","deliverystatus":"Delivery","statename":"MEGHALAYA","regionname":"Shillong HQ","circlename":"North Eastern","divisionname":"Meghalaya","Taluk":"Barengapara"},{"officename":"Joshipara B.O","pincode":"794103","officetype":"B.O","deliverystatus":"Delivery","statename":"MEGHALAYA","regionname":"Shillong HQ","circlename":"North Eastern","divisionname":"Meghalaya","Taluk":"Barengapara"},{"officename":"Kapasipara B.O","pincode":"794103","officetype":"B.O","deliverystatus":"Delivery","statename":"MEGHALAYA","regionname":"Shillong HQ","circlename":"North Eastern","divisionname":"Meghalaya","Taluk":"Barengapara"},{"officename":"Kharapara B.O","pincode":"794103","officetype":"B.O","deliverystatus":"Delivery","statename":"MEGHALAYA","regionname":"Shillong HQ","circlename":"North Eastern","divisionname":"Meghalaya","Taluk":"Barengapara"},{"officename":"Mihanpara B.O","pincode":"794103","officetype":"B.O","deliverystatus":"Delivery","statename":"MEGHALAYA","regionname":"Shillong HQ","circlename":"North Eastern","divisionname":"Meghalaya","Taluk":"Barengapara"},{"officename":"Purakhasia B.O","pincode":"794103","officetype":"B.O","deliverystatus":"Delivery","statename":"MEGHALAYA","regionname":"Shillong HQ","circlename":"North Eastern","divisionname":"Meghalaya","Taluk":"Barengapara"},{"officename":"Rimrangapara B.O","pincode":"794103","officetype":"B.O","deliverystatus":"Delivery","statename":"MEGHALAYA","regionname":"Shillong HQ","circlename":"North Eastern","divisionname":"Meghalaya","Taluk":"Barengapara"},{"officename":"Sasengpara B.O","pincode":"794103","officetype":"B.O","deliverystatus":"Delivery","statename":"MEGHALAYA","regionname":"Shillong HQ","circlename":"North Eastern","divisionname":"Meghalaya","Taluk":"Barengapara"},{"officename":"Sibbari B.O","pincode":"794103","officetype":"B.O","deliverystatus":"Delivery","statename":"MEGHALAYA","regionname":"Shillong HQ","circlename":"North Eastern","divisionname":"Meghalaya","Taluk":"Barengapara"},{"officename":"Silkhigiri B.O","pincode":"794103","officetype":"B.O","deliverystatus":"Delivery","statename":"MEGHALAYA","regionname":"Shillong HQ","circlename":"North Eastern","divisionname":"Meghalaya","Taluk":"Barengapara"},{"officename":"Bolchugre B.O","pincode":"794005","officetype":"B.O","deliverystatus":"Delivery","statename":"MEGHALAYA","regionname":"Shillong HQ","circlename":"North Eastern","divisionname":"Meghalaya","Taluk":"Dobasipara"},{"officename":"Chokpotgiri B.O","pincode":"794005","officetype":"B.O","deliverystatus":"Delivery","statename":"MEGHALAYA","regionname":"Shillong HQ","circlename":"North Eastern","divisionname":"Meghalaya","Taluk":"Dobasipara"},{"officename":"Dhopgiri B.O","pincode":"794005","officetype":"B.O","deliverystatus":"Delivery","statename":"MEGHALAYA","regionname":"Shillong HQ","circlename":"North Eastern","divisionname":"Meghalaya","Taluk":"Dobasipara"},{"officename":"Dekubazar B.O","pincode":"794005","officetype":"B.O","deliverystatus":"Delivery","statename":"MEGHALAYA","regionname":"Shillong HQ","circlename":"North Eastern","divisionname":"Meghalaya","Taluk":"Dobasipara"},{"officename":"Gongrengiri B.O","pincode":"794005","officetype":"B.O","deliverystatus":"Delivery","statename":"MEGHALAYA","regionname":"Shillong HQ","circlename":"North Eastern","divisionname":"Meghalaya","Taluk":"Dobasipara"},{"officename":"Gambigre B.O","pincode":"794005","officetype":"B.O","deliverystatus":"Delivery","statename":"MEGHALAYA","regionname":"Shillong HQ","circlename":"North Eastern","divisionname":"Meghalaya","Taluk":"Dobasipara"},{"officename":"Shankinigiri B.O","pincode":"794005","officetype":"B.O","deliverystatus":"Delivery","statename":"MEGHALAYA","regionname":"Shillong HQ","circlename":"North Eastern","divisionname":"Meghalaya","Taluk":"Dobasipara"},{"officename":"Batabari B.O","pincode":"794104","officetype":"B.O","deliverystatus":"Delivery","statename":"MEGHALAYA","regionname":"Shillong HQ","circlename":"North Eastern","divisionname":"Meghalaya","Taluk":"Fulbari"},{"officename":"Bhajamara B.O","pincode":"794104","officetype":"B.O","deliverystatus":"Delivery","statename":"MEGHALAYA","regionname":"Shillong HQ","circlename":"North Eastern","divisionname":"Meghalaya","Taluk":"Fulbari"},{"officename":"Bhaitbari B.O","pincode":"794104","officetype":"B.O","deliverystatus":"Delivery","statename":"MEGHALAYA","regionname":"Shillong HQ","circlename":"North Eastern","divisionname":"Meghalaya","Taluk":"Fulbari"},{"officename":"Bholarbhita B.O","pincode":"794104","officetype":"B.O","deliverystatus":"Delivery","statename":"MEGHALAYA","regionname":"Shillong HQ","circlename":"North Eastern","divisionname":"Meghalaya","Taluk":"Fulbari"},{"officename":"Gumaijhora B.O","pincode":"794104","officetype":"B.O","deliverystatus":"Delivery","statename":"MEGHALAYA","regionname":"Shillong HQ","circlename":"North Eastern","divisionname":"Meghalaya","Taluk":"Fulbari"},{"officename":"Gatsingbazar B.O","pincode":"794104","officetype":"B.O","deliverystatus":"Delivery","statename":"MEGHALAYA","regionname":"Shillong HQ","circlename":"North Eastern","divisionname":"Meghalaya","Taluk":"Fulbari"},{"officename":"Holidayganj B.O","pincode":"794104","officetype":"B.O","deliverystatus":"Delivery","statename":"MEGHALAYA","regionname":"Shillong HQ","circlename":"North Eastern","divisionname":"Meghalaya","Taluk":"Fulbari"},{"officename":"Haripur B.O","pincode":"794104","officetype":"B.O","deliverystatus":"Delivery","statename":"MEGHALAYA","regionname":"Shillong HQ","circlename":"North Eastern","divisionname":"Meghalaya","Taluk":"Fulbari"},{"officename":"Mechanpani B.O","pincode":"794104","officetype":"B.O","deliverystatus":"Delivery","statename":"MEGHALAYA","regionname":"Shillong HQ","circlename":"North Eastern","divisionname":"Meghalaya","Taluk":"Fulbari"},{"officename":"Manlakandi B.O","pincode":"794104","officetype":"B.O","deliverystatus":"Delivery","statename":"MEGHALAYA","regionname":"Shillong HQ","circlename":"North Eastern","divisionname":"Meghalaya","Taluk":"Fulbari"},{"officename":"New Bhaitbari B.O","pincode":"794104","officetype":"B.O","deliverystatus":"Delivery","statename":"MEGHALAYA","regionname":"Shillong HQ","circlename":"North Eastern","divisionname":"Meghalaya","Taluk":"Fulbari"},{"officename":"Rombazar B.O","pincode":"794104","officetype":"B.O","deliverystatus":"Delivery","statename":"MEGHALAYA","regionname":"Shillong HQ","circlename":"North Eastern","divisionname":"Meghalaya","Taluk":"Fulbari"},{"officename":"Rajabala B.O","pincode":"794104","officetype":"B.O","deliverystatus":"Delivery","statename":"MEGHALAYA","regionname":"Shillong HQ","circlename":"North Eastern","divisionname":"Meghalaya","Taluk":"Fulbari"},{"officename":"Rongmatchokgiri B.O","pincode":"794104","officetype":"B.O","deliverystatus":"Delivery","statename":"MEGHALAYA","regionname":"Shillong HQ","circlename":"North Eastern","divisionname":"Meghalaya","Taluk":"Fulbari"},{"officename":"Sabribari B.O","pincode":"794104","officetype":"B.O","deliverystatus":"Delivery","statename":"MEGHALAYA","regionname":"Shillong HQ","circlename":"North Eastern","divisionname":"Meghalaya","Taluk":"Fulbari"},{"officename":"Paham B.O","pincode":"794104","officetype":"B.O","deliverystatus":"Delivery","statename":"MEGHALAYA","regionname":"Shillong HQ","circlename":"North Eastern","divisionname":"Meghalaya","Taluk":"Fulbari"},{"officename":"Damalgiri B.O","pincode":"794105","officetype":"B.O","deliverystatus":"Delivery","statename":"MEGHALAYA","regionname":"Shillong HQ","circlename":"North Eastern","divisionname":"Meghalaya","Taluk":"Garobadha"},{"officename":"Garodoba B.O","pincode":"794105","officetype":"B.O","deliverystatus":"Delivery","statename":"MEGHALAYA","regionname":"Shillong HQ","circlename":"North Eastern","divisionname":"Meghalaya","Taluk":"Garobadha"},{"officename":"Grenggandi Agal B.O","pincode":"794105","officetype":"B.O","deliverystatus":"Delivery","statename":"MEGHALAYA","regionname":"Shillong HQ","circlename":"North Eastern","divisionname":"Meghalaya","Taluk":"Garobadha"},{"officename":"Haldibari B.O","pincode":"794105","officetype":"B.O","deliverystatus":"Delivery","statename":"MEGHALAYA","regionname":"Shillong HQ","circlename":"North Eastern","divisionname":"Meghalaya","Taluk":"Garobadha"},{"officename":"Kalchengapara B.O","pincode":"794105","officetype":"B.O","deliverystatus":"Delivery","statename":"MEGHALAYA","regionname":"Shillong HQ","circlename":"North Eastern","divisionname":"Meghalaya","Taluk":"Garobadha"},{"officename":"Melliam B.O","pincode":"794105","officetype":"B.O","deliverystatus":"Delivery","statename":"MEGHALAYA","regionname":"Shillong HQ","circlename":"North Eastern","divisionname":"Meghalaya","Taluk":"Garobadha"},{"officename":"Monabari B.O","pincode":"794105","officetype":"B.O","deliverystatus":"Delivery","statename":"MEGHALAYA","regionname":"Shillong HQ","circlename":"North Eastern","divisionname":"Meghalaya","Taluk":"Garobadha"},{"officename":"Mukhdangra B.O","pincode":"794105","officetype":"B.O","deliverystatus":"Delivery","statename":"MEGHALAYA","regionname":"Shillong HQ","circlename":"North Eastern","divisionname":"Meghalaya","Taluk":"Garobadha"},{"officename":"Okkapara B.O","pincode":"794105","officetype":"B.O","deliverystatus":"Delivery","statename":"MEGHALAYA","regionname":"Shillong HQ","circlename":"North Eastern","divisionname":"Meghalaya","Taluk":"Garobadha"},{"officename":"Rongsakhona B.O","pincode":"794105","officetype":"B.O","deliverystatus":"Delivery","statename":"MEGHALAYA","regionname":"Shillong HQ","circlename":"North Eastern","divisionname":"Meghalaya","Taluk":"Garobadha"},{"officename":"Selsella B.O","pincode":"794105","officetype":"B.O","deliverystatus":"Delivery","statename":"MEGHALAYA","regionname":"Shillong HQ","circlename":"North Eastern","divisionname":"Meghalaya","Taluk":"Garobadha"},{"officename":"Teporpara B.O","pincode":"794105","officetype":"B.O","deliverystatus":"Delivery","statename":"MEGHALAYA","regionname":"Shillong HQ","circlename":"North Eastern","divisionname":"Meghalaya","Taluk":"Garobadha"},{"officename":"Zekabari B.O","pincode":"794105","officetype":"B.O","deliverystatus":"Delivery","statename":"MEGHALAYA","regionname":"Shillong HQ","circlename":"North Eastern","divisionname":"Meghalaya","Taluk":"Garobadha"},{"officename":"Achitchonggiri B.O","pincode":"794002","officetype":"B.O","deliverystatus":"Delivery","statename":"MEGHALAYA","regionname":"Shillong HQ","circlename":"North Eastern","divisionname":"Meghalaya","Taluk":"Lower Chandmari"},{"officename":"Anugiri B.O","pincode":"794002","officetype":"B.O","deliverystatus":"Delivery","statename":"MEGHALAYA","regionname":"Shillong HQ","circlename":"North Eastern","divisionname":"Meghalaya","Taluk":"Lower Chandmari"},{"officename":"Bajengdoba B.O","pincode":"794002","officetype":"B.O","deliverystatus":"Delivery","statename":"MEGHALAYA","regionname":"Shillong HQ","circlename":"North Eastern","divisionname":"Meghalaya","Taluk":"Lower Chandmari"},{"officename":"Dajongpara B.O","pincode":"794002","officetype":"B.O","deliverystatus":"Delivery","statename":"MEGHALAYA","regionname":"Shillong HQ","circlename":"North Eastern","divisionname":"Meghalaya","Taluk":"Lower Chandmari"},{"officename":"Edenbari Rongkhon B.O","pincode":"794002","officetype":"B.O","deliverystatus":"Delivery","statename":"MEGHALAYA","regionname":"Shillong HQ","circlename":"North Eastern","divisionname":"Meghalaya","Taluk":"Lower Chandmari"},{"officename":"Gabil B.O","pincode":"794002","officetype":"B.O","deliverystatus":"Delivery","statename":"MEGHALAYA","regionname":"Shillong HQ","circlename":"North Eastern","divisionname":"Meghalaya","Taluk":"Lower Chandmari"},{"officename":"Jingjal B.O","pincode":"794002","officetype":"B.O","deliverystatus":"Delivery","statename":"MEGHALAYA","regionname":"Shillong HQ","circlename":"North Eastern","divisionname":"Meghalaya","Taluk":"Lower Chandmari"},{"officename":"Mendal B.O","pincode":"794002","officetype":"B.O","deliverystatus":"Delivery","statename":"MEGHALAYA","regionname":"Shillong HQ","circlename":"North Eastern","divisionname":"Meghalaya","Taluk":"Lower Chandmari"},{"officename":"Matchakgiri B.O","pincode":"794002","officetype":"B.O","deliverystatus":"Delivery","statename":"MEGHALAYA","regionname":"Shillong HQ","circlename":"North Eastern","divisionname":"Meghalaya","Taluk":"Lower Chandmari"},{"officename":"Rongkhon B.O","pincode":"794002","officetype":"B.O","deliverystatus":"Delivery","statename":"MEGHALAYA","regionname":"Shillong HQ","circlename":"North Eastern","divisionname":"Meghalaya","Taluk":"Lower Chandmari"},{"officename":"Rongram B.O","pincode":"794002","officetype":"B.O","deliverystatus":"Delivery","statename":"MEGHALAYA","regionname":"Shillong HQ","circlename":"North Eastern","divisionname":"Meghalaya","Taluk":"Lower Chandmari"},{"officename":"Raribazar B.O","pincode":"794002","officetype":"B.O","deliverystatus":"Delivery","statename":"MEGHALAYA","regionname":"Shillong HQ","circlename":"North Eastern","divisionname":"Meghalaya","Taluk":"Lower Chandmari"},{"officename":"Bishnupur B.O","pincode":"793004","officetype":"B.O","deliverystatus":"Delivery","statename":"MEGHALAYA","regionname":"Shillong HQ","circlename":"North Eastern","divisionname":"Meghalaya","Taluk":"Shillong"},{"officename":"Halloidanga B.O","pincode":"794109","officetype":"B.O","deliverystatus":"Delivery","statename":"MEGHALAYA","regionname":"Shillong HQ","circlename":"North Eastern","divisionname":"Meghalaya","Taluk":"Tikrikilla"},{"officename":"Hatugaon B.O","pincode":"794109","officetype":"B.O","deliverystatus":"Delivery","statename":"MEGHALAYA","regionname":"Shillong HQ","circlename":"North Eastern","divisionname":"Meghalaya","Taluk":"Tikrikilla"},{"officename":"Jengrapara B.O","pincode":"794109","officetype":"B.O","deliverystatus":"Delivery","statename":"MEGHALAYA","regionname":"Shillong HQ","circlename":"North Eastern","divisionname":"Meghalaya","Taluk":"Tikrikilla"},{"officename":"Photamati B.O","pincode":"794109","officetype":"B.O","deliverystatus":"Delivery","statename":"MEGHALAYA","regionname":"Shillong HQ","circlename":"North Eastern","divisionname":"Meghalaya","Taluk":"Tikrikilla"},{"officename":"Pedaldoba B.O","pincode":"794109","officetype":"B.O","deliverystatus":"Delivery","statename":"MEGHALAYA","regionname":"Shillong HQ","circlename":"North Eastern","divisionname":"Meghalaya","Taluk":"Tikrikilla"},{"officename":"Raksamgiri B.O","pincode":"794109","officetype":"B.O","deliverystatus":"Delivery","statename":"MEGHALAYA","regionname":"Shillong HQ","circlename":"North Eastern","divisionname":"Meghalaya","Taluk":"Tikrikilla"},{"officename":"Balkinigiri B.O","pincode":"794111","officetype":"B.O","deliverystatus":"Delivery","statename":"MEGHALAYA","regionname":"Shillong HQ","circlename":"North Eastern","divisionname":"Meghalaya","Taluk":"Williamnagar"},{"officename":"Rombagiri B.O","pincode":"794111","officetype":"B.O","deliverystatus":"Delivery","statename":"MEGHALAYA","regionname":"Shillong HQ","circlename":"North Eastern","divisionname":"Meghalaya","Taluk":"Williamnagar"},{"officename":"Rongsakgiri B.O","pincode":"794111","officetype":"B.O","deliverystatus":"Delivery","statename":"MEGHALAYA","regionname":"Shillong HQ","circlename":"North Eastern","divisionname":"Meghalaya","Taluk":"Williamnagar"},{"officename":"Rongrengiri B.O","pincode":"794111","officetype":"B.O","deliverystatus":"Delivery","statename":"MEGHALAYA","regionname":"Shillong HQ","circlename":"North Eastern","divisionname":"Meghalaya","Taluk":"Williamnagar"},{"officename":"Songsak B.O","pincode":"794111","officetype":"B.O","deliverystatus":"Delivery","statename":"MEGHALAYA","regionname":"Shillong HQ","circlename":"North Eastern","divisionname":"Meghalaya","Taluk":"Williamnagar"},{"officename":"Samanda B.O","pincode":"794111","officetype":"B.O","deliverystatus":"Delivery","statename":"MEGHALAYA","regionname":"Shillong HQ","circlename":"North Eastern","divisionname":"Meghalaya","Taluk":"Williamnagar"},{"officename":"Sakhadamgiri B.O","pincode":"794111","officetype":"B.O","deliverystatus":"Delivery","statename":"MEGHALAYA","regionname":"Shillong HQ","circlename":"North Eastern","divisionname":"Meghalaya","Taluk":"Williamnagar"},{"officename":"Borsora B.O","pincode":"793106","officetype":"B.O","deliverystatus":"Delivery","statename":"MEGHALAYA","regionname":"Shillong HQ","circlename":"North Eastern","divisionname":"Meghalaya","Taluk":"Balat"},{"officename":"Dholai B.O","pincode":"793106","officetype":"B.O","deliverystatus":"Delivery","statename":"MEGHALAYA","regionname":"Shillong HQ","circlename":"North Eastern","divisionname":"Meghalaya","Taluk":"Balat"},{"officename":"Balurghat B.O","pincode":"794106","officetype":"B.O","deliverystatus":"Delivery","statename":"MEGHALAYA","regionname":"Shillong HQ","circlename":"North Eastern","divisionname":"Meghalaya","Taluk":"Mahendraganj"},{"officename":"Chapahati B.O","pincode":"794106","officetype":"B.O","deliverystatus":"Delivery","statename":"MEGHALAYA","regionname":"Shillong HQ","circlename":"North Eastern","divisionname":"Meghalaya","Taluk":"Mahendraganj"},{"officename":"Gopinath Killa B.O","pincode":"794106","officetype":"B.O","deliverystatus":"Delivery","statename":"MEGHALAYA","regionname":"Shillong HQ","circlename":"North Eastern","divisionname":"Meghalaya","Taluk":"Mahendraganj"},{"officename":"Kalaipara B.O","pincode":"794106","officetype":"B.O","deliverystatus":"Delivery","statename":"MEGHALAYA","regionname":"Shillong HQ","circlename":"North Eastern","divisionname":"Meghalaya","Taluk":"Mahendraganj"},{"officename":"Kawahagra B.O","pincode":"794106","officetype":"B.O","deliverystatus":"Delivery","statename":"MEGHALAYA","regionname":"Shillong HQ","circlename":"North Eastern","divisionname":"Meghalaya","Taluk":"Mahendraganj"},{"officename":"Majerchar B.O","pincode":"794106","officetype":"B.O","deliverystatus":"Delivery","statename":"MEGHALAYA","regionname":"Shillong HQ","circlename":"North Eastern","divisionname":"Meghalaya","Taluk":"Mahendraganjj"},{"officename":"Nogorpara B.O","pincode":"794106","officetype":"B.O","deliverystatus":"Delivery","statename":"MEGHALAYA","regionname":"Shillong HQ","circlename":"North Eastern","divisionname":"Meghalaya","Taluk":"Mahendraganj"},{"officename":"Jadigitim B.O","pincode":"794107","officetype":"B.O","deliverystatus":"Delivery","statename":"MEGHALAYA","regionname":"Shillong HQ","circlename":"North Eastern","divisionname":"Meghalaya","Taluk":"Nangwalbibra"},{"officename":"Dagal B.O","pincode":"794108","officetype":"B.O","deliverystatus":"Delivery","statename":"MEGHALAYA","regionname":"Shillong HQ","circlename":"North Eastern","divisionname":"Meghalaya","Taluk":"Resubelpara"},{"officename":"Daram B.O","pincode":"794108","officetype":"B.O","deliverystatus":"Delivery","statename":"MEGHALAYA","regionname":"Shillong HQ","circlename":"North Eastern","divisionname":"Meghalaya","Taluk":"Resubelpara"},{"officename":"Haluapara B.O","pincode":"794108","officetype":"B.O","deliverystatus":"Delivery","statename":"MEGHALAYA","regionname":"Shillong HQ","circlename":"North Eastern","divisionname":"Meghalaya","Taluk":"Resubelpara"},{"officename":"Rongrong B.O","pincode":"794108","officetype":"B.O","deliverystatus":"Delivery","statename":"MEGHALAYA","regionname":"Shillong HQ","circlename":"North Eastern","divisionname":"Meghalaya","Taluk":"Resubelpara"},{"officename":"Thapa B.O","pincode":"794108","officetype":"B.O","deliverystatus":"Delivery","statename":"MEGHALAYA","regionname":"Shillong HQ","circlename":"North Eastern","divisionname":"Meghalaya","Taluk":"Resubelpara"},{"officename":"Dainadubi B.O","pincode":"794110","officetype":"B.O","deliverystatus":"Delivery","statename":"MEGHALAYA","regionname":"Shillong HQ","circlename":"North Eastern","divisionname":"Meghalaya","Taluk":"Rongjeng"},{"officename":"Darugiri B.O","pincode":"794110","officetype":"B.O","deliverystatus":"Delivery","statename":"MEGHALAYA","regionname":"Shillong HQ","circlename":"North Eastern","divisionname":"Meghalaya","Taluk":"Rongjeng"},{"officename":"Dabu B.O","pincode":"794110","officetype":"B.O","deliverystatus":"Delivery","statename":"MEGHALAYA","regionname":"Shillong HQ","circlename":"North Eastern","divisionname":"Meghalaya","Taluk":"Rongjeng"},{"officename":"Dokangsi B.O","pincode":"794110","officetype":"B.O","deliverystatus":"Delivery","statename":"MEGHALAYA","regionname":"Shillong HQ","circlename":"North Eastern","divisionname":"Meghalaya","Taluk":"Ronjeng"},{"officename":"Gairong B.O","pincode":"794110","officetype":"B.O","deliverystatus":"Delivery","statename":"MEGHALAYA","regionname":"Shillong HQ","circlename":"North Eastern","divisionname":"Meghalaya","Taluk":"Rongjeng"},{"officename":"Gambil B.O","pincode":"794110","officetype":"B.O","deliverystatus":"Delivery","statename":"MEGHALAYA","regionname":"Shillong HQ","circlename":"North Eastern","divisionname":"Meghalaya","Taluk":"Ronjeng"},{"officename":"Mangsang B.O","pincode":"794110","officetype":"B.O","deliverystatus":"Delivery","statename":"MEGHALAYA","regionname":"Shillong HQ","circlename":"North Eastern","divisionname":"Meghalaya","Taluk":"Rongjeng"},{"officename":"Nongcharan B.O","pincode":"794110","officetype":"B.O","deliverystatus":"Delivery","statename":"MEGHALAYA","regionname":"Shillong HQ","circlename":"North Eastern","divisionname":"Meghalaya","Taluk":"Rongjeng"},{"officename":"Ronga Agal B.O","pincode":"794110","officetype":"B.O","deliverystatus":"Delivery","statename":"MEGHALAYA","regionname":"Shillong HQ","circlename":"North Eastern","divisionname":"Meghalaya","Taluk":"Rongjeng"},{"officename":"Rongmil B.O","pincode":"794110","officetype":"B.O","deliverystatus":"Delivery","statename":"MEGHALAYA","regionname":"Shillong HQ","circlename":"North Eastern","divisionname":"Meghalaya","Taluk":"Rongjeng"},{"officename":"Rongchek Akhong B.O","pincode":"794110","officetype":"B.O","deliverystatus":"Delivery","statename":"MEGHALAYA","regionname":"Shillong HQ","circlename":"North Eastern","divisionname":"Meghalaya","Taluk":"Rongjeng"},{"officename":"Wagachi B.O","pincode":"794110","officetype":"B.O","deliverystatus":"Delivery","statename":"MEGHALAYA","regionname":"Shillong HQ","circlename":"North Eastern","divisionname":"Meghalaya","Taluk":"Rongjeng"},{"officename":"Dambuk Agal B.O","pincode":"794114","officetype":"B.O","deliverystatus":"Delivery","statename":"MEGHALAYA","regionname":"Shillong HQ","circlename":"North Eastern","divisionname":"Meghalaya","Taluk":"NA"},{"officename":"Mahesh Khola B.O","pincode":"794114","officetype":"B.O","deliverystatus":"Delivery","statename":"MEGHALAYA","regionname":"Shillong HQ","circlename":"North Eastern","divisionname":"Meghalaya","Taluk":"Rongra"},{"officename":"Warimagiri B.O","pincode":"794114","officetype":"B.O","deliverystatus":"Delivery","statename":"MEGHALAYA","regionname":"Shillong HQ","circlename":"North Eastern","divisionname":"Meghalaya","Taluk":"Rongra"},{"officename":"Bolangitak B.O","pincode":"794109","officetype":"B.O","deliverystatus":"Delivery","statename":"MEGHALAYA","regionname":"Shillong HQ","circlename":"North Eastern","divisionname":"Meghalaya","Taluk":"Tikrikilla"},{"officename":"Borjhora B.O","pincode":"794109","officetype":"B.O","deliverystatus":"Delivery","statename":"MEGHALAYA","regionname":"Shillong HQ","circlename":"North Eastern","divisionname":"Meghalaya","Taluk":"Tikrikilla"},{"officename":"Jorabat B.O","pincode":"793101","officetype":"B.O","deliverystatus":"Delivery","statename":"MEGHALAYA","regionname":"Shillong HQ","circlename":"North Eastern","divisionname":"Meghalaya","Taluk":"Byrnihat"},{"officename":"Killing Centre B.O","pincode":"793101","officetype":"B.O","deliverystatus":"Delivery","statename":"MEGHALAYA","regionname":"Shillong HQ","circlename":"North Eastern","divisionname":"Meghalaya","Taluk":"Byrnihat"},{"officename":"Tamul Kuchi Gaon B.O","pincode":"793101","officetype":"B.O","deliverystatus":"Delivery","statename":"MEGHALAYA","regionname":"Shillong HQ","circlename":"North Eastern","divisionname":"Meghalaya","Taluk":"Byrnihat"},{"officename":"Epip Byrnihat B.O","pincode":"793101","officetype":"B.O","deliverystatus":"Delivery","statename":"MEGHALAYA","regionname":"Shillong HQ","circlename":"North Eastern","divisionname":"Meghalaya","Taluk":"Byrnihat"},{"officename":"Sahsniang B.O","pincode":"793150","officetype":"B.O","deliverystatus":"Delivery","statename":"MEGHALAYA","regionname":"Shillong HQ","circlename":"North Eastern","divisionname":"Meghalaya","Taluk":"Jowai"},{"officename":"Thadmuthlong B.O","pincode":"793150","officetype":"B.O","deliverystatus":"Delivery","statename":"MEGHALAYA","regionname":"Shillong HQ","circlename":"North Eastern","divisionname":"Meghalaya","Taluk":"Jowai"},{"officename":"Thangbuli B.O","pincode":"793161","officetype":"B.O","deliverystatus":"Delivery","statename":"MEGHALAYA","regionname":"Shillong HQ","circlename":"North Eastern","divisionname":"Meghalaya","Taluk":"Jowai"},{"officename":"Trangblang B.O","pincode":"793150","officetype":"B.O","deliverystatus":"Delivery","statename":"MEGHALAYA","regionname":"Shillong HQ","circlename":"North Eastern","divisionname":"Meghalaya","Taluk":"Jowai"},{"officename":"Thangrain B.O","pincode":"793150","officetype":"B.O","deliverystatus":"Delivery","statename":"MEGHALAYA","regionname":"Shillong HQ","circlename":"North Eastern","divisionname":"Meghalaya","Taluk":"Jowai"},{"officename":"Yooksi B.O","pincode":"793150","officetype":"B.O","deliverystatus":"Delivery","statename":"MEGHALAYA","regionname":"Shillong HQ","circlename":"North Eastern","divisionname":"Meghalaya","Taluk":"Jowai"},{"officename":"Huroi B.O","pincode":"793200","officetype":"B.O","deliverystatus":"Delivery","statename":"MEGHALAYA","regionname":"Shillong HQ","circlename":"North Eastern","divisionname":"Meghalaya","Taluk":"Khliehriat"},{"officename":"Myndihati B.O","pincode":"793200","officetype":"B.O","deliverystatus":"Delivery","statename":"MEGHALAYA","regionname":"Shillong HQ","circlename":"North Eastern","divisionname":"Meghalaya","Taluk":"Khliehriat"},{"officename":"Pala B.O","pincode":"793200","officetype":"B.O","deliverystatus":"Delivery","statename":"MEGHALAYA","regionname":"Shillong HQ","circlename":"North Eastern","divisionname":"Meghalaya","Taluk":"Khliehriat"},{"officename":"Rata Cherra B.O","pincode":"793210","officetype":"B.O","deliverystatus":"Delivery","statename":"MEGHALAYA","regionname":"Shillong HQ","circlename":"North Eastern","divisionname":"Meghalaya","Taluk":"Khliehriat"},{"officename":"Saipung B.O","pincode":"793200","officetype":"B.O","deliverystatus":"Delivery","statename":"MEGHALAYA","regionname":"Shillong HQ","circlename":"North Eastern","divisionname":"Meghalaya","Taluk":"Khliehriat"},{"officename":"Sonapur B.O","pincode":"793210","officetype":"B.O","deliverystatus":"Delivery","statename":"MEGHALAYA","regionname":"Shillong HQ","circlename":"North Eastern","divisionname":"Meghalaya","Taluk":"Khliehriat"},{"officename":"Sutnga B.O","pincode":"793200","officetype":"B.O","deliverystatus":"Delivery","statename":"MEGHALAYA","regionname":"Shillong HQ","circlename":"North Eastern","divisionname":"Meghalaya","Taluk":"Khliehriat"},{"officename":"Sheruphie B.O","pincode":"793200","officetype":"B.O","deliverystatus":"Delivery","statename":"MEGHALAYA","regionname":"Shillong HQ","circlename":"North Eastern","divisionname":"Meghalaya","Taluk":"Khliehriat"},{"officename":"Shnongrim B.O","pincode":"793200","officetype":"B.O","deliverystatus":"Delivery","statename":"MEGHALAYA","regionname":"Shillong HQ","circlename":"North Eastern","divisionname":"Meghalaya","Taluk":"Khliehriat"},{"officename":"Bataw B.O","pincode":"793160","officetype":"B.O","deliverystatus":"Delivery","statename":"MEGHALAYA","regionname":"Shillong HQ","circlename":"North Eastern","divisionname":"Meghalaya","Taluk":"Ladrymbai"},{"officename":"Mukhialong B.O","pincode":"793160","officetype":"B.O","deliverystatus":"Delivery","statename":"MEGHALAYA","regionname":"Shillong HQ","circlename":"North Eastern","divisionname":"Meghalaya","Taluk":"Ladrymbai"},{"officename":"Musniang B.O","pincode":"793160","officetype":"B.O","deliverystatus":"Delivery","statename":"MEGHALAYA","regionname":"Shillong HQ","circlename":"North Eastern","divisionname":"Meghalaya","Taluk":"Ladrymbai"},{"officename":"Sham Sham B.O","pincode":"793160","officetype":"B.O","deliverystatus":"Delivery","statename":"MEGHALAYA","regionname":"Shillong HQ","circlename":"North Eastern","divisionname":"Meghalaya","Taluk":"Ladrymbai"},{"officename":"Sohkymphor B.O","pincode":"793160","officetype":"B.O","deliverystatus":"Delivery","statename":"MEGHALAYA","regionname":"Shillong HQ","circlename":"North Eastern","divisionname":"Meghalaya","Taluk":"Ladrymbai"},{"officename":"Ladmawphlang B.O","pincode":"793111","officetype":"B.O","deliverystatus":"Delivery","statename":"MEGHALAYA","regionname":"Shillong HQ","circlename":"North Eastern","divisionname":"Meghalaya","Taluk":"Cherrabazar"},{"officename":"Laitryngew B.O","pincode":"793108","officetype":"B.O","deliverystatus":"Delivery","statename":"MEGHALAYA","regionname":"Shillong HQ","circlename":"North Eastern","divisionname":"Meghalaya","Taluk":"Cherrapunjee"},{"officename":"Mahadeo B.O","pincode":"793108","officetype":"B.O","deliverystatus":"Delivery","statename":"MEGHALAYA","regionname":"Shillong HQ","circlename":"North Eastern","divisionname":"Meghalaya","Taluk":"Cherrapunjee"},{"officename":"Mawblang B.O","pincode":"793108","officetype":"B.O","deliverystatus":"Delivery","statename":"MEGHALAYA","regionname":"Shillong HQ","circlename":"North Eastern","divisionname":"Meghalaya","Taluk":"Cherrapunjee"},{"officename":"Mawmluh B.O","pincode":"793108","officetype":"B.O","deliverystatus":"Delivery","statename":"MEGHALAYA","regionname":"Shillong HQ","circlename":"North Eastern","divisionname":"Meghalaya","Taluk":"Cherrapunjee"},{"officename":"Mawlong B.O","pincode":"793112","officetype":"B.O","deliverystatus":"Delivery","statename":"MEGHALAYA","regionname":"Shillong HQ","circlename":"North Eastern","divisionname":"Meghalaya","Taluk":"Cherrapunjee"},{"officename":"Sohkmie B.O","pincode":"793108","officetype":"B.O","deliverystatus":"Delivery","statename":"MEGHALAYA","regionname":"Shillong HQ","circlename":"North Eastern","divisionname":"Meghalaya","Taluk":"Cherrapunjee"},{"officename":"Sohbarpunjee B.O","pincode":"793108","officetype":"B.O","deliverystatus":"Delivery","statename":"MEGHALAYA","regionname":"Shillong HQ","circlename":"North Eastern","divisionname":"Meghalaya","Taluk":"Cherrapunjee"},{"officename":"Tyrna B.O","pincode":"793108","officetype":"B.O","deliverystatus":"Delivery","statename":"MEGHALAYA","regionname":"Shillong HQ","circlename":"North Eastern","divisionname":"Meghalaya","Taluk":"Cherrapunjee"},{"officename":"Wahlong B.O","pincode":"793108","officetype":"B.O","deliverystatus":"Delivery","statename":"MEGHALAYA","regionname":"Shillong HQ","circlename":"North Eastern","divisionname":"Meghalaya","Taluk":"Cherrapunjee"},{"officename":"Amlari B.O","pincode":"793109","officetype":"B.O","deliverystatus":"Delivery","statename":"MEGHALAYA","regionname":"Shillong HQ","circlename":"North Eastern","divisionname":"Meghalaya","Taluk":"Amlarem"},{"officename":"Darrang B.O","pincode":"793109","officetype":"B.O","deliverystatus":"Delivery","statename":"MEGHALAYA","regionname":"Shillong HQ","circlename":"North Eastern","divisionname":"Meghalaya","Taluk":"Dawki"},{"officename":"Lamin B.O","pincode":"793109","officetype":"B.O","deliverystatus":"Delivery","statename":"MEGHALAYA","regionname":"Shillong HQ","circlename":"North Eastern","divisionname":"Meghalaya","Taluk":"Dawki"},{"officename":"Muktapur B.O","pincode":"793109","officetype":"B.O","deliverystatus":"Delivery","statename":"MEGHALAYA","regionname":"Shillong HQ","circlename":"North Eastern","divisionname":"Meghalaya","Taluk":"Dawki"},{"officename":"Nongbareh B.O","pincode":"793109","officetype":"B.O","deliverystatus":"Delivery","statename":"MEGHALAYA","regionname":"Shillong HQ","circlename":"North Eastern","divisionname":"Meghalaya","Taluk":"Dawki"},{"officename":"Nongtalang B.O","pincode":"793109","officetype":"B.O","deliverystatus":"Delivery","statename":"MEGHALAYA","regionname":"Shillong HQ","circlename":"North Eastern","divisionname":"Meghalaya","Taluk":"Dawki"},{"officename":"Naljuri B.O","pincode":"793109","officetype":"B.O","deliverystatus":"Delivery","statename":"MEGHALAYA","regionname":"Shillong HQ","circlename":"North Eastern","divisionname":"Meghalaya","Taluk":"Dawki"}]