[{"officename":"Serchhip S.O","pincode":"796181","officetype":"S.O","deliverystatus":"Delivery","statename":"MIZORAM","regionname":"North Eastern","circlename":"North Eastern","divisionname":"Mizoram","Taluk":"Serchhip"},{"officename":"S.Khawbung S.O","pincode":"796320","officetype":"S.O","deliverystatus":"Delivery","statename":"MIZORAM","regionname":"North Eastern","circlename":"North Eastern","divisionname":"Mizoram","Taluk":"S.khawbung"},{"officename":"Thingsulthliah S.O","pincode":"796161","officetype":"S.O","deliverystatus":"Delivery","statename":"MIZORAM","regionname":"North Eastern","circlename":"North Eastern","divisionname":"Mizoram","Taluk":"Thingsulthliah"},{"officename":"Vairengte S.O","pincode":"796101","officetype":"S.O","deliverystatus":"Delivery","statename":"MIZORAM","regionname":"North Eastern","circlename":"North Eastern","divisionname":"Mizoram","Taluk":"North Thingdawl"},{"officename":"Vaivakawn S.O","pincode":"796009","officetype":"S.O","deliverystatus":"Delivery","statename":"MIZORAM","regionname":"North Eastern","circlename":"North Eastern","divisionname":"Mizoram","Taluk":"Tlangnuam (Part)"},{"officename":"Zemabawk S.O","pincode":"796017","officetype":"S.O","deliverystatus":"Delivery","statename":"MIZORAM","regionname":"North Eastern","circlename":"North Eastern","divisionname":"Mizoram","Taluk":"Tlangnuam (Part)"},{"officename":"Zotlang S.O","pincode":"796691","officetype":"S.O","deliverystatus":"Delivery","statename":"MIZORAM","regionname":"North Eastern","circlename":"North Eastern","divisionname":"Mizoram","Taluk":"Zotlang"},{"officename":"Thingsai S.O","pincode":"796581","officetype":"S.O","deliverystatus":"Delivery","statename":"MIZORAM","regionname":"North Eastern","circlename":"North Eastern","divisionname":"Mizoram","Taluk":"Thingsai"},{"officename":"Aibawk S.O","pincode":"796190","officetype":"S.O","deliverystatus":"Delivery","statename":"MIZORAM","regionname":"North Eastern","circlename":"North Eastern","divisionname":"Mizoram","Taluk":"Aibawk"},{"officename":"Bawngkawn S.O","pincode":"796014","officetype":"S.O","deliverystatus":"Delivery","statename":"MIZORAM","regionname":"North Eastern","circlename":"North Eastern","divisionname":"Mizoram","Taluk":"Tlangnuam (Part)"},{"officename":"Bunghmun S.O","pincode":"796710","officetype":"S.O","deliverystatus":"Delivery","statename":"MIZORAM","regionname":"North Eastern","circlename":"North Eastern","divisionname":"Mizoram","Taluk":"West Bunghmun"},{"officename":"Bilkhawthlir S.O","pincode":"796091","officetype":"S.O","deliverystatus":"Delivery","statename":"MIZORAM","regionname":"North Eastern","circlename":"North Eastern","divisionname":"Mizoram","Taluk":"Bilkhawthlir"},{"officename":"Chawngte S.O","pincode":"796770","officetype":"S.O","deliverystatus":"Delivery","statename":"MIZORAM","regionname":"North Eastern","circlename":"North Eastern","divisionname":"Mizoram","Taluk":"Chawngte"},{"officename":"Champhai S.O","pincode":"796321","officetype":"S.O","deliverystatus":"Delivery","statename":"MIZORAM","regionname":"North Eastern","circlename":"North Eastern","divisionname":"Mizoram","Taluk":"Khawbung"},{"officename":"Chandmary S.O","pincode":"796007","officetype":"S.O","deliverystatus":"Delivery","statename":"MIZORAM","regionname":"North Eastern","circlename":"North Eastern","divisionname":"Mizoram","Taluk":"Tlangnuam (Part)"},{"officename":"Hnahthial S.O","pincode":"796571","officetype":"S.O","deliverystatus":"Delivery","statename":"MIZORAM","regionname":"North Eastern","circlename":"North Eastern","divisionname":"Mizoram","Taluk":"Hnahthial"},{"officename":"Kawnpui S.O","pincode":"796070","officetype":"S.O","deliverystatus":"Delivery","statename":"MIZORAM","regionname":"North Eastern","circlename":"North Eastern","divisionname":"Mizoram","Taluk":"North Thingdawl"},{"officename":"Khawzawl S.O","pincode":"796310","officetype":"S.O","deliverystatus":"Delivery","statename":"MIZORAM","regionname":"North Eastern","circlename":"North Eastern","divisionname":"Mizoram","Taluk":"Khawzawl"},{"officename":"Darlawn S.O","pincode":"796111","officetype":"S.O","deliverystatus":"Delivery","statename":"MIZORAM","regionname":"North Eastern","circlename":"North Eastern","divisionname":"Mizoram","Taluk":"Darlawn"},{"officename":"Tlabung S.O","pincode":"796751","officetype":"S.O","deliverystatus":"Delivery","statename":"MIZORAM","regionname":"North Eastern","circlename":"North Eastern","divisionname":"Mizoram","Taluk":"Bunghmun"},{"officename":"Kolasib S.O","pincode":"796081","officetype":"S.O","deliverystatus":"Delivery","statename":"MIZORAM","regionname":"North Eastern","circlename":"North Eastern","divisionname":"Mizoram","Taluk":"North Thingdawl"},{"officename":"Kulikawn S.O","pincode":"796005","officetype":"S.O","deliverystatus":"Delivery","statename":"MIZORAM","regionname":"North Eastern","circlename":"North Eastern","divisionname":"Mizoram","Taluk":"Kulikawn"},{"officename":"Lawngtlai S.O","pincode":"796891","officetype":"S.O","deliverystatus":"Delivery","statename":"MIZORAM","regionname":"North Eastern","circlename":"North Eastern","divisionname":"Mizoram","Taluk":"Lawngtlai"},{"officename":"Lungdar S.O","pincode":"796370","officetype":"S.O","deliverystatus":"Delivery","statename":"MIZORAM","regionname":"North Eastern","circlename":"North Eastern","divisionname":"Mizoram","Taluk":"Lungdar"},{"officename":"Lunglei MDG S.O","pincode":"796701","officetype":"S.O","deliverystatus":"Delivery","statename":"MIZORAM","regionname":"North Eastern","circlename":"North Eastern","divisionname":"Mizoram","Taluk":"Lunglei"},{"officename":"Mamit S.O","pincode":"796441","officetype":"S.O","deliverystatus":"Delivery","statename":"MIZORAM","regionname":"North Eastern","circlename":"North Eastern","divisionname":"Mizoram","Taluk":"West Phaileng"},{"officename":"Ngopa S.O","pincode":"796290","officetype":"S.O","deliverystatus":"Delivery","statename":"MIZORAM","regionname":"North Eastern","circlename":"North Eastern","divisionname":"Mizoram","Taluk":"Ngopa"},{"officename":"Phaileng S.O","pincode":"796431","officetype":"S.O","deliverystatus":"Delivery","statename":"MIZORAM","regionname":"North Eastern","circlename":"North Eastern","divisionname":"Mizoram","Taluk":"Phaileng"},{"officename":"Ramhlun S.O","pincode":"796012","officetype":"S.O","deliverystatus":"Delivery","statename":"MIZORAM","regionname":"North Eastern","circlename":"North Eastern","divisionname":"Mizoram","Taluk":"Tlangnuam (Part)"},{"officename":"Reiek S.O","pincode":"796501","officetype":"S.O","deliverystatus":"Delivery","statename":"MIZORAM","regionname":"North Eastern","circlename":"North Eastern","divisionname":"Mizoram","Taluk":"Reiek"},{"officename":"Saiha S.O","pincode":"796901","officetype":"S.O","deliverystatus":"Delivery","statename":"MIZORAM","regionname":"North Eastern","circlename":"North Eastern","divisionname":"Mizoram","Taluk":"Tuipang"},{"officename":"Sairang S.O","pincode":"796410","officetype":"S.O","deliverystatus":"Delivery","statename":"MIZORAM","regionname":"North Eastern","circlename":"North Eastern","divisionname":"Mizoram","Taluk":"Sairang"},{"officename":"Saitual S.O","pincode":"796261","officetype":"S.O","deliverystatus":"Delivery","statename":"MIZORAM","regionname":"North Eastern","circlename":"North Eastern","divisionname":"Mizoram","Taluk":"Phullen"},{"officename":"Durtlang S.O","pincode":"796015","officetype":"S.O","deliverystatus":"Delivery","statename":"MIZORAM","regionname":"North Eastern","circlename":"North Eastern","divisionname":"Mizoram","Taluk":"Aizawl"},{"officename":"N. Vanlaiphai S.O","pincode":"796184","officetype":"S.O","deliverystatus":"Delivery","statename":"MIZORAM","regionname":"North Eastern","circlename":"North Eastern","divisionname":"Mizoram","Taluk":"E. Lungdar"},{"officename":"Thenzawl S.O","pincode":"796186","officetype":"S.O","deliverystatus":"Delivery","statename":"MIZORAM","regionname":"North Eastern","circlename":"North Eastern","divisionname":"Mizoram","Taluk":"Serchhip"},{"officename":"Mizoram University S.O","pincode":"796004","officetype":"S.O","deliverystatus":"Delivery","statename":"MIZORAM","regionname":"North Eastern","circlename":"North Eastern","divisionname":"Mizoram","Taluk":"Tlangnuam (Part)"},{"officename":"Armed Veng S.O","pincode":"796008","officetype":"S.O","deliverystatus":"Delivery","statename":"MIZORAM","regionname":"North Eastern","circlename":"North Eastern","divisionname":"Mizoram","Taluk":"Tlangnuam"},{"officename":"Lengpui Airport S.O","pincode":"796421","officetype":"S.O","deliverystatus":"Delivery","statename":"MIZORAM","regionname":"North Eastern","circlename":"North Eastern","divisionname":"Mizoram","Taluk":"Lengpui"},{"officename":"Kawrthah S.O","pincode":"796470","officetype":"S.O","deliverystatus":"Delivery","statename":"MIZORAM","regionname":"North Eastern","circlename":"North Eastern","divisionname":"Mizoram","Taluk":"Zawlnuam"},{"officename":"Aizawl H.O","pincode":"796001","officetype":"H.O","deliverystatus":"Delivery","statename":"MIZORAM","regionname":"North Eastern","circlename":"North Eastern","divisionname":"Mizoram","Taluk":"Tlangnuam (Part)"},{"officename":"Chekawn B.O","pincode":"796184","officetype":"B.O","deliverystatus":"Delivery","statename":"MIZORAM","regionname":"North Eastern","circlename":"North Eastern","divisionname":"Mizoram","Taluk":"E. Lungdar"},{"officename":"Bualpui H B.O","pincode":"796571","officetype":"B.O","deliverystatus":"Delivery","statename":"MIZORAM","regionname":"North Eastern","circlename":"North Eastern","divisionname":"Mizoram","Taluk":"Hnahthial"},{"officename":"Edenthar B.O","pincode":"796007","officetype":"B.O","deliverystatus":"Delivery","statename":"MIZORAM","regionname":"North Eastern","circlename":"North Eastern","divisionname":"Mizoram","Taluk":"Tlangnuam (Part)"},{"officename":"Lungsen B.O","pincode":"796701","officetype":"B.O","deliverystatus":"Delivery","statename":"MIZORAM","regionname":"North Eastern","circlename":"North Eastern","divisionname":"Mizoram","Taluk":"Lunglei"},{"officename":"Zawlnuam B.O","pincode":"796470","officetype":"B.O","deliverystatus":"Delivery","statename":"MIZORAM","regionname":"North Eastern","circlename":"North Eastern","divisionname":"Mizoram","Taluk":"Zawlnuam"},{"officename":"Dilkawn B.O","pincode":"796321","officetype":"B.O","deliverystatus":"Delivery","statename":"MIZORAM","regionname":"North Eastern","circlename":"North Eastern","divisionname":"Mizoram","Taluk":"Champhai"},{"officename":"Sialsuk B.O","pincode":"796190","officetype":"B.O","deliverystatus":"Delivery","statename":"MIZORAM","regionname":"North Eastern","circlename":"North Eastern","divisionname":"Mizoram","Taluk":"Sialsuk"},{"officename":"Thingsai B.O","pincode":"796571","officetype":"B.O","deliverystatus":"Delivery","statename":"MIZORAM","regionname":"North Eastern","circlename":"North Eastern","divisionname":"Mizoram","Taluk":"Thingsai"},{"officename":"Kamalanagar S.O (LawngtlB.O","pincode":"796770","officetype":"B.O","deliverystatus":"Delivery","statename":"MIZORAM","regionname":"North Eastern","circlename":"North Eastern","divisionname":"Mizoram","Taluk":"Chawngte"},{"officename":"Sihphir B.O","pincode":"796015","officetype":"B.O","deliverystatus":"Delivery","statename":"MIZORAM","regionname":"North Eastern","circlename":"North Eastern","divisionname":"Mizoram","Taluk":"Sihphir"},{"officename":"Sangau B.O","pincode":"796901","officetype":"B.O","deliverystatus":"Delivery","statename":"MIZORAM","regionname":"North Eastern","circlename":"North Eastern","divisionname":"Mizoram","Taluk":"Sangau"},{"officename":"Bunghmun B.O","pincode":"796701","officetype":"B.O","deliverystatus":"Delivery","statename":"MIZORAM","regionname":"North Eastern","circlename":"North Eastern","divisionname":"Mizoram","Taluk":"West Bunghmun"},{"officename":"Tuipang B.O","pincode":"796901","officetype":"B.O","deliverystatus":"Delivery","statename":"MIZORAM","regionname":"North Eastern","circlename":"North Eastern","divisionname":"Mizoram","Taluk":"Tuipang"},{"officename":"Zokhawthar B.O","pincode":"796321","officetype":"B.O","deliverystatus":"Delivery","statename":"MIZORAM","regionname":"North Eastern","circlename":"North Eastern","divisionname":"Mizoram","Taluk":"Khawbung"},{"officename":"Tuirial Airfield B.O","pincode":"796017","officetype":"B.O","deliverystatus":"Delivery","statename":"MIZORAM","regionname":"North Eastern","circlename":"North Eastern","divisionname":"Mizoram","Taluk":"Tlangnuam (Part)"},{"officename":"Ngaizawl B.O","pincode":"796310","officetype":"B.O","deliverystatus":"Delivery","statename":"MIZORAM","regionname":"North Eastern","circlename":"North Eastern","divisionname":"Mizoram","Taluk":"Khawzawl"},{"officename":"Vaikhawtlang B.O","pincode":"796321","officetype":"B.O","deliverystatus":"Delivery","statename":"MIZORAM","regionname":"North Eastern","circlename":"North Eastern","divisionname":"Mizoram","Taluk":"Khawbung"},{"officename":"Thingdawl B.O","pincode":"796081","officetype":"B.O","deliverystatus":"Delivery","statename":"MIZORAM","regionname":"North Eastern","circlename":"North Eastern","divisionname":"Mizoram","Taluk":"North Thingdawl"},{"officename":"Putlungasih B.O","pincode":"796017","officetype":"B.O","deliverystatus":"Delivery","statename":"MIZORAM","regionname":"North Eastern","circlename":"North Eastern","divisionname":"Mizoram","Taluk":"Tlangnuam (Part)"},{"officename":"Bualpui H B.O","pincode":"796581","officetype":"B.O","deliverystatus":"Delivery","statename":"MIZORAM","regionname":"North Eastern","circlename":"North Eastern","divisionname":"Mizoram","Taluk":"Hnahthial"},{"officename":"Bethel B.O","pincode":"796321","officetype":"B.O","deliverystatus":"Delivery","statename":"MIZORAM","regionname":"North Eastern","circlename":"North Eastern","divisionname":"Mizoram","Taluk":"Khawbung"},{"officename":"Selesih B.O","pincode":"796015","officetype":"B.O","deliverystatus":"Delivery","statename":"MIZORAM","regionname":"North Eastern","circlename":"North Eastern","divisionname":"Mizoram","Taluk":"Tlangnuam (Part)"},{"officename":"New Vervek B.O","pincode":"796111","officetype":"B.O","deliverystatus":"Delivery","statename":"MIZORAM","regionname":"North Eastern","circlename":"North Eastern","divisionname":"Mizoram","Taluk":"Darlawn"},{"officename":"Tlangsam B.O","pincode":"796321","officetype":"B.O","deliverystatus":"Delivery","statename":"MIZORAM","regionname":"North Eastern","circlename":"North Eastern","divisionname":"Mizoram","Taluk":"Khawbung"},{"officename":"Serkawr B.O","pincode":"796901","officetype":"B.O","deliverystatus":"Delivery","statename":"MIZORAM","regionname":"North Eastern","circlename":"North Eastern","divisionname":"Mizoram","Taluk":"Tuipang"},{"officename":"Buhban B.O","pincode":"796261","officetype":"B.O","deliverystatus":"Delivery","statename":"MIZORAM","regionname":"North Eastern","circlename":"North Eastern","divisionname":"Mizoram","Taluk":"Saitual"},{"officename":"Hualtu B.O","pincode":"796161","officetype":"B.O","deliverystatus":"Delivery","statename":"MIZORAM","regionname":"North Eastern","circlename":"North Eastern","divisionname":"Mizoram","Taluk":"Thingsulthliah"},{"officename":"Lungkawlh B.O","pincode":"796184","officetype":"B.O","deliverystatus":"Delivery","statename":"MIZORAM","regionname":"North Eastern","circlename":"North Eastern","divisionname":"Mizoram","Taluk":"Serchhip"},{"officename":"Khawchhete B.O","pincode":"796005","officetype":"B.O","deliverystatus":"Delivery","statename":"MIZORAM","regionname":"North Eastern","circlename":"North Eastern","divisionname":"Mizoram","Taluk":"Kulikawn"},{"officename":"Leng B.O","pincode":"796370","officetype":"B.O","deliverystatus":"Delivery","statename":"MIZORAM","regionname":"North Eastern","circlename":"North Eastern","divisionname":"Mizoram","Taluk":"Serchhip"},{"officename":"Chawlhhmun B.O","pincode":"796009","officetype":"B.O","deliverystatus":"Delivery","statename":"MIZORAM","regionname":"North Eastern","circlename":"North Eastern","divisionname":"Mizoram","Taluk":"Tlangnuam (Part)"},{"officename":"Tongkolong B.O","pincode":"796901","officetype":"B.O","deliverystatus":"Delivery","statename":"MIZORAM","regionname":"North Eastern","circlename":"North Eastern","divisionname":"Mizoram","Taluk":"Tuipang"},{"officename":"Tuisih B.O","pincode":"796901","officetype":"B.O","deliverystatus":"Delivery","statename":"MIZORAM","regionname":"North Eastern","circlename":"North Eastern","divisionname":"Mizoram","Taluk":"Tuipang"},{"officename":"Vahai B.O","pincode":"796901","officetype":"B.O","deliverystatus":"Delivery","statename":"MIZORAM","regionname":"North Eastern","circlename":"North Eastern","divisionname":"Mizoram","Taluk":"Tuipang"},{"officename":"Zawngling B.O","pincode":"796901","officetype":"B.O","deliverystatus":"Delivery","statename":"MIZORAM","regionname":"North Eastern","circlename":"North Eastern","divisionname":"Mizoram","Taluk":"Tuipang"},{"officename":"Cheural B.O","pincode":"796901","officetype":"B.O","deliverystatus":"Delivery","statename":"MIZORAM","regionname":"North Eastern","circlename":"North Eastern","divisionname":"Mizoram","Taluk":"Sangau"},{"officename":"Lungtian B.O","pincode":"796901","officetype":"B.O","deliverystatus":"Delivery","statename":"MIZORAM","regionname":"North Eastern","circlename":"North Eastern","divisionname":"Mizoram","Taluk":"Sangau"},{"officename":"Pangkhua B.O","pincode":"796901","officetype":"B.O","deliverystatus":"Delivery","statename":"MIZORAM","regionname":"North Eastern","circlename":"North Eastern","divisionname":"Mizoram","Taluk":"Sangau"},{"officename":"Chalrang B.O","pincode":"796310","officetype":"B.O","deliverystatus":"Delivery","statename":"MIZORAM","regionname":"North Eastern","circlename":"North Eastern","divisionname":"Mizoram","Taluk":"Khawzawl"},{"officename":"Chawngtlai B.O","pincode":"796310","officetype":"B.O","deliverystatus":"Delivery","statename":"MIZORAM","regionname":"North Eastern","circlename":"North Eastern","divisionname":"Mizoram","Taluk":"Khawzawl"},{"officename":"Chhawrtui B.O","pincode":"796310","officetype":"B.O","deliverystatus":"Delivery","statename":"MIZORAM","regionname":"North Eastern","circlename":"North Eastern","divisionname":"Mizoram","Taluk":"Khawzawl"},{"officename":"Dulte B.O","pincode":"796310","officetype":"B.O","deliverystatus":"Delivery","statename":"MIZORAM","regionname":"North Eastern","circlename":"North Eastern","divisionname":"Mizoram","Taluk":"Khawzawl"},{"officename":"Kawlkulh B.O","pincode":"796310","officetype":"B.O","deliverystatus":"Delivery","statename":"MIZORAM","regionname":"North Eastern","circlename":"North Eastern","divisionname":"Mizoram","Taluk":"Khawzawl"},{"officename":"Khawhai B.O","pincode":"796310","officetype":"B.O","deliverystatus":"Delivery","statename":"MIZORAM","regionname":"North Eastern","circlename":"North Eastern","divisionname":"Mizoram","Taluk":"Khawzawl"},{"officename":"N.Chalrang B.O","pincode":"796310","officetype":"B.O","deliverystatus":"Delivery","statename":"MIZORAM","regionname":"North Eastern","circlename":"North Eastern","divisionname":"Mizoram","Taluk":"Khawzawl"},{"officename":"Puilo B.O","pincode":"796310","officetype":"B.O","deliverystatus":"Delivery","statename":"MIZORAM","regionname":"North Eastern","circlename":"North Eastern","divisionname":"Mizoram","Taluk":"Khawzawl"},{"officename":"Tualpui B.O","pincode":"796310","officetype":"B.O","deliverystatus":"Delivery","statename":"MIZORAM","regionname":"North Eastern","circlename":"North Eastern","divisionname":"Mizoram","Taluk":"Khawzawl"},{"officename":"Tualte B.O","pincode":"796310","officetype":"B.O","deliverystatus":"Delivery","statename":"MIZORAM","regionname":"North Eastern","circlename":"North Eastern","divisionname":"Mizoram","Taluk":"Khawzawl"},{"officename":"Vanchengpui B.O","pincode":"796310","officetype":"B.O","deliverystatus":"Delivery","statename":"MIZORAM","regionname":"North Eastern","circlename":"North Eastern","divisionname":"Mizoram","Taluk":"Khawzawl"},{"officename":"Vangtlang B.O","pincode":"796310","officetype":"B.O","deliverystatus":"Delivery","statename":"MIZORAM","regionname":"North Eastern","circlename":"North Eastern","divisionname":"Mizoram","Taluk":"Khawzawl"},{"officename":"Lungtan B.O","pincode":"796310","officetype":"B.O","deliverystatus":"Delivery","statename":"MIZORAM","regionname":"North Eastern","circlename":"North Eastern","divisionname":"Mizoram","Taluk":"Khawzawl"},{"officename":"Rullam B.O","pincode":"796310","officetype":"B.O","deliverystatus":"Delivery","statename":"MIZORAM","regionname":"North Eastern","circlename":"North Eastern","divisionname":"Mizoram","Taluk":"Khawzawl"},{"officename":"Neihdawn B.O","pincode":"796310","officetype":"B.O","deliverystatus":"Delivery","statename":"MIZORAM","regionname":"North Eastern","circlename":"North Eastern","divisionname":"Mizoram","Taluk":"Khawzawl"},{"officename":"Riangtlei B.O","pincode":"796310","officetype":"B.O","deliverystatus":"Delivery","statename":"MIZORAM","regionname":"North Eastern","circlename":"North Eastern","divisionname":"Mizoram","Taluk":"Khawzawl"},{"officename":"Hrianghmun B.O","pincode":"796290","officetype":"B.O","deliverystatus":"Delivery","statename":"MIZORAM","regionname":"North Eastern","circlename":"North Eastern","divisionname":"Mizoram","Taluk":"Ngopa"},{"officename":"Kawlbem B.O","pincode":"796290","officetype":"B.O","deliverystatus":"Delivery","statename":"MIZORAM","regionname":"North Eastern","circlename":"North Eastern","divisionname":"Mizoram","Taluk":"Ngopa"},{"officename":"Khawkawn B.O","pincode":"796290","officetype":"B.O","deliverystatus":"Delivery","statename":"MIZORAM","regionname":"North Eastern","circlename":"North Eastern","divisionname":"Mizoram","Taluk":"Ngopa"},{"officename":"Mimbung B.O","pincode":"796290","officetype":"B.O","deliverystatus":"Delivery","statename":"MIZORAM","regionname":"North Eastern","circlename":"North Eastern","divisionname":"Mizoram","Taluk":"Ngopa"},{"officename":"Lamzawl B.O","pincode":"796290","officetype":"B.O","deliverystatus":"Delivery","statename":"MIZORAM","regionname":"North Eastern","circlename":"North Eastern","divisionname":"Mizoram","Taluk":"Ngopa"},{"officename":"Ne Khawdungsei B.O","pincode":"796290","officetype":"B.O","deliverystatus":"Delivery","statename":"MIZORAM","regionname":"North Eastern","circlename":"North Eastern","divisionname":"Mizoram","Taluk":"Ngopa"},{"officename":"Selam B.O","pincode":"796290","officetype":"B.O","deliverystatus":"Delivery","statename":"MIZORAM","regionname":"North Eastern","circlename":"North Eastern","divisionname":"Mizoram","Taluk":"Ngopa"},{"officename":"Teikhang B.O","pincode":"796290","officetype":"B.O","deliverystatus":"Delivery","statename":"MIZORAM","regionname":"North Eastern","circlename":"North Eastern","divisionname":"Mizoram","Taluk":"Ngopa"},{"officename":"Aiduzawl B.O","pincode":"796261","officetype":"B.O","deliverystatus":"Delivery","statename":"MIZORAM","regionname":"North Eastern","circlename":"North Eastern","divisionname":"Mizoram","Taluk":"Saitual"},{"officename":"Changzawl B.O","pincode":"796261","officetype":"B.O","deliverystatus":"Delivery","statename":"MIZORAM","regionname":"North Eastern","circlename":"North Eastern","divisionname":"Mizoram","Taluk":"Saitual"},{"officename":"Dilkawn B.O","pincode":"796321","officetype":"B.O","deliverystatus":"Delivery","statename":"MIZORAM","regionname":"North Eastern","circlename":"North Eastern","divisionname":"Mizoram","Taluk":"Champhai"},{"officename":"Keifang B.O","pincode":"796261","officetype":"B.O","deliverystatus":"Delivery","statename":"MIZORAM","regionname":"North Eastern","circlename":"North Eastern","divisionname":"Mizoram","Taluk":"Phullen"},{"officename":"Khawlian B.O","pincode":"796261","officetype":"B.O","deliverystatus":"Delivery","statename":"MIZORAM","regionname":"North Eastern","circlename":"North Eastern","divisionname":"Mizoram","Taluk":"Saitual"},{"officename":"Lungpher 'N' B.O","pincode":"796261","officetype":"B.O","deliverystatus":"Delivery","statename":"MIZORAM","regionname":"North Eastern","circlename":"North Eastern","divisionname":"Mizoram","Taluk":"Saitual"},{"officename":"Luangpawn B.O","pincode":"796261","officetype":"B.O","deliverystatus":"Delivery","statename":"MIZORAM","regionname":"North Eastern","circlename":"North Eastern","divisionname":"Mizoram","Taluk":"Saitual"},{"officename":"Maite B.O","pincode":"796261","officetype":"B.O","deliverystatus":"Delivery","statename":"MIZORAM","regionname":"North Eastern","circlename":"North Eastern","divisionname":"Mizoram","Taluk":"Saitual"},{"officename":"Mualpheng B.O","pincode":"796261","officetype":"B.O","deliverystatus":"Delivery","statename":"MIZORAM","regionname":"North Eastern","circlename":"North Eastern","divisionname":"Mizoram","Taluk":"Saitual"},{"officename":"N.E.Bualpui B.O","pincode":"796261","officetype":"B.O","deliverystatus":"Delivery","statename":"MIZORAM","regionname":"North Eastern","circlename":"North Eastern","divisionname":"Mizoram","Taluk":"Phullen"},{"officename":"Pawlrang B.O","pincode":"796261","officetype":"B.O","deliverystatus":"Delivery","statename":"MIZORAM","regionname":"North Eastern","circlename":"North Eastern","divisionname":"Mizoram","Taluk":"Saitual"},{"officename":"Phullen B.O","pincode":"796261","officetype":"B.O","deliverystatus":"Delivery","statename":"MIZORAM","regionname":"North Eastern","circlename":"North Eastern","divisionname":"Mizoram","Taluk":"Saitual"},{"officename":"Phuaibuang B.O","pincode":"796261","officetype":"B.O","deliverystatus":"Delivery","statename":"MIZORAM","regionname":"North Eastern","circlename":"North Eastern","divisionname":"Mizoram","Taluk":"Saitual"},{"officename":"Ruallung B.O","pincode":"796261","officetype":"B.O","deliverystatus":"Delivery","statename":"MIZORAM","regionname":"North Eastern","circlename":"North Eastern","divisionname":"Mizoram","Taluk":"Phullen"},{"officename":"Saichal B.O","pincode":"796261","officetype":"B.O","deliverystatus":"Delivery","statename":"MIZORAM","regionname":"North Eastern","circlename":"North Eastern","divisionname":"Mizoram","Taluk":"Saitual"},{"officename":"Sihfa B.O","pincode":"796261","officetype":"B.O","deliverystatus":"Delivery","statename":"MIZORAM","regionname":"North Eastern","circlename":"North Eastern","divisionname":"Mizoram","Taluk":"Saitual"},{"officename":"Suangpuilawn B.O","pincode":"796261","officetype":"B.O","deliverystatus":"Delivery","statename":"MIZORAM","regionname":"North Eastern","circlename":"North Eastern","divisionname":"Mizoram","Taluk":"Saitual"},{"officename":"Tualbung B.O","pincode":"796261","officetype":"B.O","deliverystatus":"Delivery","statename":"MIZORAM","regionname":"North Eastern","circlename":"North Eastern","divisionname":"Mizoram","Taluk":"Saitual"},{"officename":"Vanbawng B.O","pincode":"796261","officetype":"B.O","deliverystatus":"Delivery","statename":"MIZORAM","regionname":"North Eastern","circlename":"North Eastern","divisionname":"Mizoram","Taluk":"Saitual"},{"officename":"N.Khawlek B.O","pincode":"796261","officetype":"B.O","deliverystatus":"Delivery","statename":"MIZORAM","regionname":"North Eastern","circlename":"North Eastern","divisionname":"Mizoram","Taluk":"Saitual"},{"officename":"Zawngin B.O","pincode":"796261","officetype":"B.O","deliverystatus":"Delivery","statename":"MIZORAM","regionname":"North Eastern","circlename":"North Eastern","divisionname":"Mizoram","Taluk":"Saitual"},{"officename":"Bungzung B.O","pincode":"796320","officetype":"B.O","deliverystatus":"Delivery","statename":"MIZORAM","regionname":"North Eastern","circlename":"North Eastern","divisionname":"Mizoram","Taluk":"S.khawbung"},{"officename":"Dungtlang B.O","pincode":"796320","officetype":"B.O","deliverystatus":"Delivery","statename":"MIZORAM","regionname":"North Eastern","circlename":"North Eastern","divisionname":"Mizoram","Taluk":"S.khawbung"},{"officename":"Farkawn B.O","pincode":"796320","officetype":"B.O","deliverystatus":"Delivery","statename":"MIZORAM","regionname":"North Eastern","circlename":"North Eastern","divisionname":"Mizoram","Taluk":"S.khawbung"},{"officename":"Khuangthing B.O","pincode":"796320","officetype":"B.O","deliverystatus":"Delivery","statename":"MIZORAM","regionname":"North Eastern","circlename":"North Eastern","divisionname":"Mizoram","Taluk":"S.khawbung"},{"officename":"Leithum B.O","pincode":"796320","officetype":"B.O","deliverystatus":"Delivery","statename":"MIZORAM","regionname":"North Eastern","circlename":"North Eastern","divisionname":"Mizoram","Taluk":"S.khawbung"},{"officename":"Muallung B.O","pincode":"796320","officetype":"B.O","deliverystatus":"Delivery","statename":"MIZORAM","regionname":"North Eastern","circlename":"North Eastern","divisionname":"Mizoram","Taluk":"S.khawbung"},{"officename":"Samthang B.O","pincode":"796320","officetype":"B.O","deliverystatus":"Delivery","statename":"MIZORAM","regionname":"North Eastern","circlename":"North Eastern","divisionname":"Mizoram","Taluk":"S.khawbung"},{"officename":"Sazep B.O","pincode":"796320","officetype":"B.O","deliverystatus":"Delivery","statename":"MIZORAM","regionname":"North Eastern","circlename":"North Eastern","divisionname":"Mizoram","Taluk":"S.khawbung"},{"officename":"Vanzau B.O","pincode":"796320","officetype":"B.O","deliverystatus":"Delivery","statename":"MIZORAM","regionname":"North Eastern","circlename":"North Eastern","divisionname":"Mizoram","Taluk":"S.khawbung"},{"officename":"Vangchhia B.O","pincode":"796320","officetype":"B.O","deliverystatus":"Delivery","statename":"MIZORAM","regionname":"North Eastern","circlename":"North Eastern","divisionname":"Mizoram","Taluk":"S.khawbung"},{"officename":"Vaphai B.O","pincode":"796320","officetype":"B.O","deliverystatus":"Delivery","statename":"MIZORAM","regionname":"North Eastern","circlename":"North Eastern","divisionname":"Mizoram","Taluk":"S.khawbung"},{"officename":"Baktawng B.O","pincode":"796161","officetype":"B.O","deliverystatus":"Delivery","statename":"MIZORAM","regionname":"North Eastern","circlename":"North Eastern","divisionname":"Mizoram","Taluk":"Thingsulthliah"},{"officename":"Chhingchhip B.O","pincode":"796161","officetype":"B.O","deliverystatus":"Delivery","statename":"MIZORAM","regionname":"North Eastern","circlename":"North Eastern","divisionname":"Mizoram","Taluk":"Thingsulthliah"},{"officename":"Hmuntha B.O","pincode":"796161","officetype":"B.O","deliverystatus":"Delivery","statename":"MIZORAM","regionname":"North Eastern","circlename":"North Eastern","divisionname":"Mizoram","Taluk":"Thingsulthliah"},{"officename":"Khawbel B.O","pincode":"796161","officetype":"B.O","deliverystatus":"Delivery","statename":"MIZORAM","regionname":"North Eastern","circlename":"North Eastern","divisionname":"Mizoram","Taluk":"Thingsulthliah"},{"officename":"Khumtung B.O","pincode":"796161","officetype":"B.O","deliverystatus":"Delivery","statename":"MIZORAM","regionname":"North Eastern","circlename":"North Eastern","divisionname":"Mizoram","Taluk":"Thingsulthliah"},{"officename":"Thentlang B.O","pincode":"796161","officetype":"B.O","deliverystatus":"Delivery","statename":"MIZORAM","regionname":"North Eastern","circlename":"North Eastern","divisionname":"Mizoram","Taluk":"Thingsulthliah"},{"officename":"Tlungvel B.O","pincode":"796161","officetype":"B.O","deliverystatus":"Delivery","statename":"MIZORAM","regionname":"North Eastern","circlename":"North Eastern","divisionname":"Mizoram","Taluk":"Thingsulthliah"},{"officename":"Seling B.O","pincode":"796161","officetype":"B.O","deliverystatus":"Delivery","statename":"MIZORAM","regionname":"North Eastern","circlename":"North Eastern","divisionname":"Mizoram","Taluk":"Thingsulthliah"},{"officename":"Kepran B.O","pincode":"796017","officetype":"B.O","deliverystatus":"Delivery","statename":"MIZORAM","regionname":"North Eastern","circlename":"North Eastern","divisionname":"Mizoram","Taluk":"Zemabawk"},{"officename":"Hauruang B.O","pincode":"796701","officetype":"B.O","deliverystatus":"Delivery","statename":"MIZORAM","regionname":"North Eastern","circlename":"North Eastern","divisionname":"Mizoram","Taluk":"Lunglei"},{"officename":"Hrangchalkawn B.O","pincode":"796701","officetype":"B.O","deliverystatus":"Delivery","statename":"MIZORAM","regionname":"North Eastern","circlename":"North Eastern","divisionname":"Mizoram","Taluk":"Lunglei"},{"officename":"Theiriat B.O","pincode":"796701","officetype":"B.O","deliverystatus":"Delivery","statename":"MIZORAM","regionname":"North Eastern","circlename":"North Eastern","divisionname":"Mizoram","Taluk":"Lunglei"},{"officename":"Thualthu B.O","pincode":"796701","officetype":"B.O","deliverystatus":"Delivery","statename":"MIZORAM","regionname":"North Eastern","circlename":"North Eastern","divisionname":"Mizoram","Taluk":"Lunglei"},{"officename":"Thingfal B.O","pincode":"796701","officetype":"B.O","deliverystatus":"Delivery","statename":"MIZORAM","regionname":"North Eastern","circlename":"North Eastern","divisionname":"Mizoram","Taluk":"Lunglei"},{"officename":"Thuampui B.O","pincode":"796701","officetype":"B.O","deliverystatus":"Delivery","statename":"MIZORAM","regionname":"North Eastern","circlename":"North Eastern","divisionname":"Mizoram","Taluk":"Lunglei"},{"officename":"Vaisam B.O","pincode":"796701","officetype":"B.O","deliverystatus":"Delivery","statename":"MIZORAM","regionname":"North Eastern","circlename":"North Eastern","divisionname":"Mizoram","Taluk":"Lunglei"},{"officename":"Vanhne B.O","pincode":"796701","officetype":"B.O","deliverystatus":"Delivery","statename":"MIZORAM","regionname":"North Eastern","circlename":"North Eastern","divisionname":"Mizoram","Taluk":"Lunglei"},{"officename":"Zobawk B.O","pincode":"796701","officetype":"B.O","deliverystatus":"Delivery","statename":"MIZORAM","regionname":"North Eastern","circlename":"North Eastern","divisionname":"Mizoram","Taluk":"Lunglei"},{"officename":"Zohnuai B.O","pincode":"796691","officetype":"B.O","deliverystatus":"Delivery","statename":"MIZORAM","regionname":"North Eastern","circlename":"North Eastern","divisionname":"Mizoram","Taluk":"Lunglei"},{"officename":"Ralvawng B.O","pincode":"796691","officetype":"B.O","deliverystatus":"Delivery","statename":"MIZORAM","regionname":"North Eastern","circlename":"North Eastern","divisionname":"Mizoram","Taluk":"Lunglei"},{"officename":"Thenhlum B.O","pincode":"796701","officetype":"B.O","deliverystatus":"Delivery","statename":"MIZORAM","regionname":"North Eastern","circlename":"North Eastern","divisionname":"Mizoram","Taluk":"Lunglei"},{"officename":"Lungchem B.O","pincode":"796701","officetype":"B.O","deliverystatus":"Delivery","statename":"MIZORAM","regionname":"North Eastern","circlename":"North Eastern","divisionname":"Mizoram","Taluk":"Lunglei"},{"officename":"Lunglawn B.O","pincode":"796701","officetype":"B.O","deliverystatus":"Delivery","statename":"MIZORAM","regionname":"North Eastern","circlename":"North Eastern","divisionname":"Mizoram","Taluk":"Lunglei"},{"officename":"Mualcheng 'S' B.O","pincode":"796701","officetype":"B.O","deliverystatus":"Delivery","statename":"MIZORAM","regionname":"North Eastern","circlename":"North Eastern","divisionname":"Mizoram","Taluk":"Lunglei"},{"officename":"Sazaikawn B.O","pincode":"796701","officetype":"B.O","deliverystatus":"Delivery","statename":"MIZORAM","regionname":"North Eastern","circlename":"North Eastern","divisionname":"Mizoram","Taluk":"Lunglei"},{"officename":"Sertlangpui B.O","pincode":"796701","officetype":"B.O","deliverystatus":"Delivery","statename":"MIZORAM","regionname":"North Eastern","circlename":"North Eastern","divisionname":"Mizoram","Taluk":"Lunglei"},{"officename":"Tawipui 'N' B.O","pincode":"796701","officetype":"B.O","deliverystatus":"Delivery","statename":"MIZORAM","regionname":"North Eastern","circlename":"North Eastern","divisionname":"Mizoram","Taluk":"Lunglei"},{"officename":"Tawipui 'S' B.O","pincode":"796701","officetype":"B.O","deliverystatus":"Delivery","statename":"MIZORAM","regionname":"North Eastern","circlename":"North Eastern","divisionname":"Mizoram","Taluk":"Lunglei"},{"officename":"Bungtlang 'N' B.O","pincode":"796181","officetype":"B.O","deliverystatus":"Delivery","statename":"MIZORAM","regionname":"North Eastern","circlename":"North Eastern","divisionname":"Mizoram","Taluk":"Serchhip"},{"officename":"Chekawn B.O","pincode":"796181","officetype":"B.O","deliverystatus":"Delivery","statename":"MIZORAM","regionname":"North Eastern","circlename":"North Eastern","divisionname":"Mizoram","Taluk":"Serchhip"},{"officename":"Chhiahtlang B.O","pincode":"796181","officetype":"B.O","deliverystatus":"Delivery","statename":"MIZORAM","regionname":"North Eastern","circlename":"North Eastern","divisionname":"Mizoram","Taluk":"Serchhip"},{"officename":"Chhipphir B.O","pincode":"796186","officetype":"B.O","deliverystatus":"Delivery","statename":"MIZORAM","regionname":"North Eastern","circlename":"North Eastern","divisionname":"Mizoram","Taluk":"Serchhip"},{"officename":"Keitum B.O","pincode":"796181","officetype":"B.O","deliverystatus":"Delivery","statename":"MIZORAM","regionname":"North Eastern","circlename":"North Eastern","divisionname":"Mizoram","Taluk":"Serchhip"},{"officename":"Khawlailung B.O","pincode":"796181","officetype":"B.O","deliverystatus":"Delivery","statename":"MIZORAM","regionname":"North Eastern","circlename":"North Eastern","divisionname":"Mizoram","Taluk":"Serchhip"},{"officename":"Kanghmun S B.O","pincode":"796186","officetype":"B.O","deliverystatus":"Delivery","statename":"MIZORAM","regionname":"North Eastern","circlename":"North Eastern","divisionname":"Mizoram","Taluk":"Serchhip"},{"officename":"Lungchhuan B.O","pincode":"796184","officetype":"B.O","deliverystatus":"Delivery","statename":"MIZORAM","regionname":"North Eastern","circlename":"North Eastern","divisionname":"Mizoram","Taluk":"Serchhip"},{"officename":"Lungpho B.O","pincode":"796181","officetype":"B.O","deliverystatus":"Delivery","statename":"MIZORAM","regionname":"North Eastern","circlename":"North Eastern","divisionname":"Mizoram","Taluk":"Serchhip"},{"officename":"New Serchhip B.O","pincode":"796181","officetype":"B.O","deliverystatus":"Delivery","statename":"MIZORAM","regionname":"North Eastern","circlename":"North Eastern","divisionname":"Mizoram","Taluk":"Serchhip"},{"officename":"Sialhau B.O","pincode":"796181","officetype":"B.O","deliverystatus":"Delivery","statename":"MIZORAM","regionname":"North Eastern","circlename":"North Eastern","divisionname":"Mizoram","Taluk":"Serchhip"},{"officename":"Sialsir B.O","pincode":"796184","officetype":"B.O","deliverystatus":"Delivery","statename":"MIZORAM","regionname":"North Eastern","circlename":"North Eastern","divisionname":"Mizoram","Taluk":"Serchhip"},{"officename":"Thinglian B.O","pincode":"796181","officetype":"B.O","deliverystatus":"Delivery","statename":"MIZORAM","regionname":"North Eastern","circlename":"North Eastern","divisionname":"Mizoram","Taluk":"Serchhip"},{"officename":"Zote South B.O","pincode":"796186","officetype":"B.O","deliverystatus":"Delivery","statename":"MIZORAM","regionname":"North Eastern","circlename":"North Eastern","divisionname":"Mizoram","Taluk":"Serchhip"},{"officename":"Biate B.O","pincode":"796370","officetype":"B.O","deliverystatus":"Delivery","statename":"MIZORAM","regionname":"North Eastern","circlename":"North Eastern","divisionname":"Mizoram","Taluk":"East Lungdar (Part)"},{"officename":"Kanhmunbazar B.O","pincode":"796470","officetype":"B.O","deliverystatus":"Delivery","statename":"MIZORAM","regionname":"North Eastern","circlename":"North Eastern","divisionname":"Mizoram","Taluk":"Zawlnuam"},{"officename":"Lushaicherra B.O","pincode":"796470","officetype":"B.O","deliverystatus":"Delivery","statename":"MIZORAM","regionname":"North Eastern","circlename":"North Eastern","divisionname":"Mizoram","Taluk":"Zawlnuam"},{"officename":"Momcherra B.O","pincode":"796470","officetype":"B.O","deliverystatus":"Delivery","statename":"MIZORAM","regionname":"North Eastern","circlename":"North Eastern","divisionname":"Mizoram","Taluk":"Zawlnuam"},{"officename":"Zamuang B.O","pincode":"796470","officetype":"B.O","deliverystatus":"Delivery","statename":"MIZORAM","regionname":"North Eastern","circlename":"North Eastern","divisionname":"Mizoram","Taluk":"Zawlnuam"},{"officename":"Phainuam B.O","pincode":"796101","officetype":"B.O","deliverystatus":"Delivery","statename":"MIZORAM","regionname":"North Eastern","circlename":"North Eastern","divisionname":"Mizoram","Taluk":"Vairengte"},{"officename":"Tuirial H.E.P B.O","pincode":"796091","officetype":"B.O","deliverystatus":"Delivery","statename":"MIZORAM","regionname":"North Eastern","circlename":"North Eastern","divisionname":"Mizoram","Taluk":"Tlangnuam (Part)"},{"officename":"N.Chawnpui B.O","pincode":"796091","officetype":"B.O","deliverystatus":"Delivery","statename":"MIZORAM","regionname":"North Eastern","circlename":"North Eastern","divisionname":"Mizoram","Taluk":"Vairengte"},{"officename":"Saiphai B.O","pincode":"796091","officetype":"B.O","deliverystatus":"Delivery","statename":"MIZORAM","regionname":"North Eastern","circlename":"North Eastern","divisionname":"Mizoram","Taluk":"Vairengte"},{"officename":"Saipum B.O","pincode":"796091","officetype":"B.O","deliverystatus":"Delivery","statename":"MIZORAM","regionname":"North Eastern","circlename":"North Eastern","divisionname":"Mizoram","Taluk":"Vairengte"},{"officename":"Bualpui B.O","pincode":"796070","officetype":"B.O","deliverystatus":"Delivery","statename":"MIZORAM","regionname":"North Eastern","circlename":"North Eastern","divisionname":"Mizoram","Taluk":"North Thingdawl"},{"officename":"Hortoki B.O","pincode":"796070","officetype":"B.O","deliverystatus":"Delivery","statename":"MIZORAM","regionname":"North Eastern","circlename":"North Eastern","divisionname":"Mizoram","Taluk":"Kawnpui"},{"officename":"Mualvum B.O","pincode":"796070","officetype":"B.O","deliverystatus":"Delivery","statename":"MIZORAM","regionname":"North Eastern","circlename":"North Eastern","divisionname":"Mizoram","Taluk":"Kawnpui"},{"officename":"Suarhliap B.O","pincode":"796081","officetype":"B.O","deliverystatus":"Delivery","statename":"MIZORAM","regionname":"North Eastern","circlename":"North Eastern","divisionname":"Mizoram","Taluk":"Kolasib"},{"officename":"Saikhawthlir B.O","pincode":"796081","officetype":"B.O","deliverystatus":"Delivery","statename":"MIZORAM","regionname":"North Eastern","circlename":"North Eastern","divisionname":"Mizoram","Taluk":"Kolasib"},{"officename":"Chuhvel B.O","pincode":"796081","officetype":"B.O","deliverystatus":"Delivery","statename":"MIZORAM","regionname":"North Eastern","circlename":"North Eastern","divisionname":"Mizoram","Taluk":"Kolasib"},{"officename":"Builum B.O","pincode":"796081","officetype":"B.O","deliverystatus":"Delivery","statename":"MIZORAM","regionname":"North Eastern","circlename":"North Eastern","divisionname":"Mizoram","Taluk":"Kolasib"},{"officename":"Vengthar B.O","pincode":"796081","officetype":"B.O","deliverystatus":"Delivery","statename":"MIZORAM","regionname":"North Eastern","circlename":"North Eastern","divisionname":"Mizoram","Taluk":"North Thingdawl"},{"officename":"Bairabi B.O","pincode":"796081","officetype":"B.O","deliverystatus":"Delivery","statename":"MIZORAM","regionname":"North Eastern","circlename":"North Eastern","divisionname":"Mizoram","Taluk":"North Thingdawl"},{"officename":"Hualngohmun B.O","pincode":"796005","officetype":"B.O","deliverystatus":"Delivery","statename":"MIZORAM","regionname":"North Eastern","circlename":"North Eastern","divisionname":"Mizoram","Taluk":"Tlangnuam (Part)"},{"officename":"Kelsih B.O","pincode":"796005","officetype":"B.O","deliverystatus":"Delivery","statename":"MIZORAM","regionname":"North Eastern","circlename":"North Eastern","divisionname":"Mizoram","Taluk":"Kulikawn"},{"officename":"Missionvengthlang B.O","pincode":"796005","officetype":"B.O","deliverystatus":"Delivery","statename":"MIZORAM","regionname":"North Eastern","circlename":"North Eastern","divisionname":"Mizoram","Taluk":"Tlangnuam (Part)"},{"officename":"Muallungthu B.O","pincode":"796005","officetype":"B.O","deliverystatus":"Delivery","statename":"MIZORAM","regionname":"North Eastern","circlename":"North Eastern","divisionname":"Mizoram","Taluk":"Kulikawn"},{"officename":"Mualmawi B.O","pincode":"796005","officetype":"B.O","deliverystatus":"Delivery","statename":"MIZORAM","regionname":"North Eastern","circlename":"North Eastern","divisionname":"Mizoram","Taluk":"Tlangnuam (Part)"},{"officename":"N.Lungleng B.O","pincode":"796005","officetype":"B.O","deliverystatus":"Delivery","statename":"MIZORAM","regionname":"North Eastern","circlename":"North Eastern","divisionname":"Mizoram","Taluk":"Kulikawn"},{"officename":"Sabualkawn B.O","pincode":"796005","officetype":"B.O","deliverystatus":"Delivery","statename":"MIZORAM","regionname":"North Eastern","circlename":"North Eastern","divisionname":"Mizoram","Taluk":"Tlangnuam (Part)"},{"officename":"S,hlimen B.O","pincode":"796005","officetype":"B.O","deliverystatus":"Delivery","statename":"MIZORAM","regionname":"North Eastern","circlename":"North Eastern","divisionname":"Mizoram","Taluk":"Tlangnuam (Part)"},{"officename":"Thingdawlmelriat B.O","pincode":"796005","officetype":"B.O","deliverystatus":"Delivery","statename":"MIZORAM","regionname":"North Eastern","circlename":"North Eastern","divisionname":"Mizoram","Taluk":"Kulikawn"},{"officename":"Mualpui B.O","pincode":"796005","officetype":"B.O","deliverystatus":"Delivery","statename":"MIZORAM","regionname":"North Eastern","circlename":"North Eastern","divisionname":"Mizoram","Taluk":"Tlangnuam (Part)"},{"officename":"Maubawk B.O","pincode":"796005","officetype":"B.O","deliverystatus":"Delivery","statename":"MIZORAM","regionname":"North Eastern","circlename":"North Eastern","divisionname":"Mizoram","Taluk":"Tlangnuam (Part)"},{"officename":"Dampui B.O","pincode":"796441","officetype":"B.O","deliverystatus":"Delivery","statename":"MIZORAM","regionname":"North Eastern","circlename":"North Eastern","divisionname":"Mizoram","Taluk":"Mamit"},{"officename":"Rengdil B.O","pincode":"796470","officetype":"B.O","deliverystatus":"Delivery","statename":"MIZORAM","regionname":"North Eastern","circlename":"North Eastern","divisionname":"Mizoram","Taluk":"Zawlnuam"},{"officename":"Khanpui B.O","pincode":"796017","officetype":"B.O","deliverystatus":"Delivery","statename":"MIZORAM","regionname":"North Eastern","circlename":"North Eastern","divisionname":"Mizoram","Taluk":"Zemabawk"},{"officename":"Khawruhlian B.O","pincode":"796017","officetype":"B.O","deliverystatus":"Delivery","statename":"MIZORAM","regionname":"North Eastern","circlename":"North Eastern","divisionname":"Mizoram","Taluk":"Zemabawk"},{"officename":"Phaileng 'E' B.O","pincode":"796017","officetype":"B.O","deliverystatus":"Delivery","statename":"MIZORAM","regionname":"North Eastern","circlename":"North Eastern","divisionname":"Mizoram","Taluk":"Zemabawk"},{"officename":"Sawleng B.O","pincode":"796017","officetype":"B.O","deliverystatus":"Delivery","statename":"MIZORAM","regionname":"North Eastern","circlename":"North Eastern","divisionname":"Mizoram","Taluk":"Zemabawk"},{"officename":"Sesawng B.O","pincode":"796017","officetype":"B.O","deliverystatus":"Delivery","statename":"MIZORAM","regionname":"North Eastern","circlename":"North Eastern","divisionname":"Mizoram","Taluk":"Zemabawk"},{"officename":"Zuangtui B.O","pincode":"796017","officetype":"B.O","deliverystatus":"Delivery","statename":"MIZORAM","regionname":"North Eastern","circlename":"North Eastern","divisionname":"Mizoram","Taluk":"Tlangnuam (Part)"},{"officename":"Cti Sesawng B.O","pincode":"796017","officetype":"B.O","deliverystatus":"Delivery","statename":"MIZORAM","regionname":"North Eastern","circlename":"North Eastern","divisionname":"Mizoram","Taluk":"Thingsulthliah (Part)"},{"officename":"Belthei B.O","pincode":"796701","officetype":"B.O","deliverystatus":"Delivery","statename":"MIZORAM","regionname":"North Eastern","circlename":"North Eastern","divisionname":"Mizoram","Taluk":"Lunglei"},{"officename":"Lungrang 'S' B.O","pincode":"796701","officetype":"B.O","deliverystatus":"Delivery","statename":"MIZORAM","regionname":"North Eastern","circlename":"North Eastern","divisionname":"Mizoram","Taluk":"Lunglei"},{"officename":"Phairuangkai B.O","pincode":"796701","officetype":"B.O","deliverystatus":"Delivery","statename":"MIZORAM","regionname":"North Eastern","circlename":"North Eastern","divisionname":"Mizoram","Taluk":"Lunglei"},{"officename":"Putlungasih B.O","pincode":"796701","officetype":"B.O","deliverystatus":"Delivery","statename":"MIZORAM","regionname":"North Eastern","circlename":"North Eastern","divisionname":"Mizoram","Taluk":"Lunglei"},{"officename":"Rangte B.O","pincode":"796701","officetype":"B.O","deliverystatus":"Delivery","statename":"MIZORAM","regionname":"North Eastern","circlename":"North Eastern","divisionname":"Mizoram","Taluk":"Lunglei"},{"officename":"Rualalung B.O","pincode":"796701","officetype":"B.O","deliverystatus":"Delivery","statename":"MIZORAM","regionname":"North Eastern","circlename":"North Eastern","divisionname":"Mizoram","Taluk":"Lunglei"},{"officename":"Tuichawng B.O","pincode":"796751","officetype":"B.O","deliverystatus":"Delivery","statename":"MIZORAM","regionname":"North Eastern","circlename":"North Eastern","divisionname":"Mizoram","Taluk":"Bunghmun"},{"officename":"Zawlpui B.O","pincode":"796701","officetype":"B.O","deliverystatus":"Delivery","statename":"MIZORAM","regionname":"North Eastern","circlename":"North Eastern","divisionname":"Mizoram","Taluk":"Lunglei"},{"officename":"Buarpui B.O","pincode":"796701","officetype":"B.O","deliverystatus":"Delivery","statename":"MIZORAM","regionname":"North Eastern","circlename":"North Eastern","divisionname":"Mizoram","Taluk":"Lunglei"},{"officename":"Bualte B.O","pincode":"796701","officetype":"B.O","deliverystatus":"Delivery","statename":"MIZORAM","regionname":"North Eastern","circlename":"North Eastern","divisionname":"Mizoram","Taluk":"Lunglei"},{"officename":"Changpui B.O","pincode":"796701","officetype":"B.O","deliverystatus":"Delivery","statename":"MIZORAM","regionname":"North Eastern","circlename":"North Eastern","divisionname":"Mizoram","Taluk":"Lunglei"},{"officename":"Sialhawk B.O","pincode":"796370","officetype":"B.O","deliverystatus":"Delivery","statename":"MIZORAM","regionname":"North Eastern","circlename":"North Eastern","divisionname":"Mizoram","Taluk":"Serchhip"},{"officename":"Sailulak B.O","pincode":"796370","officetype":"B.O","deliverystatus":"Delivery","statename":"MIZORAM","regionname":"North Eastern","circlename":"North Eastern","divisionname":"Mizoram","Taluk":"Serchhip"},{"officename":"Mualcheng B.O","pincode":"796370","officetype":"B.O","deliverystatus":"Delivery","statename":"MIZORAM","regionname":"North Eastern","circlename":"North Eastern","divisionname":"Mizoram","Taluk":"East Lungdar (Part)"},{"officename":"Tlangpui B.O","pincode":"796370","officetype":"B.O","deliverystatus":"Delivery","statename":"MIZORAM","regionname":"North Eastern","circlename":"North Eastern","divisionname":"Mizoram","Taluk":"Serchhip"},{"officename":"Haulawng B.O","pincode":"796691","officetype":"B.O","deliverystatus":"Delivery","statename":"MIZORAM","regionname":"North Eastern","circlename":"North Eastern","divisionname":"Mizoram","Taluk":"Zotlang"},{"officename":"Hnahchang B.O","pincode":"796691","officetype":"B.O","deliverystatus":"Delivery","statename":"MIZORAM","regionname":"North Eastern","circlename":"North Eastern","divisionname":"Mizoram","Taluk":"Lunglei"},{"officename":"Mualthuam 'N' B.O","pincode":"796691","officetype":"B.O","deliverystatus":"Delivery","statename":"MIZORAM","regionname":"North Eastern","circlename":"North Eastern","divisionname":"Mizoram","Taluk":"Zotlang"},{"officename":"Pukpui B.O","pincode":"796691","officetype":"B.O","deliverystatus":"Delivery","statename":"MIZORAM","regionname":"North Eastern","circlename":"North Eastern","divisionname":"Mizoram","Taluk":"Lunglei"},{"officename":"Ramlaitui B.O","pincode":"796186","officetype":"B.O","deliverystatus":"Delivery","statename":"MIZORAM","regionname":"North Eastern","circlename":"North Eastern","divisionname":"Mizoram","Taluk":"Lunglei"},{"officename":"Ailawng B.O","pincode":"796501","officetype":"B.O","deliverystatus":"Delivery","statename":"MIZORAM","regionname":"North Eastern","circlename":"North Eastern","divisionname":"Mizoram","Taluk":"Reiek"},{"officename":"Darlung B.O","pincode":"796501","officetype":"B.O","deliverystatus":"Delivery","statename":"MIZORAM","regionname":"North Eastern","circlename":"North Eastern","divisionname":"Mizoram","Taluk":"Reiek"},{"officename":"Kanghmun B.O","pincode":"796501","officetype":"B.O","deliverystatus":"Delivery","statename":"MIZORAM","regionname":"North Eastern","circlename":"North Eastern","divisionname":"Mizoram","Taluk":"Reiek"},{"officename":"Khawrihnim B.O","pincode":"796501","officetype":"B.O","deliverystatus":"Delivery","statename":"MIZORAM","regionname":"North Eastern","circlename":"North Eastern","divisionname":"Mizoram","Taluk":"Reiek"},{"officename":"Lungdar 'W' B.O","pincode":"796501","officetype":"B.O","deliverystatus":"Delivery","statename":"MIZORAM","regionname":"North Eastern","circlename":"North Eastern","divisionname":"Mizoram","Taluk":"Reiek"},{"officename":"Rulpuihlim B.O","pincode":"796501","officetype":"B.O","deliverystatus":"Delivery","statename":"MIZORAM","regionname":"North Eastern","circlename":"North Eastern","divisionname":"Mizoram","Taluk":"Reiek"},{"officename":"S.Sabual B.O","pincode":"796501","officetype":"B.O","deliverystatus":"Delivery","statename":"MIZORAM","regionname":"North Eastern","circlename":"North Eastern","divisionname":"Mizoram","Taluk":"Reiek"},{"officename":"Boraibazar B.O","pincode":"796470","officetype":"B.O","deliverystatus":"Delivery","statename":"MIZORAM","regionname":"North Eastern","circlename":"North Eastern","divisionname":"Mizoram","Taluk":"Zawlnuam"},{"officename":"Hriphaw B.O","pincode":"796470","officetype":"B.O","deliverystatus":"Delivery","statename":"MIZORAM","regionname":"North Eastern","circlename":"North Eastern","divisionname":"Mizoram","Taluk":"Zawlnuam"},{"officename":"Kawrtethawveng B.O","pincode":"796441","officetype":"B.O","deliverystatus":"Delivery","statename":"MIZORAM","regionname":"North Eastern","circlename":"North Eastern","divisionname":"Mizoram","Taluk":"Mamit"},{"officename":"Tuidam B.O","pincode":"796441","officetype":"B.O","deliverystatus":"Delivery","statename":"MIZORAM","regionname":"North Eastern","circlename":"North Eastern","divisionname":"Mizoram","Taluk":"Mamit"},{"officename":"Serhmun B.O","pincode":"796441","officetype":"B.O","deliverystatus":"Delivery","statename":"MIZORAM","regionname":"North Eastern","circlename":"North Eastern","divisionname":"Mizoram","Taluk":"West Phaileng"},{"officename":"N.Sabual B.O","pincode":"796441","officetype":"B.O","deliverystatus":"Delivery","statename":"MIZORAM","regionname":"North Eastern","circlename":"North Eastern","divisionname":"Mizoram","Taluk":"Mamit"},{"officename":"Hnahva B.O","pincode":"796431","officetype":"B.O","deliverystatus":"Delivery","statename":"MIZORAM","regionname":"North Eastern","circlename":"North Eastern","divisionname":"Mizoram","Taluk":"Phaileng"},{"officename":"Khawhnai B.O","pincode":"796431","officetype":"B.O","deliverystatus":"Delivery","statename":"MIZORAM","regionname":"North Eastern","circlename":"North Eastern","divisionname":"Mizoram","Taluk":"Phaileng"},{"officename":"Lallen B.O","pincode":"796431","officetype":"B.O","deliverystatus":"Delivery","statename":"MIZORAM","regionname":"North Eastern","circlename":"North Eastern","divisionname":"Mizoram","Taluk":"Phaileng"},{"officename":"Marpara B.O","pincode":"796431","officetype":"B.O","deliverystatus":"Delivery","statename":"MIZORAM","regionname":"North Eastern","circlename":"North Eastern","divisionname":"Mizoram","Taluk":"West Phaileng"},{"officename":"N.Chhippui B.O","pincode":"796431","officetype":"B.O","deliverystatus":"Delivery","statename":"MIZORAM","regionname":"North Eastern","circlename":"North Eastern","divisionname":"Mizoram","Taluk":"Phaileng"},{"officename":"Parvatui B.O","pincode":"796431","officetype":"B.O","deliverystatus":"Delivery","statename":"MIZORAM","regionname":"North Eastern","circlename":"North Eastern","divisionname":"Mizoram","Taluk":"Phaileng"},{"officename":"Silsury B.O","pincode":"796431","officetype":"B.O","deliverystatus":"Delivery","statename":"MIZORAM","regionname":"North Eastern","circlename":"North Eastern","divisionname":"Mizoram","Taluk":"Phaileng"},{"officename":"Tuipuibari-II B.O","pincode":"796431","officetype":"B.O","deliverystatus":"Delivery","statename":"MIZORAM","regionname":"North Eastern","circlename":"North Eastern","divisionname":"Mizoram","Taluk":"Zawlnuam"},{"officename":"Phuldungsei B.O","pincode":"796431","officetype":"B.O","deliverystatus":"Delivery","statename":"MIZORAM","regionname":"North Eastern","circlename":"North Eastern","divisionname":"Mizoram","Taluk":"Phaileng"},{"officename":"Pukzing B.O","pincode":"796431","officetype":"B.O","deliverystatus":"Delivery","statename":"MIZORAM","regionname":"North Eastern","circlename":"North Eastern","divisionname":"Mizoram","Taluk":"Phaileng"},{"officename":"Saithah B.O","pincode":"796431","officetype":"B.O","deliverystatus":"Delivery","statename":"MIZORAM","regionname":"North Eastern","circlename":"North Eastern","divisionname":"Mizoram","Taluk":"Phaileng"},{"officename":"Damparengpui B.O","pincode":"796431","officetype":"B.O","deliverystatus":"Delivery","statename":"MIZORAM","regionname":"North Eastern","circlename":"North Eastern","divisionname":"Mizoram","Taluk":"Phaileng"},{"officename":"Luangmual B.O","pincode":"796009","officetype":"B.O","deliverystatus":"Delivery","statename":"MIZORAM","regionname":"North Eastern","circlename":"North Eastern","divisionname":"Mizoram","Taluk":"Tlangnuam (Part)"},{"officename":"Sakawrtuichhun B.O","pincode":"796009","officetype":"B.O","deliverystatus":"Delivery","statename":"MIZORAM","regionname":"North Eastern","circlename":"North Eastern","divisionname":"Mizoram","Taluk":"Tlangnuam (Part)"},{"officename":"Rangvamual B.O","pincode":"796009","officetype":"B.O","deliverystatus":"Delivery","statename":"MIZORAM","regionname":"North Eastern","circlename":"North Eastern","divisionname":"Mizoram","Taluk":"Tlangnuam (Part)"},{"officename":"Govt. Complex B.O","pincode":"796009","officetype":"B.O","deliverystatus":"Delivery","statename":"MIZORAM","regionname":"North Eastern","circlename":"North Eastern","divisionname":"Mizoram","Taluk":"Tlangnuam (Part)"},{"officename":"Tanhril B.O","pincode":"796009","officetype":"B.O","deliverystatus":"Delivery","statename":"MIZORAM","regionname":"North Eastern","circlename":"North Eastern","divisionname":"Mizoram","Taluk":"Tlangnuam (Part)"},{"officename":"Dapchhuah B.O","pincode":"796410","officetype":"B.O","deliverystatus":"Delivery","statename":"MIZORAM","regionname":"North Eastern","circlename":"North Eastern","divisionname":"Mizoram","Taluk":"Sairang"},{"officename":"Hmunpui B.O","pincode":"796421","officetype":"B.O","deliverystatus":"Delivery","statename":"MIZORAM","regionname":"North Eastern","circlename":"North Eastern","divisionname":"Mizoram","Taluk":"Sairang"},{"officename":"Mualkhang B.O","pincode":"796410","officetype":"B.O","deliverystatus":"Delivery","statename":"MIZORAM","regionname":"North Eastern","circlename":"North Eastern","divisionname":"Mizoram","Taluk":"Sairang"},{"officename":"Rawpuichhip B.O","pincode":"796410","officetype":"B.O","deliverystatus":"Delivery","statename":"MIZORAM","regionname":"North Eastern","circlename":"North Eastern","divisionname":"Mizoram","Taluk":"Sairang"},{"officename":"Ptc Lungverh B.O","pincode":"796410","officetype":"B.O","deliverystatus":"Delivery","statename":"MIZORAM","regionname":"North Eastern","circlename":"North Eastern","divisionname":"Mizoram","Taluk":"Tlangnuam (Part)"},{"officename":"Electric Veng B.O","pincode":"796007","officetype":"B.O","deliverystatus":"Non-Delivery","statename":"MIZORAM","regionname":"North Eastern","circlename":"North Eastern","divisionname":"Mizoram","Taluk":"Tlangnuam (Part)"},{"officename":"Diakkawn B.O","pincode":"796081","officetype":"B.O","deliverystatus":"Non-Delivery","statename":"MIZORAM","regionname":"North Eastern","circlename":"North Eastern","divisionname":"Mizoram","Taluk":"North Thingdawl"},{"officename":"Chandmary B.O","pincode":"796701","officetype":"B.O","deliverystatus":"Non-Delivery","statename":"MIZORAM","regionname":"North Eastern","circlename":"North Eastern","divisionname":"Mizoram","Taluk":"Lunglei"},{"officename":"Kikawn B.O","pincode":"796701","officetype":"B.O","deliverystatus":"Non-Delivery","statename":"MIZORAM","regionname":"North Eastern","circlename":"North Eastern","divisionname":"Mizoram","Taluk":"Lunglei"},{"officename":"Chaltlang B.O","pincode":"796012","officetype":"B.O","deliverystatus":"Non-Delivery","statename":"MIZORAM","regionname":"North Eastern","circlename":"North Eastern","divisionname":"Mizoram","Taluk":"Tlangnuam (Part)"},{"officename":"Dinthar B.O","pincode":"796009","officetype":"B.O","deliverystatus":"Non-Delivery","statename":"MIZORAM","regionname":"North Eastern","circlename":"North Eastern","divisionname":"Mizoram","Taluk":"Tlangnuam (Part)"},{"officename":"Buhchang B.O","pincode":"796091","officetype":"B.O","deliverystatus":"Delivery","statename":"MIZORAM","regionname":"North Eastern","circlename":"North Eastern","divisionname":"Mizoram","Taluk":"Bilkhawthlir"},{"officename":"Phaisen B.O","pincode":"796091","officetype":"B.O","deliverystatus":"Delivery","statename":"MIZORAM","regionname":"North Eastern","circlename":"North Eastern","divisionname":"Mizoram","Taluk":"Bilkhawthlir"},{"officename":"Kawnpui W B.O","pincode":"796701","officetype":"B.O","deliverystatus":"Delivery","statename":"MIZORAM","regionname":"North Eastern","circlename":"North Eastern","divisionname":"Mizoram","Taluk":"Bunghmun"},{"officename":"Darngawn W B.O","pincode":"796701","officetype":"B.O","deliverystatus":"Delivery","statename":"MIZORAM","regionname":"North Eastern","circlename":"North Eastern","divisionname":"Mizoram","Taluk":"West Bunghmun"},{"officename":"Tuithumhnar B.O","pincode":"796891","officetype":"B.O","deliverystatus":"Delivery","statename":"MIZORAM","regionname":"North Eastern","circlename":"North Eastern","divisionname":"Mizoram","Taluk":"Lawngtlai"},{"officename":"Vaseitlang B.O","pincode":"796891","officetype":"B.O","deliverystatus":"Delivery","statename":"MIZORAM","regionname":"North Eastern","circlename":"North Eastern","divisionname":"Mizoram","Taluk":"Lawngtlai"},{"officename":"Vathuampui B.O","pincode":"796891","officetype":"B.O","deliverystatus":"Delivery","statename":"MIZORAM","regionname":"North Eastern","circlename":"North Eastern","divisionname":"Mizoram","Taluk":"Lawngtlai"},{"officename":"Bualpui 'ng' B.O","pincode":"796901","officetype":"B.O","deliverystatus":"Delivery","statename":"MIZORAM","regionname":"North Eastern","circlename":"North Eastern","divisionname":"Mizoram","Taluk":"Tuipang"},{"officename":"Chakhang B.O","pincode":"796901","officetype":"B.O","deliverystatus":"Delivery","statename":"MIZORAM","regionname":"North Eastern","circlename":"North Eastern","divisionname":"Mizoram","Taluk":"Saiha"},{"officename":"Chapui B.O","pincode":"796901","officetype":"B.O","deliverystatus":"Delivery","statename":"MIZORAM","regionname":"North Eastern","circlename":"North Eastern","divisionname":"Mizoram","Taluk":"Saiha"},{"officename":"Chhuarlung B.O","pincode":"796901","officetype":"B.O","deliverystatus":"Delivery","statename":"MIZORAM","regionname":"North Eastern","circlename":"North Eastern","divisionname":"Mizoram","Taluk":"Saiha"},{"officename":"Fungkah B.O","pincode":"796901","officetype":"B.O","deliverystatus":"Delivery","statename":"MIZORAM","regionname":"North Eastern","circlename":"North Eastern","divisionname":"Mizoram","Taluk":"Saiha"},{"officename":"Lungbun B.O","pincode":"796901","officetype":"B.O","deliverystatus":"Delivery","statename":"MIZORAM","regionname":"North Eastern","circlename":"North Eastern","divisionname":"Mizoram","Taluk":"Saiha"},{"officename":"Lungpher 'S' B.O","pincode":"796901","officetype":"B.O","deliverystatus":"Delivery","statename":"MIZORAM","regionname":"North Eastern","circlename":"North Eastern","divisionname":"Mizoram","Taluk":"Saiha"},{"officename":"New Maubawk B.O","pincode":"796901","officetype":"B.O","deliverystatus":"Delivery","statename":"MIZORAM","regionname":"North Eastern","circlename":"North Eastern","divisionname":"Mizoram","Taluk":"Tuipang"},{"officename":"Niawhtlang B.O","pincode":"796901","officetype":"B.O","deliverystatus":"Delivery","statename":"MIZORAM","regionname":"North Eastern","circlename":"North Eastern","divisionname":"Mizoram","Taluk":"Siaha"},{"officename":"Rawmibawk B.O","pincode":"796901","officetype":"B.O","deliverystatus":"Delivery","statename":"MIZORAM","regionname":"North Eastern","circlename":"North Eastern","divisionname":"Mizoram","Taluk":"Saiha"},{"officename":"Siata B.O","pincode":"796901","officetype":"B.O","deliverystatus":"Delivery","statename":"MIZORAM","regionname":"North Eastern","circlename":"North Eastern","divisionname":"Mizoram","Taluk":"Siaha"},{"officename":"Theiva B.O","pincode":"796901","officetype":"B.O","deliverystatus":"Delivery","statename":"MIZORAM","regionname":"North Eastern","circlename":"North Eastern","divisionname":"Mizoram","Taluk":"Tuipang"},{"officename":"Tuipuiferry B.O","pincode":"796901","officetype":"B.O","deliverystatus":"Delivery","statename":"MIZORAM","regionname":"North Eastern","circlename":"North Eastern","divisionname":"Mizoram","Taluk":"Saiha"},{"officename":"Vawmbuk B.O","pincode":"796901","officetype":"B.O","deliverystatus":"Delivery","statename":"MIZORAM","regionname":"North Eastern","circlename":"North Eastern","divisionname":"Mizoram","Taluk":"Saiha"},{"officename":"Khopai B.O","pincode":"796901","officetype":"B.O","deliverystatus":"Delivery","statename":"MIZORAM","regionname":"North Eastern","circlename":"North Eastern","divisionname":"Mizoram","Taluk":"Tuipang"},{"officename":"Laki B.O","pincode":"796901","officetype":"B.O","deliverystatus":"Delivery","statename":"MIZORAM","regionname":"North Eastern","circlename":"North Eastern","divisionname":"Mizoram","Taluk":"Tuipang"},{"officename":"Latawh B.O","pincode":"796901","officetype":"B.O","deliverystatus":"Delivery","statename":"MIZORAM","regionname":"North Eastern","circlename":"North Eastern","divisionname":"Mizoram","Taluk":"Tuipang"},{"officename":"Ramthar B.O","pincode":"796007","officetype":"B.O","deliverystatus":"Delivery","statename":"MIZORAM","regionname":"North Eastern","circlename":"North Eastern","divisionname":"Mizoram","Taluk":"Tlangnuam (Part)"},{"officename":"Serkhan B.O","pincode":"796070","officetype":"B.O","deliverystatus":"Delivery","statename":"MIZORAM","regionname":"North Eastern","circlename":"North Eastern","divisionname":"Mizoram","Taluk":"Chandmary"},{"officename":"Thingthelh B.O","pincode":"796070","officetype":"B.O","deliverystatus":"Delivery","statename":"MIZORAM","regionname":"North Eastern","circlename":"North Eastern","divisionname":"Mizoram","Taluk":"Chandmary"},{"officename":"Tuithiang B.O","pincode":"796007","officetype":"B.O","deliverystatus":"Delivery","statename":"MIZORAM","regionname":"North Eastern","circlename":"North Eastern","divisionname":"Mizoram","Taluk":"Tlangnuam (Part)"},{"officename":"N.Hlimen B.O","pincode":"796070","officetype":"B.O","deliverystatus":"Delivery","statename":"MIZORAM","regionname":"North Eastern","circlename":"North Eastern","divisionname":"Mizoram","Taluk":"Chandmary"},{"officename":"Lungsum B.O","pincode":"796111","officetype":"B.O","deliverystatus":"Delivery","statename":"MIZORAM","regionname":"North Eastern","circlename":"North Eastern","divisionname":"Mizoram","Taluk":"Darlawn"},{"officename":"Mauchar B.O","pincode":"796111","officetype":"B.O","deliverystatus":"Delivery","statename":"MIZORAM","regionname":"North Eastern","circlename":"North Eastern","divisionname":"Mizoram","Taluk":"Darlawn"},{"officename":"N.Serzawl B.O","pincode":"796111","officetype":"B.O","deliverystatus":"Delivery","statename":"MIZORAM","regionname":"North Eastern","circlename":"North Eastern","divisionname":"Mizoram","Taluk":"Darlawn"},{"officename":"N.Tinghmun B.O","pincode":"796111","officetype":"B.O","deliverystatus":"Delivery","statename":"MIZORAM","regionname":"North Eastern","circlename":"North Eastern","divisionname":"Mizoram","Taluk":"Darlawn"},{"officename":"Palsang B.O","pincode":"796111","officetype":"B.O","deliverystatus":"Delivery","statename":"MIZORAM","regionname":"North Eastern","circlename":"North Eastern","divisionname":"Mizoram","Taluk":"Darlawn"},{"officename":"Ratu B.O","pincode":"796111","officetype":"B.O","deliverystatus":"Delivery","statename":"MIZORAM","regionname":"North Eastern","circlename":"North Eastern","divisionname":"Mizoram","Taluk":"Darlawn"},{"officename":"Sakawrdai B.O","pincode":"796111","officetype":"B.O","deliverystatus":"Delivery","statename":"MIZORAM","regionname":"North Eastern","circlename":"North Eastern","divisionname":"Mizoram","Taluk":"Darlawn"},{"officename":"Thingsat B.O","pincode":"796111","officetype":"B.O","deliverystatus":"Delivery","statename":"MIZORAM","regionname":"North Eastern","circlename":"North Eastern","divisionname":"Mizoram","Taluk":"Darlawn"},{"officename":"Vaitin B.O","pincode":"796111","officetype":"B.O","deliverystatus":"Delivery","statename":"MIZORAM","regionname":"North Eastern","circlename":"North Eastern","divisionname":"Mizoram","Taluk":"Darlawn"},{"officename":"Vervek B.O","pincode":"796111","officetype":"B.O","deliverystatus":"Delivery","statename":"MIZORAM","regionname":"North Eastern","circlename":"North Eastern","divisionname":"Mizoram","Taluk":"Darlawn"},{"officename":"Zohmun B.O","pincode":"796111","officetype":"B.O","deliverystatus":"Delivery","statename":"MIZORAM","regionname":"North Eastern","circlename":"North Eastern","divisionname":"Mizoram","Taluk":"Darlawn"},{"officename":"Sailutar B.O","pincode":"796111","officetype":"B.O","deliverystatus":"Delivery","statename":"MIZORAM","regionname":"North Eastern","circlename":"North Eastern","divisionname":"Mizoram","Taluk":"Darlawn"},{"officename":"Laisawral B.O","pincode":"796710","officetype":"B.O","deliverystatus":"Delivery","statename":"MIZORAM","regionname":"North Eastern","circlename":"North Eastern","divisionname":"Mizoram","Taluk":"Bunghmun"},{"officename":"Sachan B.O","pincode":"796701","officetype":"B.O","deliverystatus":"Delivery","statename":"MIZORAM","regionname":"North Eastern","circlename":"North Eastern","divisionname":"Mizoram","Taluk":"Bunghmun"},{"officename":"Sesawm B.O","pincode":"796701","officetype":"B.O","deliverystatus":"Delivery","statename":"MIZORAM","regionname":"North Eastern","circlename":"North Eastern","divisionname":"Mizoram","Taluk":"Bunghmun"},{"officename":"Ajasora B.O","pincode":"796770","officetype":"B.O","deliverystatus":"Delivery","statename":"MIZORAM","regionname":"North Eastern","circlename":"North Eastern","divisionname":"Mizoram","Taluk":"Chawngte"},{"officename":"Borapansury B.O","pincode":"796770","officetype":"B.O","deliverystatus":"Delivery","statename":"MIZORAM","regionname":"North Eastern","circlename":"North Eastern","divisionname":"Mizoram","Taluk":"Chawngte"},{"officename":"Jarulsury B.O","pincode":"796770","officetype":"B.O","deliverystatus":"Delivery","statename":"MIZORAM","regionname":"North Eastern","circlename":"North Eastern","divisionname":"Mizoram","Taluk":"Chawngte"},{"officename":"Saizawh B.O","pincode":"796770","officetype":"B.O","deliverystatus":"Delivery","statename":"MIZORAM","regionname":"North Eastern","circlename":"North Eastern","divisionname":"Mizoram","Taluk":"Lawngtlai"},{"officename":"Sumsilui B.O","pincode":"796770","officetype":"B.O","deliverystatus":"Delivery","statename":"MIZORAM","regionname":"North Eastern","circlename":"North Eastern","divisionname":"Mizoram","Taluk":"Chawngte"},{"officename":"Udaisury B.O","pincode":"796770","officetype":"B.O","deliverystatus":"Delivery","statename":"MIZORAM","regionname":"North Eastern","circlename":"North Eastern","divisionname":"Mizoram","Taluk":"Chawngte"},{"officename":"Udalthana B.O","pincode":"796770","officetype":"B.O","deliverystatus":"Delivery","statename":"MIZORAM","regionname":"North Eastern","circlename":"North Eastern","divisionname":"Mizoram","Taluk":"Chawngte"},{"officename":"Hmunhmeltha B.O","pincode":"796321","officetype":"B.O","deliverystatus":"Delivery","statename":"MIZORAM","regionname":"North Eastern","circlename":"North Eastern","divisionname":"Mizoram","Taluk":"Khawbung"},{"officename":"Hnahlan B.O","pincode":"796321","officetype":"B.O","deliverystatus":"Delivery","statename":"MIZORAM","regionname":"North Eastern","circlename":"North Eastern","divisionname":"Mizoram","Taluk":"Champhai"},{"officename":"Hruaikawn B.O","pincode":"796321","officetype":"B.O","deliverystatus":"Delivery","statename":"MIZORAM","regionname":"North Eastern","circlename":"North Eastern","divisionname":"Mizoram","Taluk":"Champhai"},{"officename":"Kelkang B.O","pincode":"796321","officetype":"B.O","deliverystatus":"Delivery","statename":"MIZORAM","regionname":"North Eastern","circlename":"North Eastern","divisionname":"Mizoram","Taluk":"Champhai"},{"officename":"N.Khawbung B.O","pincode":"796321","officetype":"B.O","deliverystatus":"Delivery","statename":"MIZORAM","regionname":"North Eastern","circlename":"North Eastern","divisionname":"Mizoram","Taluk":"Champhai"},{"officename":"Khuangleng B.O","pincode":"796321","officetype":"B.O","deliverystatus":"Delivery","statename":"MIZORAM","regionname":"North Eastern","circlename":"North Eastern","divisionname":"Mizoram","Taluk":"Champhai"},{"officename":"Khuangphah B.O","pincode":"796321","officetype":"B.O","deliverystatus":"Delivery","statename":"MIZORAM","regionname":"North Eastern","circlename":"North Eastern","divisionname":"Mizoram","Taluk":"Champhai"},{"officename":"Leisenzo B.O","pincode":"796321","officetype":"B.O","deliverystatus":"Delivery","statename":"MIZORAM","regionname":"North Eastern","circlename":"North Eastern","divisionname":"Mizoram","Taluk":"Champhai"},{"officename":"Lungphunlian B.O","pincode":"796321","officetype":"B.O","deliverystatus":"Delivery","statename":"MIZORAM","regionname":"North Eastern","circlename":"North Eastern","divisionname":"Mizoram","Taluk":"Champhai"},{"officename":"Murlen B.O","pincode":"796321","officetype":"B.O","deliverystatus":"Delivery","statename":"MIZORAM","regionname":"North Eastern","circlename":"North Eastern","divisionname":"Mizoram","Taluk":"Champhai"},{"officename":"Ngur B.O","pincode":"796321","officetype":"B.O","deliverystatus":"Delivery","statename":"MIZORAM","regionname":"North Eastern","circlename":"North Eastern","divisionname":"Mizoram","Taluk":"Champhai"},{"officename":"Ruantlang B.O","pincode":"796321","officetype":"B.O","deliverystatus":"Delivery","statename":"MIZORAM","regionname":"North Eastern","circlename":"North Eastern","divisionname":"Mizoram","Taluk":"Khawbung"},{"officename":"Sesih B.O","pincode":"796321","officetype":"B.O","deliverystatus":"Delivery","statename":"MIZORAM","regionname":"North Eastern","circlename":"North Eastern","divisionname":"Mizoram","Taluk":"Champhai"},{"officename":"S.Vanlaiphai B.O","pincode":"796571","officetype":"B.O","deliverystatus":"Delivery","statename":"MIZORAM","regionname":"North Eastern","circlename":"North Eastern","divisionname":"Mizoram","Taluk":"Hnahthial"},{"officename":"Tarpho B.O","pincode":"796571","officetype":"B.O","deliverystatus":"Delivery","statename":"MIZORAM","regionname":"North Eastern","circlename":"North Eastern","divisionname":"Mizoram","Taluk":"Hnahthial"},{"officename":"Thiltlang B.O","pincode":"796571","officetype":"B.O","deliverystatus":"Delivery","statename":"MIZORAM","regionname":"North Eastern","circlename":"North Eastern","divisionname":"Mizoram","Taluk":"Hnahthial"},{"officename":"Tuipui 'D' B.O","pincode":"796571","officetype":"B.O","deliverystatus":"Delivery","statename":"MIZORAM","regionname":"North Eastern","circlename":"North Eastern","divisionname":"Mizoram","Taluk":"Hnahthial"},{"officename":"Balhlakawn B.O","pincode":"796891","officetype":"B.O","deliverystatus":"Delivery","statename":"MIZORAM","regionname":"North Eastern","circlename":"North Eastern","divisionname":"Mizoram","Taluk":"Lawngtlai"},{"officename":"Bungtlang 'S' B.O","pincode":"796891","officetype":"B.O","deliverystatus":"Delivery","statename":"MIZORAM","regionname":"North Eastern","circlename":"North Eastern","divisionname":"Mizoram","Taluk":"Lawngtlai"},{"officename":"Chamdur B.O","pincode":"796891","officetype":"B.O","deliverystatus":"Delivery","statename":"MIZORAM","regionname":"North Eastern","circlename":"North Eastern","divisionname":"Mizoram","Taluk":"Lawngtlai"},{"officename":"Diltlang B.O","pincode":"796891","officetype":"B.O","deliverystatus":"Delivery","statename":"MIZORAM","regionname":"North Eastern","circlename":"North Eastern","divisionname":"Mizoram","Taluk":"Lawngtlai"},{"officename":"Kawlchaw 'W' B.O","pincode":"796891","officetype":"B.O","deliverystatus":"Delivery","statename":"MIZORAM","regionname":"North Eastern","circlename":"North Eastern","divisionname":"Mizoram","Taluk":"Lawngtlai"},{"officename":"Mampui B.O","pincode":"796891","officetype":"B.O","deliverystatus":"Delivery","statename":"MIZORAM","regionname":"North Eastern","circlename":"North Eastern","divisionname":"Mizoram","Taluk":"Lawngtlai"},{"officename":"Mualbukawn B.O","pincode":"796891","officetype":"B.O","deliverystatus":"Delivery","statename":"MIZORAM","regionname":"North Eastern","circlename":"North Eastern","divisionname":"Mizoram","Taluk":"Lawngtlai"},{"officename":"Ngengpuikai B.O","pincode":"796891","officetype":"B.O","deliverystatus":"Delivery","statename":"MIZORAM","regionname":"North Eastern","circlename":"North Eastern","divisionname":"Mizoram","Taluk":"Lawngtlai"},{"officename":"New Jagnasury B.O","pincode":"796891","officetype":"B.O","deliverystatus":"Delivery","statename":"MIZORAM","regionname":"North Eastern","circlename":"North Eastern","divisionname":"Mizoram","Taluk":"Lawngtlai"},{"officename":"Paithar B.O","pincode":"796891","officetype":"B.O","deliverystatus":"Delivery","statename":"MIZORAM","regionname":"North Eastern","circlename":"North Eastern","divisionname":"Mizoram","Taluk":"Lawngtlai"},{"officename":"Parva B.O","pincode":"796891","officetype":"B.O","deliverystatus":"Delivery","statename":"MIZORAM","regionname":"North Eastern","circlename":"North Eastern","divisionname":"Mizoram","Taluk":"Lawngtlai"},{"officename":"Rulkual B.O","pincode":"796891","officetype":"B.O","deliverystatus":"Delivery","statename":"MIZORAM","regionname":"North Eastern","circlename":"North Eastern","divisionname":"Mizoram","Taluk":"Lawngtlai"},{"officename":"Sabualtlang B.O","pincode":"796891","officetype":"B.O","deliverystatus":"Delivery","statename":"MIZORAM","regionname":"North Eastern","circlename":"North Eastern","divisionname":"Mizoram","Taluk":"Lawngtlai"},{"officename":"Tuisentlang B.O","pincode":"796891","officetype":"B.O","deliverystatus":"Delivery","statename":"MIZORAM","regionname":"North Eastern","circlename":"North Eastern","divisionname":"Mizoram","Taluk":"Lawngtlai"},{"officename":"Hmuifang B.O","pincode":"796190","officetype":"B.O","deliverystatus":"Delivery","statename":"MIZORAM","regionname":"North Eastern","circlename":"North Eastern","divisionname":"Mizoram","Taluk":"Aibawk"},{"officename":"Lamchhip B.O","pincode":"796190","officetype":"B.O","deliverystatus":"Delivery","statename":"MIZORAM","regionname":"North Eastern","circlename":"North Eastern","divisionname":"Mizoram","Taluk":"Aibawk"},{"officename":"Maubuang B.O","pincode":"796190","officetype":"B.O","deliverystatus":"Delivery","statename":"MIZORAM","regionname":"North Eastern","circlename":"North Eastern","divisionname":"Mizoram","Taluk":"Aibawk"},{"officename":"Phulpui B.O","pincode":"796190","officetype":"B.O","deliverystatus":"Delivery","statename":"MIZORAM","regionname":"North Eastern","circlename":"North Eastern","divisionname":"Mizoram","Taluk":"Aibawk"},{"officename":"Sailam B.O","pincode":"796190","officetype":"B.O","deliverystatus":"Delivery","statename":"MIZORAM","regionname":"North Eastern","circlename":"North Eastern","divisionname":"Mizoram","Taluk":"Aibawk"},{"officename":"Samlukhai B.O","pincode":"796190","officetype":"B.O","deliverystatus":"Delivery","statename":"MIZORAM","regionname":"North Eastern","circlename":"North Eastern","divisionname":"Mizoram","Taluk":"Aibawk"},{"officename":"Sateek B.O","pincode":"796190","officetype":"B.O","deliverystatus":"Delivery","statename":"MIZORAM","regionname":"North Eastern","circlename":"North Eastern","divisionname":"Mizoram","Taluk":"Aibawk"},{"officename":"Sumsuih B.O","pincode":"796190","officetype":"B.O","deliverystatus":"Delivery","statename":"MIZORAM","regionname":"North Eastern","circlename":"North Eastern","divisionname":"Mizoram","Taluk":"Aibawk"},{"officename":"Tachhip B.O","pincode":"796190","officetype":"B.O","deliverystatus":"Delivery","statename":"MIZORAM","regionname":"North Eastern","circlename":"North Eastern","divisionname":"Mizoram","Taluk":"Aibawk"},{"officename":"Thiak B.O","pincode":"796190","officetype":"B.O","deliverystatus":"Delivery","statename":"MIZORAM","regionname":"North Eastern","circlename":"North Eastern","divisionname":"Mizoram","Taluk":"Aibawk"},{"officename":"Muthi B.O","pincode":"796015","officetype":"B.O","deliverystatus":"Delivery","statename":"MIZORAM","regionname":"North Eastern","circlename":"North Eastern","divisionname":"Mizoram","Taluk":"Bawngkawn"},{"officename":"Zanlawn B.O","pincode":"796015","officetype":"B.O","deliverystatus":"Delivery","statename":"MIZORAM","regionname":"North Eastern","circlename":"North Eastern","divisionname":"Mizoram","Taluk":"Bawngkawn"},{"officename":"Lungdai B.O","pincode":"796015","officetype":"B.O","deliverystatus":"Delivery","statename":"MIZORAM","regionname":"North Eastern","circlename":"North Eastern","divisionname":"Mizoram","Taluk":"Bawngkawn"},{"officename":"Tualcheng B.O","pincode":"796321","officetype":"B.O","deliverystatus":"Delivery","statename":"MIZORAM","regionname":"North Eastern","circlename":"North Eastern","divisionname":"Mizoram","Taluk":"Champhai"},{"officename":"Vapar B.O","pincode":"796321","officetype":"B.O","deliverystatus":"Delivery","statename":"MIZORAM","regionname":"North Eastern","circlename":"North Eastern","divisionname":"Mizoram","Taluk":"Champhai"},{"officename":"Zote 'e' B.O","pincode":"796321","officetype":"B.O","deliverystatus":"Delivery","statename":"MIZORAM","regionname":"North Eastern","circlename":"North Eastern","divisionname":"Mizoram","Taluk":"Khawbung"},{"officename":"Khawnuam B.O","pincode":"796321","officetype":"B.O","deliverystatus":"Delivery","statename":"MIZORAM","regionname":"North Eastern","circlename":"North Eastern","divisionname":"Mizoram","Taluk":"Khawbung"},{"officename":"Maulkawi B.O","pincode":"796321","officetype":"B.O","deliverystatus":"Delivery","statename":"MIZORAM","regionname":"North Eastern","circlename":"North Eastern","divisionname":"Mizoram","Taluk":"Champhai"},{"officename":"Bethlehem B.O","pincode":"796007","officetype":"B.O","deliverystatus":"Delivery","statename":"MIZORAM","regionname":"North Eastern","circlename":"North Eastern","divisionname":"Mizoram","Taluk":"Tlangnuam (Part)"},{"officename":"Bukpui B.O","pincode":"796070","officetype":"B.O","deliverystatus":"Delivery","statename":"MIZORAM","regionname":"North Eastern","circlename":"North Eastern","divisionname":"Mizoram","Taluk":"Chandmary"},{"officename":"Lungmuat B.O","pincode":"796070","officetype":"B.O","deliverystatus":"Delivery","statename":"MIZORAM","regionname":"North Eastern","circlename":"North Eastern","divisionname":"Mizoram","Taluk":"Chandmary"},{"officename":"N.Chaltlang B.O","pincode":"796070","officetype":"B.O","deliverystatus":"Delivery","statename":"MIZORAM","regionname":"North Eastern","circlename":"North Eastern","divisionname":"Mizoram","Taluk":"Chandmary"},{"officename":"Nisapui B.O","pincode":"796070","officetype":"B.O","deliverystatus":"Delivery","statename":"MIZORAM","regionname":"North Eastern","circlename":"North Eastern","divisionname":"Mizoram","Taluk":"Chanmary"},{"officename":"Khawpuar B.O","pincode":"796111","officetype":"B.O","deliverystatus":"Delivery","statename":"MIZORAM","regionname":"North Eastern","circlename":"North Eastern","divisionname":"Mizoram","Taluk":"Darlawn"},{"officename":"Diblibagh B.O","pincode":"796751","officetype":"B.O","deliverystatus":"Delivery","statename":"MIZORAM","regionname":"North Eastern","circlename":"North Eastern","divisionname":"Mizoram","Taluk":"Demagiri"},{"officename":"Kajoisury B.O","pincode":"796751","officetype":"B.O","deliverystatus":"Delivery","statename":"MIZORAM","regionname":"North Eastern","circlename":"North Eastern","divisionname":"Mizoram","Taluk":"Demagiri"},{"officename":"Nunsury B.O","pincode":"796751","officetype":"B.O","deliverystatus":"Delivery","statename":"MIZORAM","regionname":"North Eastern","circlename":"North Eastern","divisionname":"Mizoram","Taluk":"Demagiri"},{"officename":"Puankhai B.O","pincode":"796751","officetype":"B.O","deliverystatus":"Delivery","statename":"MIZORAM","regionname":"North Eastern","circlename":"North Eastern","divisionname":"Mizoram","Taluk":"Demagiri"},{"officename":"S.Chawilung B.O","pincode":"796751","officetype":"B.O","deliverystatus":"Delivery","statename":"MIZORAM","regionname":"North Eastern","circlename":"North Eastern","divisionname":"Mizoram","Taluk":"Demagiri"},{"officename":"Tiperaghat B.O","pincode":"796751","officetype":"B.O","deliverystatus":"Delivery","statename":"MIZORAM","regionname":"North Eastern","circlename":"North Eastern","divisionname":"Mizoram","Taluk":"Demagiri"},{"officename":"Zodin B.O","pincode":"796751","officetype":"B.O","deliverystatus":"Delivery","statename":"MIZORAM","regionname":"North Eastern","circlename":"North Eastern","divisionname":"Mizoram","Taluk":"Lunglei"},{"officename":"Tuikawi B.O","pincode":"796751","officetype":"B.O","deliverystatus":"Delivery","statename":"MIZORAM","regionname":"North Eastern","circlename":"North Eastern","divisionname":"Mizoram","Taluk":"Lunglei"},{"officename":"Aithur B.O","pincode":"796571","officetype":"B.O","deliverystatus":"Delivery","statename":"MIZORAM","regionname":"North Eastern","circlename":"North Eastern","divisionname":"Mizoram","Taluk":"Hnahthial"},{"officename":"Chawngtui B.O","pincode":"796571","officetype":"B.O","deliverystatus":"Delivery","statename":"MIZORAM","regionname":"North Eastern","circlename":"North Eastern","divisionname":"Mizoram","Taluk":"Hnahthial"},{"officename":"Cherhlun B.O","pincode":"796571","officetype":"B.O","deliverystatus":"Delivery","statename":"MIZORAM","regionname":"North Eastern","circlename":"North Eastern","divisionname":"Mizoram","Taluk":"Hanhthial"},{"officename":"Darzo B.O","pincode":"796571","officetype":"B.O","deliverystatus":"Delivery","statename":"MIZORAM","regionname":"North Eastern","circlename":"North Eastern","divisionname":"Mizoram","Taluk":"Hnahthial"},{"officename":"Lungleng 's' B.O","pincode":"796571","officetype":"B.O","deliverystatus":"Delivery","statename":"MIZORAM","regionname":"North Eastern","circlename":"North Eastern","divisionname":"Mizoram","Taluk":"Hnahthial"},{"officename":"Leite B.O","pincode":"796571","officetype":"B.O","deliverystatus":"Delivery","statename":"MIZORAM","regionname":"North Eastern","circlename":"North Eastern","divisionname":"Mizoram","Taluk":"Hnahthial"},{"officename":"Muallianpui B.O","pincode":"796571","officetype":"B.O","deliverystatus":"Delivery","statename":"MIZORAM","regionname":"North Eastern","circlename":"North Eastern","divisionname":"Mizoram","Taluk":"Hnahthial"},{"officename":"Pangzawl B.O","pincode":"796571","officetype":"B.O","deliverystatus":"Delivery","statename":"MIZORAM","regionname":"North Eastern","circlename":"North Eastern","divisionname":"Mizoram","Taluk":"Hnahthial"},{"officename":"Rawpui B.O","pincode":"796571","officetype":"B.O","deliverystatus":"Delivery","statename":"MIZORAM","regionname":"North Eastern","circlename":"North Eastern","divisionname":"Mizoram","Taluk":"Hnahthial"},{"officename":"Lawngban B.O","pincode":"796901","officetype":"B.O","deliverystatus":"Delivery","statename":"MIZORAM","regionname":"North Eastern","circlename":"North Eastern","divisionname":"Mizoram","Taluk":"Tuipang"},{"officename":"Phura B.O","pincode":"796901","officetype":"B.O","deliverystatus":"Delivery","statename":"MIZORAM","regionname":"North Eastern","circlename":"North Eastern","divisionname":"Mizoram","Taluk":"Tuipang"}]