[{"officename":"Artc S.O","pincode":"797115","officetype":"S.O","deliverystatus":"Delivery","statename":"NAGALAND","regionname":"North Eastern","circlename":"North Eastern","divisionname":"Nagaland","Taluk":"Dimapur"},{"officename":"Champang S.O","pincode":"798603","officetype":"S.O","deliverystatus":"Delivery","statename":"NAGALAND","regionname":"North Eastern","circlename":"North Eastern","divisionname":"Nagaland","Taluk":"Mon"},{"officename":"Chantongia S.O","pincode":"798613","officetype":"S.O","deliverystatus":"Delivery","statename":"NAGALAND","regionname":"North Eastern","circlename":"North Eastern","divisionname":"Nagaland","Taluk":"Changtongya"},{"officename":"Chiechama S.O","pincode":"797105","officetype":"S.O","deliverystatus":"Delivery","statename":"NAGALAND","regionname":"North Eastern","circlename":"North Eastern","divisionname":"Nagaland","Taluk":"Kohima"},{"officename":"Chozuba S.O","pincode":"797104","officetype":"S.O","deliverystatus":"Delivery","statename":"NAGALAND","regionname":"North Eastern","circlename":"North Eastern","divisionname":"Nagaland","Taluk":"Phek"},{"officename":"Chuchuyimlang S.O","pincode":"798614","officetype":"S.O","deliverystatus":"Delivery","statename":"NAGALAND","regionname":"North Eastern","circlename":"North Eastern","divisionname":"Nagaland","Taluk":"Mokokchung"},{"officename":"Chumukedima S.O","pincode":"797103","officetype":"S.O","deliverystatus":"Delivery","statename":"NAGALAND","regionname":"North Eastern","circlename":"North Eastern","divisionname":"Nagaland","Taluk":"Dimapur"},{"officename":"Circular Road S.O","pincode":"797117","officetype":"S.O","deliverystatus":"Delivery","statename":"NAGALAND","regionname":"North Eastern","circlename":"North Eastern","divisionname":"Nagaland","Taluk":"Dimapur Sadar"},{"officename":"Dimapur S.O","pincode":"797112","officetype":"S.O","deliverystatus":"Delivery","statename":"NAGALAND","regionname":"North Eastern","circlename":"North Eastern","divisionname":"Nagaland","Taluk":"Dimapur"},{"officename":"Dimapur Bazar S.O","pincode":"797116","officetype":"S.O","deliverystatus":"Delivery","statename":"NAGALAND","regionname":"North Eastern","circlename":"North Eastern","divisionname":"Nagaland","Taluk":"Chumukedima"},{"officename":"Impur S.O","pincode":"798615","officetype":"S.O","deliverystatus":"Delivery","statename":"NAGALAND","regionname":"North Eastern","circlename":"North Eastern","divisionname":"Nagaland","Taluk":"Mokokchung"},{"officename":"Kiphire S.O","pincode":"798611","officetype":"S.O","deliverystatus":"Delivery","statename":"NAGALAND","regionname":"North Eastern","circlename":"North Eastern","divisionname":"Nagaland","Taluk":"Kiphire"},{"officename":"Kohima Village S.O","pincode":"797003","officetype":"S.O","deliverystatus":"Delivery","statename":"NAGALAND","regionname":"North Eastern","circlename":"North Eastern","divisionname":"Nagaland","Taluk":"Kohima"},{"officename":"Kohima Science College S.O","pincode":"797002","officetype":"S.O","deliverystatus":"Delivery","statename":"NAGALAND","regionname":"North Eastern","circlename":"North Eastern","divisionname":"Nagaland","Taluk":"Kohima"},{"officename":"Longkhim S.O","pincode":"798616","officetype":"S.O","deliverystatus":"Delivery","statename":"NAGALAND","regionname":"North Eastern","circlename":"North Eastern","divisionname":"Nagaland","Taluk":"Tuensang"},{"officename":"Longleng S.O","pincode":"798625","officetype":"S.O","deliverystatus":"Delivery","statename":"NAGALAND","regionname":"North Eastern","circlename":"North Eastern","divisionname":"Nagaland","Taluk":"Longleng"},{"officename":"Medziphema S.O","pincode":"797106","officetype":"S.O","deliverystatus":"Delivery","statename":"NAGALAND","regionname":"North Eastern","circlename":"North Eastern","divisionname":"Nagaland","Taluk":"Dimapur"},{"officename":"Meluri S.O","pincode":"797114","officetype":"S.O","deliverystatus":"Delivery","statename":"NAGALAND","regionname":"North Eastern","circlename":"North Eastern","divisionname":"Nagaland","Taluk":"Phek"},{"officename":"Mokokchung S.O","pincode":"798601","officetype":"S.O","deliverystatus":"Delivery","statename":"NAGALAND","regionname":"North Eastern","circlename":"North Eastern","divisionname":"Nagaland","Taluk":"Mokokchung"},{"officename":"Mon S.O","pincode":"798621","officetype":"S.O","deliverystatus":"Delivery","statename":"NAGALAND","regionname":"North Eastern","circlename":"North Eastern","divisionname":"Nagaland","Taluk":"Mon"},{"officename":"Mongkholemba S.O","pincode":"798604","officetype":"S.O","deliverystatus":"Delivery","statename":"NAGALAND","regionname":"North Eastern","circlename":"North Eastern","divisionname":"Nagaland","Taluk":"Mokokchung"},{"officename":"Naginimora S.O","pincode":"798622","officetype":"S.O","deliverystatus":"Delivery","statename":"NAGALAND","regionname":"North Eastern","circlename":"North Eastern","divisionname":"Nagaland","Taluk":"Mon"},{"officename":"New Nepaligaon S.O","pincode":"797113","officetype":"S.O","deliverystatus":"Delivery","statename":"NAGALAND","regionname":"North Eastern","circlename":"North Eastern","divisionname":"Nagaland","Taluk":"Dimapur Sadar"},{"officename":"New Sectt Complex S.O","pincode":"797004","officetype":"S.O","deliverystatus":"Delivery","statename":"NAGALAND","regionname":"North Eastern","circlename":"North Eastern","divisionname":"Nagaland","Taluk":"Kohima Sadar"},{"officename":"Tzudikong S.O","pincode":"798623","officetype":"S.O","deliverystatus":"Delivery","statename":"NAGALAND","regionname":"North Eastern","circlename":"North Eastern","divisionname":"Nagaland","Taluk":"Tuli"},{"officename":"Peren S.O","pincode":"797101","officetype":"S.O","deliverystatus":"Delivery","statename":"NAGALAND","regionname":"North Eastern","circlename":"North Eastern","divisionname":"Nagaland","Taluk":"Peren"},{"officename":"Pfutsero S.O","pincode":"797107","officetype":"S.O","deliverystatus":"Delivery","statename":"NAGALAND","regionname":"North Eastern","circlename":"North Eastern","divisionname":"Nagaland","Taluk":"Phek"},{"officename":"Phek S.O","pincode":"797108","officetype":"S.O","deliverystatus":"Delivery","statename":"NAGALAND","regionname":"North Eastern","circlename":"North Eastern","divisionname":"Nagaland","Taluk":"Phek"},{"officename":"Tizit S.O","pincode":"798602","officetype":"S.O","deliverystatus":"Delivery","statename":"NAGALAND","regionname":"North Eastern","circlename":"North Eastern","divisionname":"Nagaland","Taluk":"Mon"},{"officename":"Tseminyu S.O","pincode":"797109","officetype":"S.O","deliverystatus":"Delivery","statename":"NAGALAND","regionname":"North Eastern","circlename":"North Eastern","divisionname":"Nagaland","Taluk":"Kohima"},{"officename":"Tuensang S.O","pincode":"798612","officetype":"S.O","deliverystatus":"Delivery","statename":"NAGALAND","regionname":"North Eastern","circlename":"North Eastern","divisionname":"Nagaland","Taluk":"Tuensang"},{"officename":"Tuli S.O","pincode":"798618","officetype":"S.O","deliverystatus":"Delivery","statename":"NAGALAND","regionname":"North Eastern","circlename":"North Eastern","divisionname":"Nagaland","Taluk":"Mokokchung"},{"officename":"Wokha S.O","pincode":"797111","officetype":"S.O","deliverystatus":"Delivery","statename":"NAGALAND","regionname":"North Eastern","circlename":"North Eastern","divisionname":"Nagaland","Taluk":"Wokha"},{"officename":"Zalukie S.O","pincode":"797110","officetype":"S.O","deliverystatus":"Delivery","statename":"NAGALAND","regionname":"North Eastern","circlename":"North Eastern","divisionname":"Nagaland","Taluk":"Peren"},{"officename":"Zunheboto S.O","pincode":"798620","officetype":"S.O","deliverystatus":"Delivery","statename":"NAGALAND","regionname":"North Eastern","circlename":"North Eastern","divisionname":"Nagaland","Taluk":"Zunheboto"},{"officename":"Alichen S.O","pincode":"798607","officetype":"S.O","deliverystatus":"Delivery","statename":"NAGALAND","regionname":"North Eastern","circlename":"North Eastern","divisionname":"Nagaland","Taluk":"Mokokchung"},{"officename":"Lumami S.O","pincode":"798627","officetype":"S.O","deliverystatus":"Delivery","statename":"NAGALAND","regionname":"North Eastern","circlename":"North Eastern","divisionname":"Nagaland","Taluk":"Akuluto"},{"officename":"P.R Hill S.O","pincode":"797120","officetype":"S.O","deliverystatus":"Delivery","statename":"NAGALAND","regionname":"North Eastern","circlename":"North Eastern","divisionname":"Nagaland","Taluk":"kohima"},{"officename":"Bhandari S.O","pincode":"797099","officetype":"S.O","deliverystatus":"Delivery","statename":"NAGALAND","regionname":"North Eastern","circlename":"North Eastern","divisionname":"Nagaland","Taluk":"Bhandari"},{"officename":"Jakhama S.O","pincode":"797006","officetype":"S.O","deliverystatus":"Delivery","statename":"NAGALAND","regionname":"North Eastern","circlename":"North Eastern","divisionname":"Nagaland","Taluk":"Kohima"},{"officename":"Signal Village","pincode":"797118","officetype":"S.O","deliverystatus":"Delivery","statename":"NAGALAND","regionname":"North Eastern","circlename":"North Eastern","divisionname":"Nagaland","Taluk":"Dimapur"},{"officename":"Kohima H.O","pincode":"797001","officetype":"H.O","deliverystatus":"Delivery","statename":"NAGALAND","regionname":"North Eastern","circlename":"North Eastern","divisionname":"Nagaland","Taluk":"Kohima"},{"officename":"Akuluto B.O","pincode":"798627","officetype":"B.O","deliverystatus":"Delivery","statename":"NAGALAND","regionname":"North Eastern","circlename":"North Eastern","divisionname":"Nagaland","Taluk":"Akuluto"},{"officename":"Ongpangkong B.O","pincode":"798601","officetype":"B.O","deliverystatus":"Delivery","statename":"NAGALAND","regionname":"North Eastern","circlename":"North Eastern","divisionname":"Nagaland","Taluk":"Mokokchung"},{"officename":"Meriema B.O","pincode":"797004","officetype":"B.O","deliverystatus":"Delivery","statename":"NAGALAND","regionname":"North Eastern","circlename":"North Eastern","divisionname":"Nagaland","Taluk":"Kohima Sadar"},{"officename":"Chizami Town B.O","pincode":"797107","officetype":"B.O","deliverystatus":"Delivery","statename":"NAGALAND","regionname":"North Eastern","circlename":"North Eastern","divisionname":"Nagaland","Taluk":"Phek"},{"officename":"Noklak B.O","pincode":"798612","officetype":"B.O","deliverystatus":"Delivery","statename":"NAGALAND","regionname":"North Eastern","circlename":"North Eastern","divisionname":"Nagaland","Taluk":"Tuensang"},{"officename":"Doyang B.O","pincode":"797111","officetype":"B.O","deliverystatus":"Delivery","statename":"NAGALAND","regionname":"North Eastern","circlename":"North Eastern","divisionname":"Nagaland","Taluk":"Wokha"},{"officename":"Golaghat B.O","pincode":"797117","officetype":"B.O","deliverystatus":"Delivery","statename":"NAGALAND","regionname":"North Eastern","circlename":"North Eastern","divisionname":"Nagaland","Taluk":"Dimapur Sadar"},{"officename":"D C Complex B.O","pincode":"797113","officetype":"B.O","deliverystatus":"Delivery","statename":"NAGALAND","regionname":"North Eastern","circlename":"North Eastern","divisionname":"Nagaland","Taluk":"Dimapur Sadar"},{"officename":"Ikishe B.O","pincode":"797115","officetype":"B.O","deliverystatus":"Delivery","statename":"NAGALAND","regionname":"North Eastern","circlename":"North Eastern","divisionname":"Nagaland","Taluk":"Dimapur"},{"officename":"Seluophe B.O","pincode":"797116","officetype":"B.O","deliverystatus":"Delivery","statename":"NAGALAND","regionname":"North Eastern","circlename":"North Eastern","divisionname":"Nagaland","Taluk":"Dimapur"},{"officename":"Seluophe B.O","pincode":"797112","officetype":"B.O","deliverystatus":"Delivery","statename":"NAGALAND","regionname":"North Eastern","circlename":"North Eastern","divisionname":"Nagaland","Taluk":"Dimapur"},{"officename":"Bhumnyu B.O","pincode":"798625","officetype":"B.O","deliverystatus":"Delivery","statename":"NAGALAND","regionname":"North Eastern","circlename":"North Eastern","divisionname":"Nagaland","Taluk":"Longleng"},{"officename":"Akuhaito B.O","pincode":"798620","officetype":"B.O","deliverystatus":"Delivery","statename":"NAGALAND","regionname":"North Eastern","circlename":"North Eastern","divisionname":"Nagaland","Taluk":"Atoizu"},{"officename":"Atoizu B.O","pincode":"798620","officetype":"B.O","deliverystatus":"Delivery","statename":"NAGALAND","regionname":"North Eastern","circlename":"North Eastern","divisionname":"Nagaland","Taluk":"Atoizu"},{"officename":"Ghathashi B.O","pincode":"797109","officetype":"B.O","deliverystatus":"Delivery","statename":"NAGALAND","regionname":"North Eastern","circlename":"North Eastern","divisionname":"Nagaland","Taluk":"Ghathashi"},{"officename":"Sungro B.O","pincode":"797111","officetype":"B.O","deliverystatus":"Delivery","statename":"NAGALAND","regionname":"North Eastern","circlename":"North Eastern","divisionname":"Nagaland","Taluk":"Wokha"},{"officename":"Zhavame B.O","pincode":"797107","officetype":"B.O","deliverystatus":"Delivery","statename":"NAGALAND","regionname":"North Eastern","circlename":"North Eastern","divisionname":"Nagaland","Taluk":"Pfutsero"},{"officename":"Pangti B.O","pincode":"797111","officetype":"B.O","deliverystatus":"Delivery","statename":"NAGALAND","regionname":"North Eastern","circlename":"North Eastern","divisionname":"Nagaland","Taluk":"Wokha"},{"officename":"Phangsang B.O","pincode":"798614","officetype":"B.O","deliverystatus":"Delivery","statename":"NAGALAND","regionname":"North Eastern","circlename":"North Eastern","divisionname":"Nagaland","Taluk":"Chuchuyimlang"},{"officename":"Jalukiekam B.O","pincode":"797112","officetype":"B.O","deliverystatus":"Delivery","statename":"NAGALAND","regionname":"North Eastern","circlename":"North Eastern","divisionname":"Nagaland","Taluk":"Dimapur Mdg"},{"officename":"Longchang B.O","pincode":"798615","officetype":"B.O","deliverystatus":"Delivery","statename":"NAGALAND","regionname":"North Eastern","circlename":"North Eastern","divisionname":"Nagaland","Taluk":"Impur"},{"officename":"Yangpi B.O","pincode":"798612","officetype":"B.O","deliverystatus":"Delivery","statename":"NAGALAND","regionname":"North Eastern","circlename":"North Eastern","divisionname":"Nagaland","Taluk":"Tuensang"},{"officename":"Chare B.O","pincode":"798601","officetype":"B.O","deliverystatus":"Delivery","statename":"NAGALAND","regionname":"North Eastern","circlename":"North Eastern","divisionname":"Nagaland","Taluk":"Mokokchung"},{"officename":"Longchem B.O","pincode":"798604","officetype":"B.O","deliverystatus":"Delivery","statename":"NAGALAND","regionname":"North Eastern","circlename":"North Eastern","divisionname":"Nagaland","Taluk":"Mongkholemba"},{"officename":"Mesolumi B.O","pincode":"797107","officetype":"B.O","deliverystatus":"Delivery","statename":"NAGALAND","regionname":"North Eastern","circlename":"North Eastern","divisionname":"Nagaland","Taluk":"Pfutsero"},{"officename":"Tsosesunyu B.O","pincode":"797109","officetype":"B.O","deliverystatus":"Delivery","statename":"NAGALAND","regionname":"North Eastern","circlename":"North Eastern","divisionname":"Nagaland","Taluk":"Tseminyu"},{"officename":"N. Longidong B.O","pincode":"797111","officetype":"B.O","deliverystatus":"Delivery","statename":"NAGALAND","regionname":"North Eastern","circlename":"North Eastern","divisionname":"Nagaland","Taluk":"Wokha"},{"officename":"Surumi B.O","pincode":"798620","officetype":"B.O","deliverystatus":"Delivery","statename":"NAGALAND","regionname":"North Eastern","circlename":"North Eastern","divisionname":"Nagaland","Taluk":"Zunheboto"},{"officename":"Chungtia B.O","pincode":"798601","officetype":"B.O","deliverystatus":"Delivery","statename":"NAGALAND","regionname":"North Eastern","circlename":"North Eastern","divisionname":"Nagaland","Taluk":"Mokokchung"},{"officename":"Fazl Ali College B.O","pincode":"798601","officetype":"B.O","deliverystatus":"Delivery","statename":"NAGALAND","regionname":"North Eastern","circlename":"North Eastern","divisionname":"Nagaland","Taluk":"Ongpangkong"},{"officename":"Longkhum B.O","pincode":"798601","officetype":"B.O","deliverystatus":"Delivery","statename":"NAGALAND","regionname":"North Eastern","circlename":"North Eastern","divisionname":"Nagaland","Taluk":"Mokokchung"},{"officename":"Longmisa B.O","pincode":"798601","officetype":"B.O","deliverystatus":"Delivery","statename":"NAGALAND","regionname":"North Eastern","circlename":"North Eastern","divisionname":"Nagaland","Taluk":"Mokokchung"},{"officename":"Kubza B.O","pincode":"798601","officetype":"B.O","deliverystatus":"Delivery","statename":"NAGALAND","regionname":"North Eastern","circlename":"North Eastern","divisionname":"Nagaland","Taluk":"Mokokchung"},{"officename":"Longsa B.O","pincode":"798601","officetype":"B.O","deliverystatus":"Delivery","statename":"NAGALAND","regionname":"North Eastern","circlename":"North Eastern","divisionname":"Nagaland","Taluk":"Mokokchung"},{"officename":"Mangmentong B.O","pincode":"798601","officetype":"B.O","deliverystatus":"Delivery","statename":"NAGALAND","regionname":"North Eastern","circlename":"North Eastern","divisionname":"Nagaland","Taluk":"Mokokchung"},{"officename":"Nst Colony B.O","pincode":"798601","officetype":"B.O","deliverystatus":"Delivery","statename":"NAGALAND","regionname":"North Eastern","circlename":"North Eastern","divisionname":"Nagaland","Taluk":"Mokokchung"},{"officename":"S. E. Colony B.O","pincode":"798601","officetype":"B.O","deliverystatus":"Delivery","statename":"NAGALAND","regionname":"North Eastern","circlename":"North Eastern","divisionname":"Nagaland","Taluk":"Mokokchung"},{"officename":"Tronger B.O","pincode":"798601","officetype":"B.O","deliverystatus":"Delivery","statename":"NAGALAND","regionname":"North Eastern","circlename":"North Eastern","divisionname":"Nagaland","Taluk":"Mokokchung"},{"officename":"Ungma B.O","pincode":"798601","officetype":"B.O","deliverystatus":"Delivery","statename":"NAGALAND","regionname":"North Eastern","circlename":"North Eastern","divisionname":"Nagaland","Taluk":"Mokokchung"},{"officename":"V. K. Town B.O","pincode":"798601","officetype":"B.O","deliverystatus":"Delivery","statename":"NAGALAND","regionname":"North Eastern","circlename":"North Eastern","divisionname":"Nagaland","Taluk":"Mokokchung"},{"officename":"Chui B.O","pincode":"798621","officetype":"B.O","deliverystatus":"Delivery","statename":"NAGALAND","regionname":"North Eastern","circlename":"North Eastern","divisionname":"Nagaland","Taluk":"Mon"},{"officename":"Longpong Senghe B.O","pincode":"798621","officetype":"B.O","deliverystatus":"Delivery","statename":"NAGALAND","regionname":"North Eastern","circlename":"North Eastern","divisionname":"Nagaland","Taluk":"Mon"},{"officename":"Longwa B.O","pincode":"798621","officetype":"B.O","deliverystatus":"Delivery","statename":"NAGALAND","regionname":"North Eastern","circlename":"North Eastern","divisionname":"Nagaland","Taluk":"Mon"},{"officename":"Pongkong B.O","pincode":"798621","officetype":"B.O","deliverystatus":"Delivery","statename":"NAGALAND","regionname":"North Eastern","circlename":"North Eastern","divisionname":"Nagaland","Taluk":"Mon"},{"officename":"Singha Chingnyu B.O","pincode":"798621","officetype":"B.O","deliverystatus":"Delivery","statename":"NAGALAND","regionname":"North Eastern","circlename":"North Eastern","divisionname":"Nagaland","Taluk":"Mon"},{"officename":"Tang B.O","pincode":"798621","officetype":"B.O","deliverystatus":"Delivery","statename":"NAGALAND","regionname":"North Eastern","circlename":"North Eastern","divisionname":"Nagaland","Taluk":"Mon"},{"officename":"Totak B.O","pincode":"798621","officetype":"B.O","deliverystatus":"Delivery","statename":"NAGALAND","regionname":"North Eastern","circlename":"North Eastern","divisionname":"Nagaland","Taluk":"Mon"},{"officename":"Waunching B.O","pincode":"798621","officetype":"B.O","deliverystatus":"Delivery","statename":"NAGALAND","regionname":"North Eastern","circlename":"North Eastern","divisionname":"Nagaland","Taluk":"Mon"},{"officename":"Alungkima B.O","pincode":"798604","officetype":"B.O","deliverystatus":"Delivery","statename":"NAGALAND","regionname":"North Eastern","circlename":"North Eastern","divisionname":"Nagaland","Taluk":"Mongkholemba"},{"officename":"Alungtaki B.O","pincode":"798604","officetype":"B.O","deliverystatus":"Delivery","statename":"NAGALAND","regionname":"North Eastern","circlename":"North Eastern","divisionname":"Nagaland","Taluk":"Mongkholemba"},{"officename":"Chungtia Yimsen B.O","pincode":"798604","officetype":"B.O","deliverystatus":"Delivery","statename":"NAGALAND","regionname":"North Eastern","circlename":"North Eastern","divisionname":"Nagaland","Taluk":"Mongkholemba"},{"officename":"Khari B.O","pincode":"798604","officetype":"B.O","deliverystatus":"Delivery","statename":"NAGALAND","regionname":"North Eastern","circlename":"North Eastern","divisionname":"Nagaland","Taluk":"Mongkholemba"},{"officename":"Longnak B.O","pincode":"798604","officetype":"B.O","deliverystatus":"Delivery","statename":"NAGALAND","regionname":"North Eastern","circlename":"North Eastern","divisionname":"Nagaland","Taluk":"Mongkholemba"},{"officename":"Mongchen B.O","pincode":"798604","officetype":"B.O","deliverystatus":"Delivery","statename":"NAGALAND","regionname":"North Eastern","circlename":"North Eastern","divisionname":"Nagaland","Taluk":"Mongkholemba"},{"officename":"Waromung B.O","pincode":"798604","officetype":"B.O","deliverystatus":"Delivery","statename":"NAGALAND","regionname":"North Eastern","circlename":"North Eastern","divisionname":"Nagaland","Taluk":"Mongkholemba"},{"officename":"Baranamsang B.O","pincode":"798622","officetype":"B.O","deliverystatus":"Delivery","statename":"NAGALAND","regionname":"North Eastern","circlename":"North Eastern","divisionname":"Nagaland","Taluk":"Naginimora"},{"officename":"Kongon B.O","pincode":"798622","officetype":"B.O","deliverystatus":"Delivery","statename":"NAGALAND","regionname":"North Eastern","circlename":"North Eastern","divisionname":"Nagaland","Taluk":"Naginimora"},{"officename":"Wakching B.O","pincode":"798621","officetype":"B.O","deliverystatus":"Delivery","statename":"NAGALAND","regionname":"North Eastern","circlename":"North Eastern","divisionname":"Nagaland","Taluk":"Naginimora"},{"officename":"Duncan Basti B.O","pincode":"797113","officetype":"B.O","deliverystatus":"Non-Delivery","statename":"NAGALAND","regionname":"North Eastern","circlename":"North Eastern","divisionname":"Nagaland","Taluk":"Dimapur Sadar"},{"officename":"Industrial Estate B.O","pincode":"797113","officetype":"B.O","deliverystatus":"Delivery","statename":"NAGALAND","regionname":"North Eastern","circlename":"North Eastern","divisionname":"Nagaland","Taluk":"New Nepaligaon"},{"officename":"Lengrijan B.O","pincode":"797113","officetype":"B.O","deliverystatus":"Delivery","statename":"NAGALAND","regionname":"North Eastern","circlename":"North Eastern","divisionname":"Nagaland","Taluk":"Dimapur Sadar"},{"officename":"Thizama B.O","pincode":"797004","officetype":"B.O","deliverystatus":"Delivery","statename":"NAGALAND","regionname":"North Eastern","circlename":"North Eastern","divisionname":"Nagaland","Taluk":"New Sectt. Complex"},{"officename":"Nokhu B.O","pincode":"798612","officetype":"B.O","deliverystatus":"Delivery","statename":"NAGALAND","regionname":"North Eastern","circlename":"North Eastern","divisionname":"Nagaland","Taluk":"Noklak"},{"officename":"Pangsha B.O","pincode":"798612","officetype":"B.O","deliverystatus":"Delivery","statename":"NAGALAND","regionname":"North Eastern","circlename":"North Eastern","divisionname":"Nagaland","Taluk":"Noklak"},{"officename":"Pessu B.O","pincode":"798612","officetype":"B.O","deliverystatus":"Delivery","statename":"NAGALAND","regionname":"North Eastern","circlename":"North Eastern","divisionname":"Nagaland","Taluk":"Noklak"},{"officename":"Sanglao B.O","pincode":"798612","officetype":"B.O","deliverystatus":"Delivery","statename":"NAGALAND","regionname":"North Eastern","circlename":"North Eastern","divisionname":"Nagaland","Taluk":"Noklak"},{"officename":"Choklangan B.O","pincode":"798612","officetype":"B.O","deliverystatus":"Delivery","statename":"NAGALAND","regionname":"North Eastern","circlename":"North Eastern","divisionname":"Nagaland","Taluk":"Noklak"},{"officename":"Khensa B.O","pincode":"798601","officetype":"B.O","deliverystatus":"Delivery","statename":"NAGALAND","regionname":"North Eastern","circlename":"North Eastern","divisionname":"Nagaland","Taluk":"Ongpang Kong"},{"officename":"Mbaulwa B.O","pincode":"797101","officetype":"B.O","deliverystatus":"Delivery","statename":"NAGALAND","regionname":"North Eastern","circlename":"North Eastern","divisionname":"Nagaland","Taluk":"Peren"},{"officename":"N.Song B.O","pincode":"797101","officetype":"B.O","deliverystatus":"Delivery","statename":"NAGALAND","regionname":"North Eastern","circlename":"North Eastern","divisionname":"Nagaland","Taluk":"Peren"},{"officename":"Nchongram B.O","pincode":"797101","officetype":"B.O","deliverystatus":"Delivery","statename":"NAGALAND","regionname":"North Eastern","circlename":"North Eastern","divisionname":"Nagaland","Taluk":"Peren"},{"officename":"Tening B.O","pincode":"797101","officetype":"B.O","deliverystatus":"Delivery","statename":"NAGALAND","regionname":"North Eastern","circlename":"North Eastern","divisionname":"Nagaland","Taluk":"Peren"},{"officename":"Khezhakeno B.O","pincode":"797107","officetype":"B.O","deliverystatus":"Delivery","statename":"NAGALAND","regionname":"North Eastern","circlename":"North Eastern","divisionname":"Nagaland","Taluk":"Pfutsero"},{"officename":"Kikruma B.O","pincode":"797107","officetype":"B.O","deliverystatus":"Delivery","statename":"NAGALAND","regionname":"North Eastern","circlename":"North Eastern","divisionname":"Nagaland","Taluk":"Pfutsero"},{"officename":"Phesachuduma B.O","pincode":"797107","officetype":"B.O","deliverystatus":"Delivery","statename":"NAGALAND","regionname":"North Eastern","circlename":"North Eastern","divisionname":"Nagaland","Taluk":"Pfutsero"},{"officename":"Porba B.O","pincode":"797107","officetype":"B.O","deliverystatus":"Delivery","statename":"NAGALAND","regionname":"North Eastern","circlename":"North Eastern","divisionname":"Nagaland","Taluk":"Pfutsero"},{"officename":"Sakraba B.O","pincode":"797107","officetype":"B.O","deliverystatus":"Delivery","statename":"NAGALAND","regionname":"North Eastern","circlename":"North Eastern","divisionname":"Nagaland","Taluk":"Pfutsero"},{"officename":"Thipuzumi B.O","pincode":"797107","officetype":"B.O","deliverystatus":"Delivery","statename":"NAGALAND","regionname":"North Eastern","circlename":"North Eastern","divisionname":"Nagaland","Taluk":"Pfutsero"},{"officename":"Tekhouba B.O","pincode":"797107","officetype":"B.O","deliverystatus":"Delivery","statename":"NAGALAND","regionname":"North Eastern","circlename":"North Eastern","divisionname":"Nagaland","Taluk":"Pfutsero"},{"officename":"Zuketsa B.O","pincode":"797107","officetype":"B.O","deliverystatus":"Delivery","statename":"NAGALAND","regionname":"North Eastern","circlename":"North Eastern","divisionname":"Nagaland","Taluk":"Pfutsero"},{"officename":"Ketsapo B.O","pincode":"797108","officetype":"B.O","deliverystatus":"Delivery","statename":"NAGALAND","regionname":"North Eastern","circlename":"North Eastern","divisionname":"Nagaland","Taluk":"Phek"},{"officename":"Khuzami B.O","pincode":"797108","officetype":"B.O","deliverystatus":"Delivery","statename":"NAGALAND","regionname":"North Eastern","circlename":"North Eastern","divisionname":"Nagaland","Taluk":"Phek Sadar"},{"officename":"Losami B.O","pincode":"797108","officetype":"B.O","deliverystatus":"Delivery","statename":"NAGALAND","regionname":"North Eastern","circlename":"North Eastern","divisionname":"Nagaland","Taluk":"Phek"},{"officename":"Lozaphema B.O","pincode":"797108","officetype":"B.O","deliverystatus":"Delivery","statename":"NAGALAND","regionname":"North Eastern","circlename":"North Eastern","divisionname":"Nagaland","Taluk":"Phek Sadar"},{"officename":"Old Phek B.O","pincode":"797108","officetype":"B.O","deliverystatus":"Delivery","statename":"NAGALAND","regionname":"North Eastern","circlename":"North Eastern","divisionname":"Nagaland","Taluk":"Phek"},{"officename":"Namsa B.O","pincode":"798602","officetype":"B.O","deliverystatus":"Delivery","statename":"NAGALAND","regionname":"North Eastern","circlename":"North Eastern","divisionname":"Nagaland","Taluk":"Tizit"},{"officename":"Yannu B.O","pincode":"798602","officetype":"B.O","deliverystatus":"Delivery","statename":"NAGALAND","regionname":"North Eastern","circlename":"North Eastern","divisionname":"Nagaland","Taluk":"Tizit"},{"officename":"Zaboka B.O","pincode":"798602","officetype":"B.O","deliverystatus":"Delivery","statename":"NAGALAND","regionname":"North Eastern","circlename":"North Eastern","divisionname":"Nagaland","Taluk":"Tizit"},{"officename":"Zangkham B.O","pincode":"798602","officetype":"B.O","deliverystatus":"Delivery","statename":"NAGALAND","regionname":"North Eastern","circlename":"North Eastern","divisionname":"Nagaland","Taluk":"Tizit"},{"officename":"Asukika B.O","pincode":"797109","officetype":"B.O","deliverystatus":"Delivery","statename":"NAGALAND","regionname":"North Eastern","circlename":"North Eastern","divisionname":"Nagaland","Taluk":"Tseminyu"},{"officename":"Kandinu B.O","pincode":"797109","officetype":"B.O","deliverystatus":"Delivery","statename":"NAGALAND","regionname":"North Eastern","circlename":"North Eastern","divisionname":"Nagaland","Taluk":"Tseminyu"},{"officename":"Lazami B.O","pincode":"797109","officetype":"B.O","deliverystatus":"Delivery","statename":"NAGALAND","regionname":"North Eastern","circlename":"North Eastern","divisionname":"Nagaland","Taluk":"Tseminyu"},{"officename":"Nisenyu B.O","pincode":"797109","officetype":"B.O","deliverystatus":"Delivery","statename":"NAGALAND","regionname":"North Eastern","circlename":"North Eastern","divisionname":"Nagaland","Taluk":"Tseminyu"},{"officename":"Ehunnu B.O","pincode":"797109","officetype":"B.O","deliverystatus":"Delivery","statename":"NAGALAND","regionname":"North Eastern","circlename":"North Eastern","divisionname":"Nagaland","Taluk":"Tseminyu"},{"officename":"Phenshunyu B.O","pincode":"797109","officetype":"B.O","deliverystatus":"Delivery","statename":"NAGALAND","regionname":"North Eastern","circlename":"North Eastern","divisionname":"Nagaland","Taluk":"Tseminyu"},{"officename":"Phenwhenyu B.O","pincode":"797109","officetype":"B.O","deliverystatus":"Delivery","statename":"NAGALAND","regionname":"North Eastern","circlename":"North Eastern","divisionname":"Nagaland","Taluk":"Tseminyu"},{"officename":"Sendenyu B.O","pincode":"797109","officetype":"B.O","deliverystatus":"Delivery","statename":"NAGALAND","regionname":"North Eastern","circlename":"North Eastern","divisionname":"Nagaland","Taluk":"Tseminyu"},{"officename":"Tesophenyu B.O","pincode":"797109","officetype":"B.O","deliverystatus":"Delivery","statename":"NAGALAND","regionname":"North Eastern","circlename":"North Eastern","divisionname":"Nagaland","Taluk":"Tseminyu"},{"officename":"Tseminyu Old Town B.O","pincode":"797109","officetype":"B.O","deliverystatus":"Delivery","statename":"NAGALAND","regionname":"North Eastern","circlename":"North Eastern","divisionname":"Nagaland","Taluk":"Tseminyu"},{"officename":"Zephenyu B.O","pincode":"797109","officetype":"B.O","deliverystatus":"Delivery","statename":"NAGALAND","regionname":"North Eastern","circlename":"North Eastern","divisionname":"Nagaland","Taluk":"Tseminyu"},{"officename":"Chingmei B.O","pincode":"798612","officetype":"B.O","deliverystatus":"Delivery","statename":"NAGALAND","regionname":"North Eastern","circlename":"North Eastern","divisionname":"Nagaland","Taluk":"Tuensang"},{"officename":"Chessore B.O","pincode":"798612","officetype":"B.O","deliverystatus":"Delivery","statename":"NAGALAND","regionname":"North Eastern","circlename":"North Eastern","divisionname":"Nagaland","Taluk":"Tuensang"},{"officename":"Huker B.O","pincode":"798612","officetype":"B.O","deliverystatus":"Delivery","statename":"NAGALAND","regionname":"North Eastern","circlename":"North Eastern","divisionname":"Nagaland","Taluk":"Tuensang"},{"officename":"Kuthur B.O","pincode":"798612","officetype":"B.O","deliverystatus":"Delivery","statename":"NAGALAND","regionname":"North Eastern","circlename":"North Eastern","divisionname":"Nagaland","Taluk":"Tuensang"},{"officename":"Panso B.O","pincode":"798612","officetype":"B.O","deliverystatus":"Delivery","statename":"NAGALAND","regionname":"North Eastern","circlename":"North Eastern","divisionname":"Nagaland","Taluk":"Tuensang"},{"officename":"Shamator B.O","pincode":"798612","officetype":"B.O","deliverystatus":"Delivery","statename":"NAGALAND","regionname":"North Eastern","circlename":"North Eastern","divisionname":"Nagaland","Taluk":"Tuensang"},{"officename":"Sangsanyu B.O","pincode":"798612","officetype":"B.O","deliverystatus":"Delivery","statename":"NAGALAND","regionname":"North Eastern","circlename":"North Eastern","divisionname":"Nagaland","Taluk":"Tuensang"},{"officename":"Shampur B.O","pincode":"798612","officetype":"B.O","deliverystatus":"Delivery","statename":"NAGALAND","regionname":"North Eastern","circlename":"North Eastern","divisionname":"Nagaland","Taluk":"Tuensang"},{"officename":"Shiponger B.O","pincode":"798612","officetype":"B.O","deliverystatus":"Delivery","statename":"NAGALAND","regionname":"North Eastern","circlename":"North Eastern","divisionname":"Nagaland","Taluk":"Tuensang"},{"officename":"Sotokur B.O","pincode":"798612","officetype":"B.O","deliverystatus":"Delivery","statename":"NAGALAND","regionname":"North Eastern","circlename":"North Eastern","divisionname":"Nagaland","Taluk":"Tuensang"},{"officename":"Thonokhunyu B.O","pincode":"798612","officetype":"B.O","deliverystatus":"Delivery","statename":"NAGALAND","regionname":"North Eastern","circlename":"North Eastern","divisionname":"Nagaland","Taluk":"Tuensang"},{"officename":"Tuensang Village B.O","pincode":"798612","officetype":"B.O","deliverystatus":"Delivery","statename":"NAGALAND","regionname":"North Eastern","circlename":"North Eastern","divisionname":"Nagaland","Taluk":"Tuensang"},{"officename":"Saramati B.O","pincode":"798612","officetype":"B.O","deliverystatus":"Delivery","statename":"NAGALAND","regionname":"North Eastern","circlename":"North Eastern","divisionname":"Nagaland","Taluk":"Tuensang"},{"officename":"Asangma B.O","pincode":"798618","officetype":"B.O","deliverystatus":"Delivery","statename":"NAGALAND","regionname":"North Eastern","circlename":"North Eastern","divisionname":"Nagaland","Taluk":"Changtongya"},{"officename":"Barakangtsung B.O","pincode":"798618","officetype":"B.O","deliverystatus":"Delivery","statename":"NAGALAND","regionname":"North Eastern","circlename":"North Eastern","divisionname":"Nagaland","Taluk":"Tuli"},{"officename":"Molungkhimong B.O","pincode":"798618","officetype":"B.O","deliverystatus":"Delivery","statename":"NAGALAND","regionname":"North Eastern","circlename":"North Eastern","divisionname":"Nagaland","Taluk":"Tuli"},{"officename":"Luyang Valley B.O","pincode":"798618","officetype":"B.O","deliverystatus":"Delivery","statename":"NAGALAND","regionname":"North Eastern","circlename":"North Eastern","divisionname":"Nagaland","Taluk":"Tuli"},{"officename":"Molungyimsen B.O","pincode":"798618","officetype":"B.O","deliverystatus":"Delivery","statename":"NAGALAND","regionname":"North Eastern","circlename":"North Eastern","divisionname":"Nagaland","Taluk":"Tuli"},{"officename":"Tamlu B.O","pincode":"798618","officetype":"B.O","deliverystatus":"Delivery","statename":"NAGALAND","regionname":"North Eastern","circlename":"North Eastern","divisionname":"Nagaland","Taluk":"Tuli"},{"officename":"Wamaken B.O","pincode":"798618","officetype":"B.O","deliverystatus":"Delivery","statename":"NAGALAND","regionname":"North Eastern","circlename":"North Eastern","divisionname":"Nagaland","Taluk":"Tuli"},{"officename":"Chukitong B.O","pincode":"797111","officetype":"B.O","deliverystatus":"Delivery","statename":"NAGALAND","regionname":"North Eastern","circlename":"North Eastern","divisionname":"Nagaland","Taluk":"Wokha"},{"officename":"Elumnyu B.O","pincode":"797111","officetype":"B.O","deliverystatus":"Delivery","statename":"NAGALAND","regionname":"North Eastern","circlename":"North Eastern","divisionname":"Nagaland","Taluk":"Wokha"},{"officename":"Humtsu B.O","pincode":"797111","officetype":"B.O","deliverystatus":"Delivery","statename":"NAGALAND","regionname":"North Eastern","circlename":"North Eastern","divisionname":"Nagaland","Taluk":"Wokha"},{"officename":"Mekhukla B.O","pincode":"797111","officetype":"B.O","deliverystatus":"Delivery","statename":"NAGALAND","regionname":"North Eastern","circlename":"North Eastern","divisionname":"Nagaland","Taluk":"Wokha"},{"officename":"Nyiro B.O","pincode":"797111","officetype":"B.O","deliverystatus":"Delivery","statename":"NAGALAND","regionname":"North Eastern","circlename":"North Eastern","divisionname":"Nagaland","Taluk":"Wokha"},{"officename":"Pongitong B.O","pincode":"797111","officetype":"B.O","deliverystatus":"Delivery","statename":"NAGALAND","regionname":"North Eastern","circlename":"North Eastern","divisionname":"Nagaland","Taluk":"Wokha"},{"officename":"Tsungtsutong B.O","pincode":"797111","officetype":"B.O","deliverystatus":"Delivery","statename":"NAGALAND","regionname":"North Eastern","circlename":"North Eastern","divisionname":"Nagaland","Taluk":"Wokha"},{"officename":"Wokha Village B.O","pincode":"797111","officetype":"B.O","deliverystatus":"Delivery","statename":"NAGALAND","regionname":"North Eastern","circlename":"North Eastern","divisionname":"Nagaland","Taluk":"Wokha"},{"officename":"Yikhum B.O","pincode":"797111","officetype":"B.O","deliverystatus":"Delivery","statename":"NAGALAND","regionname":"North Eastern","circlename":"North Eastern","divisionname":"Nagaland","Taluk":"Wokha"},{"officename":"Wozhru B.O","pincode":"797111","officetype":"B.O","deliverystatus":"Delivery","statename":"NAGALAND","regionname":"North Eastern","circlename":"North Eastern","divisionname":"Nagaland","Taluk":"Wokha"},{"officename":"Athibung B.O","pincode":"797110","officetype":"B.O","deliverystatus":"Delivery","statename":"NAGALAND","regionname":"North Eastern","circlename":"North Eastern","divisionname":"Nagaland","Taluk":"Zalukie"},{"officename":"Bongkholong B.O","pincode":"797110","officetype":"B.O","deliverystatus":"Delivery","statename":"NAGALAND","regionname":"North Eastern","circlename":"North Eastern","divisionname":"Nagaland","Taluk":"Zalukie"},{"officename":"Gaili B.O","pincode":"797110","officetype":"B.O","deliverystatus":"Delivery","statename":"NAGALAND","regionname":"North Eastern","circlename":"North Eastern","divisionname":"Nagaland","Taluk":"Zalukie"},{"officename":"Khelma B.O","pincode":"797110","officetype":"B.O","deliverystatus":"Delivery","statename":"NAGALAND","regionname":"North Eastern","circlename":"North Eastern","divisionname":"Nagaland","Taluk":"Zalukie"},{"officename":"Lilen B.O","pincode":"797110","officetype":"B.O","deliverystatus":"Delivery","statename":"NAGALAND","regionname":"North Eastern","circlename":"North Eastern","divisionname":"Nagaland","Taluk":"Zalukie"},{"officename":"Mhainamtsi B.O","pincode":"797110","officetype":"B.O","deliverystatus":"Delivery","statename":"NAGALAND","regionname":"North Eastern","circlename":"North Eastern","divisionname":"Nagaland","Taluk":"Zalukie"},{"officename":"New Jalukie B.O","pincode":"797110","officetype":"B.O","deliverystatus":"Delivery","statename":"NAGALAND","regionname":"North Eastern","circlename":"North Eastern","divisionname":"Nagaland","Taluk":"Zalukie"},{"officename":"Samjiuram B.O","pincode":"797110","officetype":"B.O","deliverystatus":"Delivery","statename":"NAGALAND","regionname":"North Eastern","circlename":"North Eastern","divisionname":"Nagaland","Taluk":"Zalukie"},{"officename":"Jalukie 'B' B.O","pincode":"797110","officetype":"B.O","deliverystatus":"Delivery","statename":"NAGALAND","regionname":"North Eastern","circlename":"North Eastern","divisionname":"Nagaland","Taluk":"Zalukie"},{"officename":"Aghunato B.O","pincode":"798620","officetype":"B.O","deliverystatus":"Delivery","statename":"NAGALAND","regionname":"North Eastern","circlename":"North Eastern","divisionname":"Nagaland","Taluk":"Aghunato"},{"officename":"Asuto B.O","pincode":"798620","officetype":"B.O","deliverystatus":"Delivery","statename":"NAGALAND","regionname":"North Eastern","circlename":"North Eastern","divisionname":"Nagaland","Taluk":"Zunheboto"},{"officename":"Asukhomi B.O","pincode":"798620","officetype":"B.O","deliverystatus":"Delivery","statename":"NAGALAND","regionname":"North Eastern","circlename":"North Eastern","divisionname":"Nagaland","Taluk":"Zunheboto"},{"officename":"Satoi B.O","pincode":"798620","officetype":"B.O","deliverystatus":"Delivery","statename":"NAGALAND","regionname":"North Eastern","circlename":"North Eastern","divisionname":"Nagaland","Taluk":"Zunheboto"},{"officename":"Hosephu B.O","pincode":"798620","officetype":"B.O","deliverystatus":"Delivery","statename":"NAGALAND","regionname":"North Eastern","circlename":"North Eastern","divisionname":"Nagaland","Taluk":"Zunheboto"},{"officename":"Kichilimi B.O","pincode":"798620","officetype":"B.O","deliverystatus":"Delivery","statename":"NAGALAND","regionname":"North Eastern","circlename":"North Eastern","divisionname":"Nagaland","Taluk":"Ghathashi"},{"officename":"Phisami B.O","pincode":"798611","officetype":"B.O","deliverystatus":"Delivery","statename":"NAGALAND","regionname":"North Eastern","circlename":"North Eastern","divisionname":"Nagaland","Taluk":"Zunheboto"},{"officename":"Saghemi B.O","pincode":"798620","officetype":"B.O","deliverystatus":"Delivery","statename":"NAGALAND","regionname":"North Eastern","circlename":"North Eastern","divisionname":"Nagaland","Taluk":"Zunheboto"},{"officename":"Satakha B.O","pincode":"798620","officetype":"B.O","deliverystatus":"Delivery","statename":"NAGALAND","regionname":"North Eastern","circlename":"North Eastern","divisionname":"Nagaland","Taluk":"Zunheboto"},{"officename":"Suruhuto B.O","pincode":"798620","officetype":"B.O","deliverystatus":"Delivery","statename":"NAGALAND","regionname":"North Eastern","circlename":"North Eastern","divisionname":"Nagaland","Taluk":"Zunheboto"},{"officename":"Satami B.O","pincode":"798620","officetype":"B.O","deliverystatus":"Delivery","statename":"NAGALAND","regionname":"North Eastern","circlename":"North Eastern","divisionname":"Nagaland","Taluk":"Zunheboto"},{"officename":"Kigwema B.O","pincode":"797006","officetype":"B.O","deliverystatus":"Delivery","statename":"NAGALAND","regionname":"North Eastern","circlename":"North Eastern","divisionname":"Nagaland","Taluk":"Kohima"},{"officename":"Khuzama B.O","pincode":"797006","officetype":"B.O","deliverystatus":"Delivery","statename":"NAGALAND","regionname":"North Eastern","circlename":"North Eastern","divisionname":"Nagaland","Taluk":"Kohima"},{"officename":"Lalmati B.O","pincode":"797120","officetype":"B.O","deliverystatus":"Delivery","statename":"NAGALAND","regionname":"North Eastern","circlename":"North Eastern","divisionname":"Nagaland","Taluk":"Kohima"},{"officename":"Mima B.O","pincode":"797006","officetype":"B.O","deliverystatus":"Delivery","statename":"NAGALAND","regionname":"North Eastern","circlename":"North Eastern","divisionname":"Nagaland","Taluk":"Kohima"},{"officename":"Phesama B.O","pincode":"797120","officetype":"B.O","deliverystatus":"Delivery","statename":"NAGALAND","regionname":"North Eastern","circlename":"North Eastern","divisionname":"Nagaland","Taluk":"Kohima"},{"officename":"Pughoboto B.O","pincode":"797109","officetype":"B.O","deliverystatus":"Delivery","statename":"NAGALAND","regionname":"North Eastern","circlename":"North Eastern","divisionname":"Nagaland","Taluk":"Kohima"},{"officename":"Viswema B.O","pincode":"797006","officetype":"B.O","deliverystatus":"Delivery","statename":"NAGALAND","regionname":"North Eastern","circlename":"North Eastern","divisionname":"Nagaland","Taluk":"Kohima"},{"officename":"Zubza B.O","pincode":"797120","officetype":"B.O","deliverystatus":"Delivery","statename":"NAGALAND","regionname":"North Eastern","circlename":"North Eastern","divisionname":"Nagaland","Taluk":"Kohima"},{"officename":"Asukuto B.O","pincode":"798620","officetype":"B.O","deliverystatus":"Delivery","statename":"NAGALAND","regionname":"North Eastern","circlename":"North Eastern","divisionname":"Nagaland","Taluk":"Akuluto"},{"officename":"Aizito B.O","pincode":"798627","officetype":"B.O","deliverystatus":"Delivery","statename":"NAGALAND","regionname":"North Eastern","circlename":"North Eastern","divisionname":"Nagaland","Taluk":"Zunheboto"},{"officename":"Aoyimti B.O","pincode":"797115","officetype":"B.O","deliverystatus":"Delivery","statename":"NAGALAND","regionname":"North Eastern","circlename":"North Eastern","divisionname":"Nagaland","Taluk":"Artc"},{"officename":"Eralibill B.O","pincode":"797115","officetype":"B.O","deliverystatus":"Delivery","statename":"NAGALAND","regionname":"North Eastern","circlename":"North Eastern","divisionname":"Nagaland","Taluk":"Artc"},{"officename":"Diphupar B.O","pincode":"797115","officetype":"B.O","deliverystatus":"Delivery","statename":"NAGALAND","regionname":"North Eastern","circlename":"North Eastern","divisionname":"Nagaland","Taluk":"Artc"},{"officename":"Sugar Mill Project B.O","pincode":"797115","officetype":"B.O","deliverystatus":"Delivery","statename":"NAGALAND","regionname":"North Eastern","circlename":"North Eastern","divisionname":"Nagaland","Taluk":"Dimapur"},{"officename":"Sukhovi B.O","pincode":"797115","officetype":"B.O","deliverystatus":"Delivery","statename":"NAGALAND","regionname":"North Eastern","circlename":"North Eastern","divisionname":"Nagaland","Taluk":"Artc"},{"officename":"Daroga Pathar B.O","pincode":"797115","officetype":"B.O","deliverystatus":"Delivery","statename":"NAGALAND","regionname":"North Eastern","circlename":"North Eastern","divisionname":"Nagaland","Taluk":"Artc"},{"officename":"Showba Old B.O","pincode":"797115","officetype":"B.O","deliverystatus":"Delivery","statename":"NAGALAND","regionname":"North Eastern","circlename":"North Eastern","divisionname":"Nagaland","Taluk":"Artc"},{"officename":"Angphang B.O","pincode":"798603","officetype":"B.O","deliverystatus":"Delivery","statename":"NAGALAND","regionname":"North Eastern","circlename":"North Eastern","divisionname":"Nagaland","Taluk":"Champang"},{"officename":"Chingkao B.O","pincode":"798603","officetype":"B.O","deliverystatus":"Delivery","statename":"NAGALAND","regionname":"North Eastern","circlename":"North Eastern","divisionname":"Nagaland","Taluk":"Champang"},{"officename":"Chinglong B.O","pincode":"798603","officetype":"B.O","deliverystatus":"Delivery","statename":"NAGALAND","regionname":"North Eastern","circlename":"North Eastern","divisionname":"Nagaland","Taluk":"Champang"},{"officename":"Chenwetnyu B.O","pincode":"798603","officetype":"B.O","deliverystatus":"Delivery","statename":"NAGALAND","regionname":"North Eastern","circlename":"North Eastern","divisionname":"Nagaland","Taluk":"Champang"},{"officename":"Chenloisho B.O","pincode":"798603","officetype":"B.O","deliverystatus":"Delivery","statename":"NAGALAND","regionname":"North Eastern","circlename":"North Eastern","divisionname":"Nagaland","Taluk":"Champang"},{"officename":"Jakpang B.O","pincode":"798603","officetype":"B.O","deliverystatus":"Delivery","statename":"NAGALAND","regionname":"North Eastern","circlename":"North Eastern","divisionname":"Nagaland","Taluk":"Champang"},{"officename":"Longching B.O","pincode":"798603","officetype":"B.O","deliverystatus":"Delivery","statename":"NAGALAND","regionname":"North Eastern","circlename":"North Eastern","divisionname":"Nagaland","Taluk":"Champang"},{"officename":"Merangkong B.O","pincode":"798618","officetype":"B.O","deliverystatus":"Delivery","statename":"NAGALAND","regionname":"North Eastern","circlename":"North Eastern","divisionname":"Nagaland","Taluk":"Changtogia"},{"officename":"Yaongyimsen B.O","pincode":"798613","officetype":"B.O","deliverystatus":"Delivery","statename":"NAGALAND","regionname":"North Eastern","circlename":"North Eastern","divisionname":"Nagaland","Taluk":"Changtogia"},{"officename":"Tokiye B.O","pincode":"798620","officetype":"B.O","deliverystatus":"Delivery","statename":"NAGALAND","regionname":"North Eastern","circlename":"North Eastern","divisionname":"Nagaland","Taluk":"Zunheboto"},{"officename":"Tobu B.O","pincode":"798603","officetype":"B.O","deliverystatus":"Delivery","statename":"NAGALAND","regionname":"North Eastern","circlename":"North Eastern","divisionname":"Nagaland","Taluk":"Champang"},{"officename":"Pessao B.O","pincode":"798603","officetype":"B.O","deliverystatus":"Delivery","statename":"NAGALAND","regionname":"North Eastern","circlename":"North Eastern","divisionname":"Nagaland","Taluk":"Champang"},{"officename":"Ukha B.O","pincode":"798603","officetype":"B.O","deliverystatus":"Delivery","statename":"NAGALAND","regionname":"North Eastern","circlename":"North Eastern","divisionname":"Nagaland","Taluk":"Champang"},{"officename":"Monyakshu B.O","pincode":"798603","officetype":"B.O","deliverystatus":"Delivery","statename":"NAGALAND","regionname":"North Eastern","circlename":"North Eastern","divisionname":"Nagaland","Taluk":"Champang"},{"officename":"Botsa B.O","pincode":"797105","officetype":"B.O","deliverystatus":"Delivery","statename":"NAGALAND","regionname":"North Eastern","circlename":"North Eastern","divisionname":"Nagaland","Taluk":"Chiechama"},{"officename":"Chiephobozou B.O","pincode":"797105","officetype":"B.O","deliverystatus":"Delivery","statename":"NAGALAND","regionname":"North Eastern","circlename":"North Eastern","divisionname":"Nagaland","Taluk":"Chiechama"},{"officename":"Zhadima B.O","pincode":"797105","officetype":"B.O","deliverystatus":"Delivery","statename":"NAGALAND","regionname":"North Eastern","circlename":"North Eastern","divisionname":"Nagaland","Taluk":"Chiechama"},{"officename":"Mishilimi B.O","pincode":"797105","officetype":"B.O","deliverystatus":"Delivery","statename":"NAGALAND","regionname":"North Eastern","circlename":"North Eastern","divisionname":"Nagaland","Taluk":"Chiechama"},{"officename":"Tuophema B.O","pincode":"797105","officetype":"B.O","deliverystatus":"Delivery","statename":"NAGALAND","regionname":"North Eastern","circlename":"North Eastern","divisionname":"Nagaland","Taluk":"Chiechama"},{"officename":"Chizami Village B.O","pincode":"797107","officetype":"B.O","deliverystatus":"Delivery","statename":"NAGALAND","regionname":"North Eastern","circlename":"North Eastern","divisionname":"Nagaland","Taluk":"Chizami"},{"officename":"Middle Khomi B.O","pincode":"797108","officetype":"B.O","deliverystatus":"Delivery","statename":"NAGALAND","regionname":"North Eastern","circlename":"North Eastern","divisionname":"Nagaland","Taluk":"Chizami"},{"officename":"Thechulumi B.O","pincode":"797107","officetype":"B.O","deliverystatus":"Delivery","statename":"NAGALAND","regionname":"North Eastern","circlename":"North Eastern","divisionname":"Nagaland","Taluk":"Chizami"},{"officename":"Dzulhami B.O","pincode":"797104","officetype":"B.O","deliverystatus":"Delivery","statename":"NAGALAND","regionname":"North Eastern","circlename":"North Eastern","divisionname":"Nagaland","Taluk":"Chozuba"},{"officename":"Kilomi B.O","pincode":"797104","officetype":"B.O","deliverystatus":"Delivery","statename":"NAGALAND","regionname":"North Eastern","circlename":"North Eastern","divisionname":"Nagaland","Taluk":"Chozuba"},{"officename":"Phugwu B.O","pincode":"797104","officetype":"B.O","deliverystatus":"Delivery","statename":"NAGALAND","regionname":"North Eastern","circlename":"North Eastern","divisionname":"Nagaland","Taluk":"Chozuba"},{"officename":"Runguzumi B.O","pincode":"797104","officetype":"B.O","deliverystatus":"Delivery","statename":"NAGALAND","regionname":"North Eastern","circlename":"North Eastern","divisionname":"Nagaland","Taluk":"Chozoba"},{"officename":"Thevopesumi B.O","pincode":"797104","officetype":"B.O","deliverystatus":"Delivery","statename":"NAGALAND","regionname":"North Eastern","circlename":"North Eastern","divisionname":"Nagaland","Taluk":"Chozuba"},{"officename":"Yoribami B.O","pincode":"797104","officetype":"B.O","deliverystatus":"Delivery","statename":"NAGALAND","regionname":"North Eastern","circlename":"North Eastern","divisionname":"Nagaland","Taluk":"Chozuba"},{"officename":"Chetheba B.O","pincode":"797104","officetype":"B.O","deliverystatus":"Delivery","statename":"NAGALAND","regionname":"North Eastern","circlename":"North Eastern","divisionname":"Nagaland","Taluk":"Chozuba"},{"officename":"Thenyizumi B.O","pincode":"797104","officetype":"B.O","deliverystatus":"Delivery","statename":"NAGALAND","regionname":"North Eastern","circlename":"North Eastern","divisionname":"Nagaland","Taluk":"Chozuba"},{"officename":"Mongsenyimti B.O","pincode":"798614","officetype":"B.O","deliverystatus":"Delivery","statename":"NAGALAND","regionname":"North Eastern","circlename":"North Eastern","divisionname":"Nagaland","Taluk":"Chuchuyimlang"},{"officename":"Yisemyong B.O","pincode":"798614","officetype":"B.O","deliverystatus":"Delivery","statename":"NAGALAND","regionname":"North Eastern","circlename":"North Eastern","divisionname":"Nagaland","Taluk":"Chuchuyimlang"},{"officename":"Ungar B.O","pincode":"798614","officetype":"B.O","deliverystatus":"Delivery","statename":"NAGALAND","regionname":"North Eastern","circlename":"North Eastern","divisionname":"Nagaland","Taluk":"Chuchulang"},{"officename":"Longkong B.O","pincode":"798614","officetype":"B.O","deliverystatus":"Delivery","statename":"NAGALAND","regionname":"North Eastern","circlename":"North Eastern","divisionname":"Nagaland","Taluk":"Chuchuyimlang"},{"officename":"Salulamang B.O","pincode":"798614","officetype":"B.O","deliverystatus":"Delivery","statename":"NAGALAND","regionname":"North Eastern","circlename":"North Eastern","divisionname":"Nagaland","Taluk":"Chuchuyimlang"},{"officename":"Khopoanaula B.O","pincode":"797103","officetype":"B.O","deliverystatus":"Delivery","statename":"NAGALAND","regionname":"North Eastern","circlename":"North Eastern","divisionname":"Nagaland","Taluk":"Chumukedima"},{"officename":"Mhaikam B.O","pincode":"797103","officetype":"B.O","deliverystatus":"Delivery","statename":"NAGALAND","regionname":"North Eastern","circlename":"North Eastern","divisionname":"Nagaland","Taluk":"Dimapur"},{"officename":"Nihekhu B.O","pincode":"797103","officetype":"B.O","deliverystatus":"Delivery","statename":"NAGALAND","regionname":"North Eastern","circlename":"North Eastern","divisionname":"Nagaland","Taluk":"Chumukedima"},{"officename":"P C College B.O","pincode":"797103","officetype":"B.O","deliverystatus":"Delivery","statename":"NAGALAND","regionname":"North Eastern","circlename":"North Eastern","divisionname":"Nagaland","Taluk":"Chumukedima"},{"officename":"Pimla B.O","pincode":"797103","officetype":"B.O","deliverystatus":"Delivery","statename":"NAGALAND","regionname":"North Eastern","circlename":"North Eastern","divisionname":"Nagaland","Taluk":"Chumukedima"},{"officename":"Tenyiphe B.O","pincode":"797103","officetype":"B.O","deliverystatus":"Delivery","statename":"NAGALAND","regionname":"North Eastern","circlename":"North Eastern","divisionname":"Nagaland","Taluk":"Chumukedima"},{"officename":"Doyapur B.O","pincode":"797112","officetype":"B.O","deliverystatus":"Delivery","statename":"NAGALAND","regionname":"North Eastern","circlename":"North Eastern","divisionname":"Nagaland","Taluk":"Dimapur Mdg"},{"officename":"Hening Kunglwa B.O","pincode":"797112","officetype":"B.O","deliverystatus":"Delivery","statename":"NAGALAND","regionname":"North Eastern","circlename":"North Eastern","divisionname":"Nagaland","Taluk":"Dimapur Mdg"},{"officename":"Khermahal B.O","pincode":"797112","officetype":"B.O","deliverystatus":"Non-Delivery","statename":"NAGALAND","regionname":"North Eastern","circlename":"North Eastern","divisionname":"Nagaland","Taluk":"Dimapur Sadar"},{"officename":"Kuda B.O","pincode":"797112","officetype":"B.O","deliverystatus":"Delivery","statename":"NAGALAND","regionname":"North Eastern","circlename":"North Eastern","divisionname":"Nagaland","Taluk":"Dimapur Mdg"},{"officename":"Nuiland B.O","pincode":"797112","officetype":"B.O","deliverystatus":"Delivery","statename":"NAGALAND","regionname":"North Eastern","circlename":"North Eastern","divisionname":"Nagaland","Taluk":"Dimapur Mdg"},{"officename":"Phaipijan B.O","pincode":"797112","officetype":"B.O","deliverystatus":"Delivery","statename":"NAGALAND","regionname":"North Eastern","circlename":"North Eastern","divisionname":"Nagaland","Taluk":"Dimapur Mdg"},{"officename":"Pwd Colony B.O","pincode":"797117","officetype":"B.O","deliverystatus":"Non-Delivery","statename":"NAGALAND","regionname":"North Eastern","circlename":"North Eastern","divisionname":"Nagaland","Taluk":"Dimapur Sadar"},{"officename":"Razaphema B.O","pincode":"797106","officetype":"B.O","deliverystatus":"Delivery","statename":"NAGALAND","regionname":"North Eastern","circlename":"North Eastern","divisionname":"Nagaland","Taluk":"Medziphema"},{"officename":"Ralan B.O","pincode":"797112","officetype":"B.O","deliverystatus":"Delivery","statename":"NAGALAND","regionname":"North Eastern","circlename":"North Eastern","divisionname":"Nagaland","Taluk":"Dimapur Mdg"},{"officename":"Rangapahar B.O","pincode":"797118","officetype":"B.O","deliverystatus":"Delivery","statename":"NAGALAND","regionname":"North Eastern","circlename":"North Eastern","divisionname":"Nagaland","Taluk":"Dimapur Mdg"},{"officename":"Singrijan B.O","pincode":"797112","officetype":"B.O","deliverystatus":"Delivery","statename":"NAGALAND","regionname":"North Eastern","circlename":"North Eastern","divisionname":"Nagaland","Taluk":"Dimapur Mdg"},{"officename":"Thahekhu B.O","pincode":"797118","officetype":"B.O","deliverystatus":"Delivery","statename":"NAGALAND","regionname":"North Eastern","circlename":"North Eastern","divisionname":"Nagaland","Taluk":"Dimapur Mdg"},{"officename":"Yampha B.O","pincode":"797112","officetype":"B.O","deliverystatus":"Delivery","statename":"NAGALAND","regionname":"North Eastern","circlename":"North Eastern","divisionname":"Nagaland","Taluk":"Dimapur Mdg"},{"officename":"Zeliangrong B.O","pincode":"797117","officetype":"B.O","deliverystatus":"Non-Delivery","statename":"NAGALAND","regionname":"North Eastern","circlename":"North Eastern","divisionname":"Nagaland","Taluk":"Dimapur Sadar"},{"officename":"Khehekhu B.O","pincode":"797116","officetype":"B.O","deliverystatus":"Delivery","statename":"NAGALAND","regionname":"North Eastern","circlename":"North Eastern","divisionname":"Nagaland","Taluk":"Dimapur Bazar"},{"officename":"Kuhuboto B.O","pincode":"797116","officetype":"B.O","deliverystatus":"Delivery","statename":"NAGALAND","regionname":"North Eastern","circlename":"North Eastern","divisionname":"Nagaland","Taluk":"Dimapur Bazar"},{"officename":"Vihokhu B.O","pincode":"797116","officetype":"B.O","deliverystatus":"Delivery","statename":"NAGALAND","regionname":"North Eastern","circlename":"North Eastern","divisionname":"Nagaland","Taluk":"Dimapur Bazar"},{"officename":"Kushiabill B.O","pincode":"797116","officetype":"B.O","deliverystatus":"Delivery","statename":"NAGALAND","regionname":"North Eastern","circlename":"North Eastern","divisionname":"Nagaland","Taluk":"Dimapur Bazar"},{"officename":"Padampukhuri B.O","pincode":"797116","officetype":"B.O","deliverystatus":"Delivery","statename":"NAGALAND","regionname":"North Eastern","circlename":"North Eastern","divisionname":"Nagaland","Taluk":"Dimapur Bazar"},{"officename":"Aitepyong B.O","pincode":"797111","officetype":"B.O","deliverystatus":"Delivery","statename":"NAGALAND","regionname":"North Eastern","circlename":"North Eastern","divisionname":"Nagaland","Taluk":"Doyang H Project"},{"officename":"Baghty B.O","pincode":"797111","officetype":"B.O","deliverystatus":"Delivery","statename":"NAGALAND","regionname":"North Eastern","circlename":"North Eastern","divisionname":"Nagaland","Taluk":"Doyang H Project"},{"officename":"Englan B.O","pincode":"797111","officetype":"B.O","deliverystatus":"Delivery","statename":"NAGALAND","regionname":"North Eastern","circlename":"North Eastern","divisionname":"Nagaland","Taluk":"Doyang H Project"},{"officename":"Longtsung B.O","pincode":"797111","officetype":"B.O","deliverystatus":"Delivery","statename":"NAGALAND","regionname":"North Eastern","circlename":"North Eastern","divisionname":"Nagaland","Taluk":"Doyang H Project"},{"officename":"Lotsu B.O","pincode":"797111","officetype":"B.O","deliverystatus":"Delivery","statename":"NAGALAND","regionname":"North Eastern","circlename":"North Eastern","divisionname":"Nagaland","Taluk":"Doyang H Project"},{"officename":"Moilan B.O","pincode":"797111","officetype":"B.O","deliverystatus":"Delivery","statename":"NAGALAND","regionname":"North Eastern","circlename":"North Eastern","divisionname":"Nagaland","Taluk":"Doyang H Project"},{"officename":"Sanis B.O","pincode":"797111","officetype":"B.O","deliverystatus":"Delivery","statename":"NAGALAND","regionname":"North Eastern","circlename":"North Eastern","divisionname":"Nagaland","Taluk":"Doyang H Project"},{"officename":"Yamhon B.O","pincode":"797111","officetype":"B.O","deliverystatus":"Delivery","statename":"NAGALAND","regionname":"North Eastern","circlename":"North Eastern","divisionname":"Nagaland","Taluk":"Doyang H Project"},{"officename":"Kubulong B.O","pincode":"798615","officetype":"B.O","deliverystatus":"Delivery","statename":"NAGALAND","regionname":"North Eastern","circlename":"North Eastern","divisionname":"Nagaland","Taluk":"Impur"},{"officename":"Sungratsu B.O","pincode":"798615","officetype":"B.O","deliverystatus":"Delivery","statename":"NAGALAND","regionname":"North Eastern","circlename":"North Eastern","divisionname":"Nagaland","Taluk":"Impur"},{"officename":"Amahatore B.O","pincode":"798611","officetype":"B.O","deliverystatus":"Delivery","statename":"NAGALAND","regionname":"North Eastern","circlename":"North Eastern","divisionname":"Nagaland","Taluk":"Kiphire"},{"officename":"Anatongere B.O","pincode":"798611","officetype":"B.O","deliverystatus":"Delivery","statename":"NAGALAND","regionname":"North Eastern","circlename":"North Eastern","divisionname":"Nagaland","Taluk":"Kiphire"},{"officename":"Kisethong B.O","pincode":"798611","officetype":"B.O","deliverystatus":"Delivery","statename":"NAGALAND","regionname":"North Eastern","circlename":"North Eastern","divisionname":"Nagaland","Taluk":"Kiphire"},{"officename":"Longmatra B.O","pincode":"798611","officetype":"B.O","deliverystatus":"Delivery","statename":"NAGALAND","regionname":"North Eastern","circlename":"North Eastern","divisionname":"Nagaland","Taluk":"Kiphire"},{"officename":"Moya B.O","pincode":"798611","officetype":"B.O","deliverystatus":"Delivery","statename":"NAGALAND","regionname":"North Eastern","circlename":"North Eastern","divisionname":"Nagaland","Taluk":"Kiphire"},{"officename":"Phalonger B.O","pincode":"798611","officetype":"B.O","deliverystatus":"Delivery","statename":"NAGALAND","regionname":"North Eastern","circlename":"North Eastern","divisionname":"Nagaland","Taluk":"Kiphire"},{"officename":"Pokhpur B.O","pincode":"798611","officetype":"B.O","deliverystatus":"Delivery","statename":"NAGALAND","regionname":"North Eastern","circlename":"North Eastern","divisionname":"Nagaland","Taluk":"Kiphire"},{"officename":"Pungro B.O","pincode":"798611","officetype":"B.O","deliverystatus":"Delivery","statename":"NAGALAND","regionname":"North Eastern","circlename":"North Eastern","divisionname":"Nagaland","Taluk":"Kiphire"},{"officename":"Singrup B.O","pincode":"798611","officetype":"B.O","deliverystatus":"Delivery","statename":"NAGALAND","regionname":"North Eastern","circlename":"North Eastern","divisionname":"Nagaland","Taluk":"Kiphire"},{"officename":"Sitimi B.O","pincode":"798611","officetype":"B.O","deliverystatus":"Delivery","statename":"NAGALAND","regionname":"North Eastern","circlename":"North Eastern","divisionname":"Nagaland","Taluk":"Kiphire"},{"officename":"Seyochang B.O","pincode":"798611","officetype":"B.O","deliverystatus":"Delivery","statename":"NAGALAND","regionname":"North Eastern","circlename":"North Eastern","divisionname":"Nagaland","Taluk":"Kiphire"},{"officename":"Sikur B.O","pincode":"798611","officetype":"B.O","deliverystatus":"Delivery","statename":"NAGALAND","regionname":"North Eastern","circlename":"North Eastern","divisionname":"Nagaland","Taluk":"Kiphire"},{"officename":"Chakhabama B.O","pincode":"797003","officetype":"B.O","deliverystatus":"Delivery","statename":"NAGALAND","regionname":"North Eastern","circlename":"North Eastern","divisionname":"Nagaland","Taluk":"Kohima Village"},{"officename":"Chedema B.O","pincode":"797003","officetype":"B.O","deliverystatus":"Delivery","statename":"NAGALAND","regionname":"North Eastern","circlename":"North Eastern","divisionname":"Nagaland","Taluk":"Kohima Village"},{"officename":"Kidima B.O","pincode":"797006","officetype":"B.O","deliverystatus":"Delivery","statename":"NAGALAND","regionname":"North Eastern","circlename":"North Eastern","divisionname":"Nagaland","Taluk":"Kohima"},{"officename":"Kizocha B.O","pincode":"797003","officetype":"B.O","deliverystatus":"Delivery","statename":"NAGALAND","regionname":"North Eastern","circlename":"North Eastern","divisionname":"Nagaland","Taluk":"Kohima Village"},{"officename":"Rusoma B.O","pincode":"797003","officetype":"B.O","deliverystatus":"Delivery","statename":"NAGALAND","regionname":"North Eastern","circlename":"North Eastern","divisionname":"Nagaland","Taluk":"Kohima Village"},{"officename":"Ciesema B.O","pincode":"797003","officetype":"B.O","deliverystatus":"Delivery","statename":"NAGALAND","regionname":"North Eastern","circlename":"North Eastern","divisionname":"Nagaland","Taluk":"Kohima Village"},{"officename":"Dihoma B.O","pincode":"797003","officetype":"B.O","deliverystatus":"Delivery","statename":"NAGALAND","regionname":"North Eastern","circlename":"North Eastern","divisionname":"Nagaland","Taluk":"Kohima Village"},{"officename":"Jotsoma B.O","pincode":"797002","officetype":"B.O","deliverystatus":"Delivery","statename":"NAGALAND","regionname":"North Eastern","circlename":"North Eastern","divisionname":"Nagaland","Taluk":"Kohima Science College"},{"officename":"Khonoma B.O","pincode":"797002","officetype":"B.O","deliverystatus":"Delivery","statename":"NAGALAND","regionname":"North Eastern","circlename":"North Eastern","divisionname":"Nagaland","Taluk":"Kohima Science College"},{"officename":"Mezoma B.O","pincode":"797002","officetype":"B.O","deliverystatus":"Delivery","statename":"NAGALAND","regionname":"North Eastern","circlename":"North Eastern","divisionname":"Nagaland","Taluk":"Kohima Science College"},{"officename":"Poilwa B.O","pincode":"797002","officetype":"B.O","deliverystatus":"Delivery","statename":"NAGALAND","regionname":"North Eastern","circlename":"North Eastern","divisionname":"Nagaland","Taluk":"Kohima Science College"},{"officename":"Angangba B.O","pincode":"798616","officetype":"B.O","deliverystatus":"Delivery","statename":"NAGALAND","regionname":"North Eastern","circlename":"North Eastern","divisionname":"Nagaland","Taluk":"Longkhim"},{"officename":"Chungtore B.O","pincode":"798616","officetype":"B.O","deliverystatus":"Delivery","statename":"NAGALAND","regionname":"North Eastern","circlename":"North Eastern","divisionname":"Nagaland","Taluk":"Longkhim"},{"officename":"Chimonger B.O","pincode":"798616","officetype":"B.O","deliverystatus":"Delivery","statename":"NAGALAND","regionname":"North Eastern","circlename":"North Eastern","divisionname":"Nagaland","Taluk":"Lonkhim"},{"officename":"Noksen B.O","pincode":"798612","officetype":"B.O","deliverystatus":"Delivery","statename":"NAGALAND","regionname":"North Eastern","circlename":"North Eastern","divisionname":"Nagaland","Taluk":"Longkhim"},{"officename":"Yangli B.O","pincode":"798616","officetype":"B.O","deliverystatus":"Delivery","statename":"NAGALAND","regionname":"North Eastern","circlename":"North Eastern","divisionname":"Nagaland","Taluk":"Longkhim"},{"officename":"Hukpang B.O","pincode":"798625","officetype":"B.O","deliverystatus":"Delivery","statename":"NAGALAND","regionname":"North Eastern","circlename":"North Eastern","divisionname":"Nagaland","Taluk":"Longleng"},{"officename":"Nian B.O","pincode":"798625","officetype":"B.O","deliverystatus":"Delivery","statename":"NAGALAND","regionname":"North Eastern","circlename":"North Eastern","divisionname":"Nagaland","Taluk":"Longleng"},{"officename":"Phomching B.O","pincode":"798625","officetype":"B.O","deliverystatus":"Delivery","statename":"NAGALAND","regionname":"North Eastern","circlename":"North Eastern","divisionname":"Nagaland","Taluk":"Longleng"},{"officename":"Sakchi B.O","pincode":"798625","officetype":"B.O","deliverystatus":"Delivery","statename":"NAGALAND","regionname":"North Eastern","circlename":"North Eastern","divisionname":"Nagaland","Taluk":"Longleng"},{"officename":"Yachem B.O","pincode":"798625","officetype":"B.O","deliverystatus":"Delivery","statename":"NAGALAND","regionname":"North Eastern","circlename":"North Eastern","divisionname":"Nagaland","Taluk":"Longleng"},{"officename":"Yongyah B.O","pincode":"798625","officetype":"B.O","deliverystatus":"Delivery","statename":"NAGALAND","regionname":"North Eastern","circlename":"North Eastern","divisionname":"Nagaland","Taluk":"Longleng"},{"officename":"Agri College B.O","pincode":"797106","officetype":"B.O","deliverystatus":"Delivery","statename":"NAGALAND","regionname":"North Eastern","circlename":"North Eastern","divisionname":"Nagaland","Taluk":"Medziphema"},{"officename":"Jharnapani B.O","pincode":"797106","officetype":"B.O","deliverystatus":"Delivery","statename":"NAGALAND","regionname":"North Eastern","circlename":"North Eastern","divisionname":"Nagaland","Taluk":"Medziphema"},{"officename":"Khaibung B.O","pincode":"797106","officetype":"B.O","deliverystatus":"Delivery","statename":"NAGALAND","regionname":"North Eastern","circlename":"North Eastern","divisionname":"Nagaland","Taluk":"Medziphema"},{"officename":"Maova B.O","pincode":"797106","officetype":"B.O","deliverystatus":"Delivery","statename":"NAGALAND","regionname":"North Eastern","circlename":"North Eastern","divisionname":"Nagaland","Taluk":"Medziphema"},{"officename":"Molvom B.O","pincode":"797106","officetype":"B.O","deliverystatus":"Delivery","statename":"NAGALAND","regionname":"North Eastern","circlename":"North Eastern","divisionname":"Nagaland","Taluk":"Medziphema"},{"officename":"Pherima B.O","pincode":"797106","officetype":"B.O","deliverystatus":"Delivery","statename":"NAGALAND","regionname":"North Eastern","circlename":"North Eastern","divisionname":"Nagaland","Taluk":"Medziphema"},{"officename":"Punglwa B.O","pincode":"797106","officetype":"B.O","deliverystatus":"Delivery","statename":"NAGALAND","regionname":"North Eastern","circlename":"North Eastern","divisionname":"Nagaland","Taluk":"Medziphema"},{"officename":"Sirhima B.O","pincode":"797106","officetype":"B.O","deliverystatus":"Delivery","statename":"NAGALAND","regionname":"North Eastern","circlename":"North Eastern","divisionname":"Nagaland","Taluk":"Medziphema"},{"officename":"Piphima B.O","pincode":"797106","officetype":"B.O","deliverystatus":"Delivery","statename":"NAGALAND","regionname":"North Eastern","circlename":"North Eastern","divisionname":"Nagaland","Taluk":"Medziphema"},{"officename":"Akhegwo B.O","pincode":"797114","officetype":"B.O","deliverystatus":"Delivery","statename":"NAGALAND","regionname":"North Eastern","circlename":"North Eastern","divisionname":"Nagaland","Taluk":"Meluri"},{"officename":"Hutsu B.O","pincode":"797114","officetype":"B.O","deliverystatus":"Delivery","statename":"NAGALAND","regionname":"North Eastern","circlename":"North Eastern","divisionname":"Nagaland","Taluk":"Meluri"},{"officename":"Lephori B.O","pincode":"797114","officetype":"B.O","deliverystatus":"Delivery","statename":"NAGALAND","regionname":"North Eastern","circlename":"North Eastern","divisionname":"Nagaland","Taluk":"Meluri"},{"officename":"Pungkhuri B.O","pincode":"797114","officetype":"B.O","deliverystatus":"Delivery","statename":"NAGALAND","regionname":"North Eastern","circlename":"North Eastern","divisionname":"Nagaland","Taluk":"Meluri"},{"officename":"Wazhiho B.O","pincode":"797114","officetype":"B.O","deliverystatus":"Delivery","statename":"NAGALAND","regionname":"North Eastern","circlename":"North Eastern","divisionname":"Nagaland","Taluk":"Meluri"},{"officename":"Aolijen B.O","pincode":"798601","officetype":"B.O","deliverystatus":"Delivery","statename":"NAGALAND","regionname":"North Eastern","circlename":"North Eastern","divisionname":"Nagaland","Taluk":"Mokokchung"},{"officename":"Arree Old B.O","pincode":"798601","officetype":"B.O","deliverystatus":"Delivery","statename":"NAGALAND","regionname":"North Eastern","circlename":"North Eastern","divisionname":"Nagaland","Taluk":"Mokokchung"},{"officename":"Changki B.O","pincode":"798601","officetype":"B.O","deliverystatus":"Delivery","statename":"NAGALAND","regionname":"North Eastern","circlename":"North Eastern","divisionname":"Nagaland","Taluk":"Mokokchung"}]