[{"officename":"SMU(Sikkim Manipal University)","pincode":"737102","officetype":"S.O","deliverystatus":"Non-Delivery","statename":"SIKKIM","regionname":"Calcutta HQ","circlename":"West Bengal","divisionname":"Sikkim","Taluk":"East District"},{"officename":"Gangtok H.O","pincode":"737101","officetype":"H.O","deliverystatus":"Delivery","statename":"SIKKIM","regionname":"Calcutta HQ","circlename":"West Bengal","divisionname":"Sikkim","Taluk":"Gangtok"},{"officename":"Chongey B.O","pincode":"737103","officetype":"B.O","deliverystatus":"Delivery","statename":"SIKKIM","regionname":"Calcutta HQ","circlename":"West Bengal","divisionname":"Sikkim","Taluk":"Gangtok"},{"officename":"Pachey Sansung B.O","pincode":"737106","officetype":"B.O","deliverystatus":"Delivery","statename":"SIKKIM","regionname":"Calcutta HQ","circlename":"West Bengal","divisionname":"Sikkim","Taluk":"Pakyong"},{"officename":"Kabi B.O","pincode":"737116","officetype":"B.O","deliverystatus":"Delivery","statename":"SIKKIM","regionname":"Calcutta HQ","circlename":"West Bengal","divisionname":"Sikkim","Taluk":"Mangan"},{"officename":"Pundong B.O","pincode":"737116","officetype":"B.O","deliverystatus":"Delivery","statename":"SIKKIM","regionname":"Calcutta HQ","circlename":"West Bengal","divisionname":"Sikkim","Taluk":"Mangan"},{"officename":"Makha B.O","pincode":"737134","officetype":"B.O","deliverystatus":"Delivery","statename":"SIKKIM","regionname":"Calcutta HQ","circlename":"West Bengal","divisionname":"Sikkim","Taluk":"Singtam"},{"officename":"Phensong B.O","pincode":"737116","officetype":"B.O","deliverystatus":"Delivery","statename":"SIKKIM","regionname":"Calcutta HQ","circlename":"West Bengal","divisionname":"Sikkim","Taluk":"Mangan"},{"officename":"Phudong B.O","pincode":"737116","officetype":"B.O","deliverystatus":"Delivery","statename":"SIKKIM","regionname":"Calcutta HQ","circlename":"West Bengal","divisionname":"Sikkim","Taluk":"Mangan"},{"officename":"Chungthang S.O","pincode":"737120","officetype":"S.O","deliverystatus":"Delivery","statename":"SIKKIM","regionname":"Calcutta HQ","circlename":"West Bengal","divisionname":"Sikkim","Taluk":"Chungthang"},{"officename":"Deorali S.O","pincode":"737102","officetype":"S.O","deliverystatus":"Non-Delivery","statename":"SIKKIM","regionname":"Calcutta HQ","circlename":"West Bengal","divisionname":"Sikkim","Taluk":"Gangtok"},{"officename":"Dikchu S.O","pincode":"737107","officetype":"S.O","deliverystatus":"Delivery","statename":"SIKKIM","regionname":"Calcutta HQ","circlename":"West Bengal","divisionname":"Sikkim","Taluk":"Dikchu"},{"officename":"Gayzing S.O","pincode":"737111","officetype":"S.O","deliverystatus":"Delivery","statename":"SIKKIM","regionname":"Calcutta HQ","circlename":"West Bengal","divisionname":"Sikkim","Taluk":"Gayzing"},{"officename":"Majitar S.O","pincode":"737136","officetype":"S.O","deliverystatus":"Delivery","statename":"SIKKIM","regionname":"Calcutta HQ","circlename":"West Bengal","divisionname":"Sikkim","Taluk":"Rangpo"},{"officename":"Mangan S.O","pincode":"737116","officetype":"S.O","deliverystatus":"Delivery","statename":"SIKKIM","regionname":"Calcutta HQ","circlename":"West Bengal","divisionname":"Sikkim","Taluk":"Mangan"},{"officename":"Melli Bazar S.O","pincode":"737128","officetype":"S.O","deliverystatus":"Delivery","statename":"SIKKIM","regionname":"Calcutta HQ","circlename":"West Bengal","divisionname":"Sikkim","Taluk":"Melli"},{"officename":"Namchi S.O","pincode":"737126","officetype":"S.O","deliverystatus":"Delivery","statename":"SIKKIM","regionname":"Calcutta HQ","circlename":"West Bengal","divisionname":"Sikkim","Taluk":"Namchi"},{"officename":"Naya Bazar S.O (West Sikkim)","pincode":"737121","officetype":"S.O","deliverystatus":"Delivery","statename":"SIKKIM","regionname":"Calcutta HQ","circlename":"West Bengal","divisionname":"Sikkim","Taluk":"Jorethang"},{"officename":"Pakyong S.O","pincode":"737106","officetype":"S.O","deliverystatus":"Delivery","statename":"SIKKIM","regionname":"Calcutta HQ","circlename":"West Bengal","divisionname":"Sikkim","Taluk":"Pakyong"},{"officename":"Pelling S.O","pincode":"737113","officetype":"S.O","deliverystatus":"Delivery","statename":"SIKKIM","regionname":"Calcutta HQ","circlename":"West Bengal","divisionname":"Sikkim","Taluk":"Pelling"},{"officename":"Rajbhawan S.O (East Sikkim)","pincode":"737103","officetype":"S.O","deliverystatus":"Delivery","statename":"SIKKIM","regionname":"Calcutta HQ","circlename":"West Bengal","divisionname":"Sikkim","Taluk":"Gangtok"},{"officename":"Rangli Bazar S.O","pincode":"737131","officetype":"S.O","deliverystatus":"Delivery","statename":"SIKKIM","regionname":"Calcutta HQ","circlename":"West Bengal","divisionname":"Sikkim","Taluk":"Rangli"},{"officename":"Rangpo S.O","pincode":"737132","officetype":"S.O","deliverystatus":"Delivery","statename":"SIKKIM","regionname":"Calcutta HQ","circlename":"West Bengal","divisionname":"Sikkim","Taluk":"Rangpo"},{"officename":"Ranipool S.O","pincode":"737135","officetype":"S.O","deliverystatus":"Delivery","statename":"SIKKIM","regionname":"Calcutta HQ","circlename":"West Bengal","divisionname":"Sikkim","Taluk":"Gangtok"},{"officename":"Ravangla S.O","pincode":"737139","officetype":"S.O","deliverystatus":"Delivery","statename":"SIKKIM","regionname":"Calcutta HQ","circlename":"West Bengal","divisionname":"Sikkim","Taluk":"Ravangla"},{"officename":"Rhenock S.O","pincode":"737133","officetype":"S.O","deliverystatus":"Delivery","statename":"SIKKIM","regionname":"Calcutta HQ","circlename":"West Bengal","divisionname":"Sikkim","Taluk":"Rhenock"},{"officename":"Sichey Gaon S.O","pincode":"737101","officetype":"S.O","deliverystatus":"Non-Delivery","statename":"SIKKIM","regionname":"Calcutta HQ","circlename":"West Bengal","divisionname":"Sikkim","Taluk":"Gangtok"},{"officename":"Singtam S.O","pincode":"737134","officetype":"S.O","deliverystatus":"Delivery","statename":"SIKKIM","regionname":"Calcutta HQ","circlename":"West Bengal","divisionname":"Sikkim","Taluk":"Singtam"},{"officename":"Tadong S.O","pincode":"737102","officetype":"S.O","deliverystatus":"Delivery","statename":"SIKKIM","regionname":"Calcutta HQ","circlename":"West Bengal","divisionname":"Sikkim","Taluk":"Gangtok"},{"officename":"Tashiling S.O","pincode":"737103","officetype":"S.O","deliverystatus":"Non-Delivery","statename":"SIKKIM","regionname":"Calcutta HQ","circlename":"West Bengal","divisionname":"Sikkim","Taluk":"Gangtok"},{"officename":"Bermiok B.O","pincode":"737113","officetype":"B.O","deliverystatus":"Delivery","statename":"SIKKIM","regionname":"Calcutta HQ","circlename":"West Bengal","divisionname":"Sikkim","Taluk":"Pelling"},{"officename":"Rateypani B.O","pincode":"737128","officetype":"B.O","deliverystatus":"Delivery","statename":"SIKKIM","regionname":"Calcutta HQ","circlename":"West Bengal","divisionname":"Sikkim","Taluk":"Melli"},{"officename":"Samdur B.O","pincode":"737102","officetype":"B.O","deliverystatus":"Delivery","statename":"SIKKIM","regionname":"Calcutta HQ","circlename":"West Bengal","divisionname":"Sikkim","Taluk":"Gangtok"},{"officename":"Mamring B.O","pincode":"737132","officetype":"B.O","deliverystatus":"Delivery","statename":"SIKKIM","regionname":"Calcutta HQ","circlename":"West Bengal","divisionname":"Sikkim","Taluk":"Rangpo"},{"officename":"Tingvong B.O","pincode":"737116","officetype":"B.O","deliverystatus":"Delivery","statename":"SIKKIM","regionname":"Calcutta HQ","circlename":"West Bengal","divisionname":"Sikkim","Taluk":"Mangan"},{"officename":"Rautey-rumtek B.O","pincode":"737135","officetype":"B.O","deliverystatus":"Delivery","statename":"SIKKIM","regionname":"Calcutta HQ","circlename":"West Bengal","divisionname":"Sikkim","Taluk":"Ranipool / Gangtok"},{"officename":"Rolep B.O","pincode":"737131","officetype":"B.O","deliverystatus":"Delivery","statename":"SIKKIM","regionname":"Calcutta HQ","circlename":"West Bengal","divisionname":"Sikkim","Taluk":"Rangli"},{"officename":"Reshi B.O","pincode":"737121","officetype":"B.O","deliverystatus":"Delivery","statename":"SIKKIM","regionname":"Calcutta HQ","circlename":"West Bengal","divisionname":"Sikkim","Taluk":"Jorethang"},{"officename":"Ray-mindu B.O","pincode":"737135","officetype":"B.O","deliverystatus":"Delivery","statename":"SIKKIM","regionname":"Calcutta HQ","circlename":"West Bengal","divisionname":"Sikkim","Taluk":"Ranipool"},{"officename":"Rimbi B.O","pincode":"737113","officetype":"B.O","deliverystatus":"Delivery","statename":"SIKKIM","regionname":"Calcutta HQ","circlename":"West Bengal","divisionname":"Sikkim","Taluk":"Pelling"},{"officename":"Rinchenpong B.O","pincode":"737111","officetype":"B.O","deliverystatus":"Delivery","statename":"SIKKIM","regionname":"Calcutta HQ","circlename":"West Bengal","divisionname":"Sikkim","Taluk":"Gayzing"},{"officename":"Rong B.O","pincode":"737126","officetype":"B.O","deliverystatus":"Delivery","statename":"SIKKIM","regionname":"Calcutta HQ","circlename":"West Bengal","divisionname":"Sikkim","Taluk":"Namchi"},{"officename":"Gor B.O","pincode":"737107","officetype":"B.O","deliverystatus":"Delivery","statename":"SIKKIM","regionname":"Calcutta HQ","circlename":"West Bengal","divisionname":"Sikkim","Taluk":"Dikchu"},{"officename":"Hee Gaon B.O","pincode":"737113","officetype":"B.O","deliverystatus":"Delivery","statename":"SIKKIM","regionname":"Calcutta HQ","circlename":"West Bengal","divisionname":"Sikkim","Taluk":"Pelling"},{"officename":"Kaluk B.O","pincode":"737113","officetype":"B.O","deliverystatus":"Delivery","statename":"SIKKIM","regionname":"Calcutta HQ","circlename":"West Bengal","divisionname":"Sikkim","Taluk":"Pelling"},{"officename":"Karjee B.O","pincode":"737111","officetype":"B.O","deliverystatus":"Delivery","statename":"SIKKIM","regionname":"Calcutta HQ","circlename":"West Bengal","divisionname":"Sikkim","Taluk":"Gayzing"},{"officename":"Karmatar B.O","pincode":"737113","officetype":"B.O","deliverystatus":"Delivery","statename":"SIKKIM","regionname":"Calcutta HQ","circlename":"West Bengal","divisionname":"Sikkim","Taluk":"Pelling"},{"officename":"Kateng Bokrang B.O","pincode":"737132","officetype":"B.O","deliverystatus":"Delivery","statename":"SIKKIM","regionname":"Calcutta HQ","circlename":"West Bengal","divisionname":"Sikkim","Taluk":"Rangpo"},{"officename":"Kerabari B.O","pincode":"737128","officetype":"B.O","deliverystatus":"Delivery","statename":"SIKKIM","regionname":"Calcutta HQ","circlename":"West Bengal","divisionname":"Sikkim","Taluk":"Melli"},{"officename":"Kewzing B.O","pincode":"737139","officetype":"B.O","deliverystatus":"Delivery","statename":"SIKKIM","regionname":"Calcutta HQ","circlename":"West Bengal","divisionname":"Sikkim","Taluk":"Ravangla"},{"officename":"Khamdong B.O","pincode":"737134","officetype":"B.O","deliverystatus":"Delivery","statename":"SIKKIM","regionname":"Calcutta HQ","circlename":"West Bengal","divisionname":"Sikkim","Taluk":"Singtam"},{"officename":"Karthok B.O","pincode":"737106","officetype":"B.O","deliverystatus":"Delivery","statename":"SIKKIM","regionname":"Calcutta HQ","circlename":"West Bengal","divisionname":"Sikkim","Taluk":"Pakyong"},{"officename":"Khechuperi B.O","pincode":"737113","officetype":"B.O","deliverystatus":"Delivery","statename":"SIKKIM","regionname":"Calcutta HQ","circlename":"West Bengal","divisionname":"Sikkim","Taluk":"Pelling"},{"officename":"Kitam B.O","pincode":"737126","officetype":"B.O","deliverystatus":"Delivery","statename":"SIKKIM","regionname":"Calcutta HQ","circlename":"West Bengal","divisionname":"Sikkim","Taluk":"Namchi"},{"officename":"Kokalay B.O","pincode":"737134","officetype":"B.O","deliverystatus":"Delivery","statename":"SIKKIM","regionname":"Calcutta HQ","circlename":"West Bengal","divisionname":"Sikkim","Taluk":"Singtam"},{"officename":"Kyanglasha B.O","pincode":"737102","officetype":"B.O","deliverystatus":"Delivery","statename":"SIKKIM","regionname":"Calcutta HQ","circlename":"West Bengal","divisionname":"Sikkim","Taluk":"Gangtok"},{"officename":"Kupup B.O","pincode":"737102","officetype":"B.O","deliverystatus":"Delivery","statename":"SIKKIM","regionname":"Calcutta HQ","circlename":"West Bengal","divisionname":"Sikkim","Taluk":"Namchi"},{"officename":"Lachen B.O","pincode":"737120","officetype":"B.O","deliverystatus":"Delivery","statename":"SIKKIM","regionname":"Calcutta HQ","circlename":"West Bengal","divisionname":"Sikkim","Taluk":"Chungthang"},{"officename":"Lachung B.O","pincode":"737120","officetype":"B.O","deliverystatus":"Delivery","statename":"SIKKIM","regionname":"Calcutta HQ","circlename":"West Bengal","divisionname":"Sikkim","Taluk":"Chungthang"},{"officename":"Rorathang B.O","pincode":"737133","officetype":"B.O","deliverystatus":"Delivery","statename":"SIKKIM","regionname":"Calcutta HQ","circlename":"West Bengal","divisionname":"Sikkim","Taluk":"Rhenock"},{"officename":"Rumtek B.O","pincode":"737135","officetype":"B.O","deliverystatus":"Delivery","statename":"SIKKIM","regionname":"Calcutta HQ","circlename":"West Bengal","divisionname":"Sikkim","Taluk":"Ranipool"},{"officename":"Sadam B.O","pincode":"737128","officetype":"B.O","deliverystatus":"Delivery","statename":"SIKKIM","regionname":"Calcutta HQ","circlename":"West Bengal","divisionname":"Sikkim","Taluk":"Melli"},{"officename":"Sakhu Busty B.O","pincode":"737134","officetype":"B.O","deliverystatus":"Delivery","statename":"SIKKIM","regionname":"Calcutta HQ","circlename":"West Bengal","divisionname":"Sikkim","Taluk":"Singtam"},{"officename":"Samdong B.O","pincode":"737107","officetype":"B.O","deliverystatus":"Delivery","statename":"SIKKIM","regionname":"Calcutta HQ","circlename":"West Bengal","divisionname":"Sikkim","Taluk":"Dikchu"},{"officename":"Bhaluthang B.O","pincode":"737111","officetype":"B.O","deliverystatus":"Delivery","statename":"SIKKIM","regionname":"Calcutta HQ","circlename":"West Bengal","divisionname":"Sikkim","Taluk":"Gayzing"},{"officename":"Bojoghari B.O","pincode":"737103","officetype":"B.O","deliverystatus":"Delivery","statename":"SIKKIM","regionname":"Calcutta HQ","circlename":"West Bengal","divisionname":"Sikkim","Taluk":"Gangtok"},{"officename":"Bhusuk B.O","pincode":"737103","officetype":"B.O","deliverystatus":"Delivery","statename":"SIKKIM","regionname":"Calcutta HQ","circlename":"West Bengal","divisionname":"Sikkim","Taluk":"Gangtok"},{"officename":"Bering B.O","pincode":"737106","officetype":"B.O","deliverystatus":"Delivery","statename":"SIKKIM","regionname":"Calcutta HQ","circlename":"West Bengal","divisionname":"Sikkim","Taluk":"Pakyong"},{"officename":"Budang B.O","pincode":"737121","officetype":"B.O","deliverystatus":"Delivery","statename":"SIKKIM","regionname":"Calcutta HQ","circlename":"West Bengal","divisionname":"Sikkim","Taluk":"Jorethang"},{"officename":"Nandok B.O","pincode":"737135","officetype":"B.O","deliverystatus":"Delivery","statename":"SIKKIM","regionname":"Calcutta HQ","circlename":"West Bengal","divisionname":"Sikkim","Taluk":"Ranipool / Gangtok"},{"officename":"Nandugaon B.O","pincode":"737126","officetype":"B.O","deliverystatus":"Delivery","statename":"SIKKIM","regionname":"Calcutta HQ","circlename":"West Bengal","divisionname":"Sikkim","Taluk":"Namchi"},{"officename":"Nazitam B.O","pincode":"737134","officetype":"B.O","deliverystatus":"Delivery","statename":"SIKKIM","regionname":"Calcutta HQ","circlename":"West Bengal","divisionname":"Sikkim","Taluk":"Singtam"},{"officename":"Neya B.O","pincode":"737134","officetype":"B.O","deliverystatus":"Delivery","statename":"SIKKIM","regionname":"Calcutta HQ","circlename":"West Bengal","divisionname":"Sikkim","Taluk":"Singtam"},{"officename":"North Regu B.O","pincode":"737131","officetype":"B.O","deliverystatus":"Delivery","statename":"SIKKIM","regionname":"Calcutta HQ","circlename":"West Bengal","divisionname":"Sikkim","Taluk":"Rangli"},{"officename":"Okharey B.O","pincode":"737121","officetype":"B.O","deliverystatus":"Delivery","statename":"SIKKIM","regionname":"Calcutta HQ","circlename":"West Bengal","divisionname":"Sikkim","Taluk":"Jorethang"},{"officename":"Pabong B.O","pincode":"737126","officetype":"B.O","deliverystatus":"Delivery","statename":"SIKKIM","regionname":"Calcutta HQ","circlename":"West Bengal","divisionname":"Sikkim","Taluk":"Namchi"},{"officename":"Pabyiok B.O","pincode":"737102","officetype":"B.O","deliverystatus":"Delivery","statename":"SIKKIM","regionname":"Calcutta HQ","circlename":"West Bengal","divisionname":"Sikkim","Taluk":"Gangtok"},{"officename":"Pacheykhani B.O","pincode":"737106","officetype":"B.O","deliverystatus":"Delivery","statename":"SIKKIM","regionname":"Calcutta HQ","circlename":"West Bengal","divisionname":"Sikkim","Taluk":"Pakyong"},{"officename":"Phadamchen B.O","pincode":"737131","officetype":"B.O","deliverystatus":"Delivery","statename":"SIKKIM","regionname":"Calcutta HQ","circlename":"West Bengal","divisionname":"Sikkim","Taluk":"Rangli"},{"officename":"Payiong B.O","pincode":"737128","officetype":"B.O","deliverystatus":"Delivery","statename":"SIKKIM","regionname":"Calcutta HQ","circlename":"West Bengal","divisionname":"Sikkim","Taluk":"Melli"},{"officename":"Perbing B.O","pincode":"737126","officetype":"B.O","deliverystatus":"Delivery","statename":"SIKKIM","regionname":"Calcutta HQ","circlename":"West Bengal","divisionname":"Sikkim","Taluk":"Namchi"},{"officename":"Parkha B.O","pincode":"737106","officetype":"B.O","deliverystatus":"Delivery","statename":"SIKKIM","regionname":"Calcutta HQ","circlename":"West Bengal","divisionname":"Sikkim","Taluk":"Pakyong"},{"officename":"Penlong B.O","pincode":"737103","officetype":"B.O","deliverystatus":"Delivery","statename":"SIKKIM","regionname":"Calcutta HQ","circlename":"West Bengal","divisionname":"Sikkim","Taluk":"Gangtok"},{"officename":"Phalidara B.O","pincode":"737126","officetype":"B.O","deliverystatus":"Delivery","statename":"SIKKIM","regionname":"Calcutta HQ","circlename":"West Bengal","divisionname":"Sikkim","Taluk":"Namchi"},{"officename":"Phamtam B.O","pincode":"737116","officetype":"B.O","deliverystatus":"Delivery","statename":"SIKKIM","regionname":"Calcutta HQ","circlename":"West Bengal","divisionname":"Sikkim","Taluk":"Mangan"},{"officename":"Phamtam B.O","pincode":"737139","officetype":"B.O","deliverystatus":"Delivery","statename":"SIKKIM","regionname":"Calcutta HQ","circlename":"West Bengal","divisionname":"Sikkim","Taluk":"Ravangla"},{"officename":"Pipalay B.O","pincode":"737121","officetype":"B.O","deliverystatus":"Delivery","statename":"SIKKIM","regionname":"Calcutta HQ","circlename":"West Bengal","divisionname":"Sikkim","Taluk":"Jorethang"},{"officename":"Poklok B.O","pincode":"737126","officetype":"B.O","deliverystatus":"Delivery","statename":"SIKKIM","regionname":"Calcutta HQ","circlename":"West Bengal","divisionname":"Sikkim","Taluk":"Namchi"},{"officename":"Radhu Khandu B.O","pincode":"737113","officetype":"B.O","deliverystatus":"Delivery","statename":"SIKKIM","regionname":"Calcutta HQ","circlename":"West Bengal","divisionname":"Sikkim","Taluk":"Pelling"},{"officename":"Rakdong B.O","pincode":"737107","officetype":"B.O","deliverystatus":"Delivery","statename":"SIKKIM","regionname":"Calcutta HQ","circlename":"West Bengal","divisionname":"Sikkim","Taluk":"Dikchu"},{"officename":"Ralang B.O","pincode":"737139","officetype":"B.O","deliverystatus":"Delivery","statename":"SIKKIM","regionname":"Calcutta HQ","circlename":"West Bengal","divisionname":"Sikkim","Taluk":"Ravangla"},{"officename":"Ramthang B.O","pincode":"737116","officetype":"B.O","deliverystatus":"Delivery","statename":"SIKKIM","regionname":"Calcutta HQ","circlename":"West Bengal","divisionname":"Sikkim","Taluk":"Mangan"},{"officename":"Raley Khesey B.O","pincode":"737107","officetype":"B.O","deliverystatus":"Delivery","statename":"SIKKIM","regionname":"Calcutta HQ","circlename":"West Bengal","divisionname":"Sikkim","Taluk":"Dikchu"},{"officename":"Rangrang B.O","pincode":"737116","officetype":"B.O","deliverystatus":"Delivery","statename":"SIKKIM","regionname":"Calcutta HQ","circlename":"West Bengal","divisionname":"Sikkim","Taluk":"Mangan"},{"officename":"Rangship B.O","pincode":"737111","officetype":"B.O","deliverystatus":"Delivery","statename":"SIKKIM","regionname":"Calcutta HQ","circlename":"West Bengal","divisionname":"Sikkim","Taluk":"Gayzing"},{"officename":"Samlick-marchak B.O","pincode":"737135","officetype":"B.O","deliverystatus":"Delivery","statename":"SIKKIM","regionname":"Calcutta HQ","circlename":"West Bengal","divisionname":"Sikkim","Taluk":"Ranipool"},{"officename":"Sanchabarey Daramdim B.O","pincode":"737121","officetype":"B.O","deliverystatus":"Delivery","statename":"SIKKIM","regionname":"Calcutta HQ","circlename":"West Bengal","divisionname":"Sikkim","Taluk":"Jorethang"},{"officename":"Sanganath B.O","pincode":"737121","officetype":"B.O","deliverystatus":"Delivery","statename":"SIKKIM","regionname":"Calcutta HQ","circlename":"West Bengal","divisionname":"Sikkim","Taluk":"Jorethang"},{"officename":"Sangkhola B.O","pincode":"737134","officetype":"B.O","deliverystatus":"Delivery","statename":"SIKKIM","regionname":"Calcutta HQ","circlename":"West Bengal","divisionname":"Sikkim","Taluk":"Singtam"},{"officename":"Sangmoo B.O","pincode":"737139","officetype":"B.O","deliverystatus":"Delivery","statename":"SIKKIM","regionname":"Calcutta HQ","circlename":"West Bengal","divisionname":"Sikkim","Taluk":"Ravangla"},{"officename":"Sangkalan B.O","pincode":"737116","officetype":"B.O","deliverystatus":"Delivery","statename":"SIKKIM","regionname":"Calcutta HQ","circlename":"West Bengal","divisionname":"Sikkim","Taluk":"Mangan"},{"officename":"Sherathang B.O","pincode":"737102","officetype":"B.O","deliverystatus":"Delivery","statename":"SIKKIM","regionname":"Calcutta HQ","circlename":"West Bengal","divisionname":"Sikkim","Taluk":"Gangtok"},{"officename":"Shalghari B.O","pincode":"737126","officetype":"B.O","deliverystatus":"Delivery","statename":"SIKKIM","regionname":"Calcutta HQ","circlename":"West Bengal","divisionname":"Sikkim","Taluk":"Namchi"},{"officename":"Shipgyare B.O","pincode":"737120","officetype":"B.O","deliverystatus":"Delivery","statename":"SIKKIM","regionname":"Calcutta HQ","circlename":"West Bengal","divisionname":"Sikkim","Taluk":"Chungthang"},{"officename":"Shivalaya Mandir Lingsey B.O","pincode":"737133","officetype":"B.O","deliverystatus":"Delivery","statename":"SIKKIM","regionname":"Calcutta HQ","circlename":"West Bengal","divisionname":"Sikkim","Taluk":"Rhenock"},{"officename":"Latuk B.O","pincode":"737131","officetype":"B.O","deliverystatus":"Delivery","statename":"SIKKIM","regionname":"Calcutta HQ","circlename":"West Bengal","divisionname":"Sikkim","Taluk":"Rangli"},{"officename":"Legship B.O","pincode":"737111","officetype":"B.O","deliverystatus":"Delivery","statename":"SIKKIM","regionname":"Calcutta HQ","circlename":"West Bengal","divisionname":"Sikkim","Taluk":"Gayzing"},{"officename":"Lingchom B.O","pincode":"737111","officetype":"B.O","deliverystatus":"Delivery","statename":"SIKKIM","regionname":"Calcutta HQ","circlename":"West Bengal","divisionname":"Sikkim","Taluk":"Gayzing"},{"officename":"Lingdem B.O","pincode":"737116","officetype":"B.O","deliverystatus":"Delivery","statename":"SIKKIM","regionname":"Calcutta HQ","circlename":"West Bengal","divisionname":"Sikkim","Taluk":"Mangan"},{"officename":"Lingdok B.O","pincode":"737103","officetype":"B.O","deliverystatus":"Delivery","statename":"SIKKIM","regionname":"Calcutta HQ","circlename":"West Bengal","divisionname":"Sikkim","Taluk":"Gangtok"},{"officename":"Lingdum B.O","pincode":"737102","officetype":"B.O","deliverystatus":"Delivery","statename":"SIKKIM","regionname":"Calcutta HQ","circlename":"West Bengal","divisionname":"Sikkim","Taluk":"Gangtok"},{"officename":"Lingee B.O","pincode":"737134","officetype":"B.O","deliverystatus":"Delivery","statename":"SIKKIM","regionname":"Calcutta HQ","circlename":"West Bengal","divisionname":"Sikkim","Taluk":"Singtam"},{"officename":"Lingmoo B.O","pincode":"737134","officetype":"B.O","deliverystatus":"Delivery","statename":"SIKKIM","regionname":"Calcutta HQ","circlename":"West Bengal","divisionname":"Sikkim","Taluk":"Singtam"},{"officename":"Lingtam B.O","pincode":"737131","officetype":"B.O","deliverystatus":"Delivery","statename":"SIKKIM","regionname":"Calcutta HQ","circlename":"West Bengal","divisionname":"Sikkim","Taluk":"Rangli"},{"officename":"Lingthem B.O","pincode":"737116","officetype":"B.O","deliverystatus":"Delivery","statename":"SIKKIM","regionname":"Calcutta HQ","circlename":"West Bengal","divisionname":"Sikkim","Taluk":"Mangan"},{"officename":"Linkey B.O","pincode":"737106","officetype":"B.O","deliverystatus":"Delivery","statename":"SIKKIM","regionname":"Calcutta HQ","circlename":"West Bengal","divisionname":"Sikkim","Taluk":"Pakyong"},{"officename":"Lingzey B.O","pincode":"737134","officetype":"B.O","deliverystatus":"Delivery","statename":"SIKKIM","regionname":"Calcutta HQ","circlename":"West Bengal","divisionname":"Sikkim","Taluk":"Singtam"},{"officename":"Luing B.O","pincode":"737103","officetype":"B.O","deliverystatus":"Delivery","statename":"SIKKIM","regionname":"Calcutta HQ","circlename":"West Bengal","divisionname":"Sikkim","Taluk":"Gangtok"},{"officename":"Lungchuk B.O","pincode":"737128","officetype":"B.O","deliverystatus":"Delivery","statename":"SIKKIM","regionname":"Calcutta HQ","circlename":"West Bengal","divisionname":"Sikkim","Taluk":"Melli"},{"officename":"Lower Dzongu B.O","pincode":"737116","officetype":"B.O","deliverystatus":"Delivery","statename":"SIKKIM","regionname":"Calcutta HQ","circlename":"West Bengal","divisionname":"Sikkim","Taluk":"Mangan"},{"officename":"Lumlingthyang B.O","pincode":"737107","officetype":"B.O","deliverystatus":"Delivery","statename":"SIKKIM","regionname":"Calcutta HQ","circlename":"West Bengal","divisionname":"Sikkim","Taluk":"Dikchu"},{"officename":"Lunsing B.O","pincode":"737139","officetype":"B.O","deliverystatus":"Delivery","statename":"SIKKIM","regionname":"Calcutta HQ","circlename":"West Bengal","divisionname":"Sikkim","Taluk":"NAMCHI"},{"officename":"Majitar B.O","pincode":"737121","officetype":"B.O","deliverystatus":"Delivery","statename":"SIKKIM","regionname":"Calcutta HQ","circlename":"West Bengal","divisionname":"Sikkim","Taluk":"Jorethang"},{"officename":"Malbasey B.O","pincode":"737121","officetype":"B.O","deliverystatus":"Delivery","statename":"SIKKIM","regionname":"Calcutta HQ","circlename":"West Bengal","divisionname":"Sikkim","Taluk":"Jorethang"},{"officename":"Maney Dara B.O","pincode":"737132","officetype":"B.O","deliverystatus":"Delivery","statename":"SIKKIM","regionname":"Calcutta HQ","circlename":"West Bengal","divisionname":"Sikkim","Taluk":"Rangpo"},{"officename":"Maniram B.O","pincode":"737126","officetype":"B.O","deliverystatus":"Delivery","statename":"SIKKIM","regionname":"Calcutta HQ","circlename":"West Bengal","divisionname":"Sikkim","Taluk":"Namchi"},{"officename":"Manpur B.O","pincode":"737128","officetype":"B.O","deliverystatus":"Delivery","statename":"SIKKIM","regionname":"Calcutta HQ","circlename":"West Bengal","divisionname":"Sikkim","Taluk":"Melli"},{"officename":"Manul B.O","pincode":"737116","officetype":"B.O","deliverystatus":"Delivery","statename":"SIKKIM","regionname":"Calcutta HQ","circlename":"West Bengal","divisionname":"Sikkim","Taluk":"Mangan"},{"officename":"Mechi Aching B.O","pincode":"737113","officetype":"B.O","deliverystatus":"Delivery","statename":"SIKKIM","regionname":"Calcutta HQ","circlename":"West Bengal","divisionname":"Sikkim","Taluk":"Pelling"},{"officename":"Melli Dara B.O","pincode":"737128","officetype":"B.O","deliverystatus":"Delivery","statename":"SIKKIM","regionname":"Calcutta HQ","circlename":"West Bengal","divisionname":"Sikkim","Taluk":"Melli"},{"officename":"Men Rong Rong B.O","pincode":"737116","officetype":"B.O","deliverystatus":"Delivery","statename":"SIKKIM","regionname":"Calcutta HQ","circlename":"West Bengal","divisionname":"Sikkim","Taluk":"Mangan"},{"officename":"Middle Camp B.O","pincode":"737135","officetype":"B.O","deliverystatus":"Delivery","statename":"SIKKIM","regionname":"Calcutta HQ","circlename":"West Bengal","divisionname":"Sikkim","Taluk":"Ranipool"},{"officename":"Mic Khola B.O","pincode":"737126","officetype":"B.O","deliverystatus":"Delivery","statename":"SIKKIM","regionname":"Calcutta HQ","circlename":"West Bengal","divisionname":"Sikkim","Taluk":"Namchi"},{"officename":"Naga B.O","pincode":"737120","officetype":"B.O","deliverystatus":"Delivery","statename":"SIKKIM","regionname":"Calcutta HQ","circlename":"West Bengal","divisionname":"Sikkim","Taluk":"Chungthang"},{"officename":"Namcheybong B.O","pincode":"737106","officetype":"B.O","deliverystatus":"Delivery","statename":"SIKKIM","regionname":"Calcutta HQ","circlename":"West Bengal","divisionname":"Sikkim","Taluk":"Pakyong"},{"officename":"Namok B.O","pincode":"737116","officetype":"B.O","deliverystatus":"Delivery","statename":"SIKKIM","regionname":"Calcutta HQ","circlename":"West Bengal","divisionname":"Sikkim","Taluk":"Mangan"},{"officename":"Namphing B.O","pincode":"737134","officetype":"B.O","deliverystatus":"Delivery","statename":"SIKKIM","regionname":"Calcutta HQ","circlename":"West Bengal","divisionname":"Sikkim","Taluk":"Singtam"},{"officename":"Namphu B.O","pincode":"737113","officetype":"B.O","deliverystatus":"Delivery","statename":"SIKKIM","regionname":"Calcutta HQ","circlename":"West Bengal","divisionname":"Sikkim","Taluk":"Pelling"},{"officename":"Namthang B.O","pincode":"737132","officetype":"B.O","deliverystatus":"Delivery","statename":"SIKKIM","regionname":"Calcutta HQ","circlename":"West Bengal","divisionname":"Sikkim","Taluk":"Rangpo"},{"officename":"Sinchuthang B.O","pincode":"737134","officetype":"B.O","deliverystatus":"Delivery","statename":"SIKKIM","regionname":"Calcutta HQ","circlename":"West Bengal","divisionname":"Sikkim","Taluk":"Singtam"},{"officename":"Sinek B.O","pincode":"737111","officetype":"B.O","deliverystatus":"Delivery","statename":"SIKKIM","regionname":"Calcutta HQ","circlename":"West Bengal","divisionname":"Sikkim","Taluk":"Gayzing"},{"officename":"Singhik B.O","pincode":"737116","officetype":"B.O","deliverystatus":"Delivery","statename":"SIKKIM","regionname":"Calcutta HQ","circlename":"West Bengal","divisionname":"Sikkim","Taluk":"Mangan"},{"officename":"Singhithang B.O","pincode":"737126","officetype":"B.O","deliverystatus":"Delivery","statename":"SIKKIM","regionname":"Calcutta HQ","circlename":"West Bengal","divisionname":"Sikkim","Taluk":"Namchi"},{"officename":"Sombaria B.O","pincode":"737121","officetype":"B.O","deliverystatus":"Delivery","statename":"SIKKIM","regionname":"Calcutta HQ","circlename":"West Bengal","divisionname":"Sikkim","Taluk":"Jorethang"},{"officename":"Sang B.O","pincode":"737134","officetype":"B.O","deliverystatus":"Delivery","statename":"SIKKIM","regionname":"Calcutta HQ","circlename":"West Bengal","divisionname":"Sikkim","Taluk":"Singtam"},{"officename":"Soreng B.O","pincode":"737121","officetype":"B.O","deliverystatus":"Delivery","statename":"SIKKIM","regionname":"Calcutta HQ","circlename":"West Bengal","divisionname":"Sikkim","Taluk":"Jorethang"},{"officename":"Sorok B.O","pincode":"737126","officetype":"B.O","deliverystatus":"Delivery","statename":"SIKKIM","regionname":"Calcutta HQ","circlename":"West Bengal","divisionname":"Sikkim","Taluk":"Namchi"},{"officename":"South Regu B.O","pincode":"737131","officetype":"B.O","deliverystatus":"Delivery","statename":"SIKKIM","regionname":"Calcutta HQ","circlename":"West Bengal","divisionname":"Sikkim","Taluk":"Rangli"},{"officename":"Sri Badam B.O","pincode":"737121","officetype":"B.O","deliverystatus":"Delivery","statename":"SIKKIM","regionname":"Calcutta HQ","circlename":"West Bengal","divisionname":"Sikkim","Taluk":"Jorethang"},{"officename":"Sumbuk B.O","pincode":"737128","officetype":"B.O","deliverystatus":"Delivery","statename":"SIKKIM","regionname":"Calcutta HQ","circlename":"West Bengal","divisionname":"Sikkim","Taluk":"Melli"},{"officename":"Sudunglakha B.O","pincode":"737133","officetype":"B.O","deliverystatus":"Delivery","statename":"SIKKIM","regionname":"Calcutta HQ","circlename":"West Bengal","divisionname":"Sikkim","Taluk":"Rhenock"},{"officename":"Suldung B.O","pincode":"737121","officetype":"B.O","deliverystatus":"Delivery","statename":"SIKKIM","regionname":"Calcutta HQ","circlename":"West Bengal","divisionname":"Sikkim","Taluk":"Jorethang"},{"officename":"Sumin B.O","pincode":"737134","officetype":"B.O","deliverystatus":"Delivery","statename":"SIKKIM","regionname":"Calcutta HQ","circlename":"West Bengal","divisionname":"Sikkim","Taluk":"Singtam"},{"officename":"Takuthang B.O","pincode":"737121","officetype":"B.O","deliverystatus":"Delivery","statename":"SIKKIM","regionname":"Calcutta HQ","circlename":"West Bengal","divisionname":"Sikkim","Taluk":"Jorethang"},{"officename":"Tarku B.O","pincode":"737134","officetype":"B.O","deliverystatus":"Delivery","statename":"SIKKIM","regionname":"Calcutta HQ","circlename":"West Bengal","divisionname":"Sikkim","Taluk":"Singtam"},{"officename":"Tashiding B.O","pincode":"737111","officetype":"B.O","deliverystatus":"Delivery","statename":"SIKKIM","regionname":"Calcutta HQ","circlename":"West Bengal","divisionname":"Sikkim","Taluk":"Gayzing"},{"officename":"Taza B.O","pincode":"737133","officetype":"B.O","deliverystatus":"Delivery","statename":"SIKKIM","regionname":"Calcutta HQ","circlename":"West Bengal","divisionname":"Sikkim","Taluk":"Rhenock"},{"officename":"Tharpu B.O","pincode":"737121","officetype":"B.O","deliverystatus":"Delivery","statename":"SIKKIM","regionname":"Calcutta HQ","circlename":"West Bengal","divisionname":"Sikkim","Taluk":"Jorethang"},{"officename":"Thingling B.O","pincode":"737113","officetype":"B.O","deliverystatus":"Delivery","statename":"SIKKIM","regionname":"Calcutta HQ","circlename":"West Bengal","divisionname":"Sikkim","Taluk":"Pelling"},{"officename":"Tikpur B.O","pincode":"737121","officetype":"B.O","deliverystatus":"Delivery","statename":"SIKKIM","regionname":"Calcutta HQ","circlename":"West Bengal","divisionname":"Sikkim","Taluk":"Jorethang"},{"officename":"Timburbong B.O","pincode":"737121","officetype":"B.O","deliverystatus":"Delivery","statename":"SIKKIM","regionname":"Calcutta HQ","circlename":"West Bengal","divisionname":"Sikkim","Taluk":"Jorethang"},{"officename":"Temi Tarku B.O","pincode":"737134","officetype":"B.O","deliverystatus":"Delivery","statename":"SIKKIM","regionname":"Calcutta HQ","circlename":"West Bengal","divisionname":"Sikkim","Taluk":"Singtam"},{"officename":"Tingchim B.O","pincode":"737116","officetype":"B.O","deliverystatus":"Delivery","statename":"SIKKIM","regionname":"Calcutta HQ","circlename":"West Bengal","divisionname":"Sikkim","Taluk":"Mangan"},{"officename":"Tingmoo B.O","pincode":"737139","officetype":"B.O","deliverystatus":"Delivery","statename":"SIKKIM","regionname":"Calcutta HQ","circlename":"West Bengal","divisionname":"Sikkim","Taluk":"Ravangla"},{"officename":"Tinkitam B.O","pincode":"737139","officetype":"B.O","deliverystatus":"Delivery","statename":"SIKKIM","regionname":"Calcutta HQ","circlename":"West Bengal","divisionname":"Sikkim","Taluk":"Ravangla"},{"officename":"Tshalamthang B.O","pincode":"737106","officetype":"B.O","deliverystatus":"Delivery","statename":"SIKKIM","regionname":"Calcutta HQ","circlename":"West Bengal","divisionname":"Sikkim","Taluk":"Pakyong"},{"officename":"Tumin B.O","pincode":"737134","officetype":"B.O","deliverystatus":"Delivery","statename":"SIKKIM","regionname":"Calcutta HQ","circlename":"West Bengal","divisionname":"Sikkim","Taluk":"Singtam"},{"officename":"Turuk B.O","pincode":"737128","officetype":"B.O","deliverystatus":"Delivery","statename":"SIKKIM","regionname":"Calcutta HQ","circlename":"West Bengal","divisionname":"Sikkim","Taluk":"Melli"},{"officename":"Turung B.O","pincode":"737132","officetype":"B.O","deliverystatus":"Delivery","statename":"SIKKIM","regionname":"Calcutta HQ","circlename":"West Bengal","divisionname":"Sikkim","Taluk":"Rangpo"},{"officename":"Upper Dalapchand B.O","pincode":"737133","officetype":"B.O","deliverystatus":"Delivery","statename":"SIKKIM","regionname":"Calcutta HQ","circlename":"West Bengal","divisionname":"Sikkim","Taluk":"Rhenock"},{"officename":"Upper Khamdong B.O","pincode":"737133","officetype":"B.O","deliverystatus":"Delivery","statename":"SIKKIM","regionname":"Calcutta HQ","circlename":"West Bengal","divisionname":"Sikkim","Taluk":"Rhenock"},{"officename":"Upper Martam B.O","pincode":"737135","officetype":"B.O","deliverystatus":"Delivery","statename":"SIKKIM","regionname":"Calcutta HQ","circlename":"West Bengal","divisionname":"Sikkim","Taluk":"Ranipool / Gangtok"},{"officename":"Upper Pendam B.O","pincode":"737132","officetype":"B.O","deliverystatus":"Delivery","statename":"SIKKIM","regionname":"Calcutta HQ","circlename":"West Bengal","divisionname":"Sikkim","Taluk":"Rangpo"},{"officename":"Uttarey B.O","pincode":"737113","officetype":"B.O","deliverystatus":"Delivery","statename":"SIKKIM","regionname":"Calcutta HQ","circlename":"West Bengal","divisionname":"Sikkim","Taluk":"Pelling"},{"officename":"Wok B.O","pincode":"737126","officetype":"B.O","deliverystatus":"Delivery","statename":"SIKKIM","regionname":"Calcutta HQ","circlename":"West Bengal","divisionname":"Sikkim","Taluk":"Namchi"},{"officename":"West Pendam B.O","pincode":"737134","officetype":"B.O","deliverystatus":"Delivery","statename":"SIKKIM","regionname":"Calcutta HQ","circlename":"West Bengal","divisionname":"Sikkim","Taluk":"Singtam"},{"officename":"Yangtey B.O","pincode":"737111","officetype":"B.O","deliverystatus":"Delivery","statename":"SIKKIM","regionname":"Calcutta HQ","circlename":"West Bengal","divisionname":"Sikkim","Taluk":"Gayzing"},{"officename":"Yangthang B.O","pincode":"737111","officetype":"B.O","deliverystatus":"Delivery","statename":"SIKKIM","regionname":"Calcutta HQ","circlename":"West Bengal","divisionname":"Sikkim","Taluk":"Gayzing"},{"officename":"Yangyang B.O","pincode":"737134","officetype":"B.O","deliverystatus":"Delivery","statename":"SIKKIM","regionname":"Calcutta HQ","circlename":"West Bengal","divisionname":"Sikkim","Taluk":"Singtam"},{"officename":"Yuksom B.O","pincode":"737113","officetype":"B.O","deliverystatus":"Delivery","statename":"SIKKIM","regionname":"Calcutta HQ","circlename":"West Bengal","divisionname":"Sikkim","Taluk":"Pelling"},{"officename":"Zoom B.O","pincode":"737121","officetype":"B.O","deliverystatus":"Delivery","statename":"SIKKIM","regionname":"Calcutta HQ","circlename":"West Bengal","divisionname":"Sikkim","Taluk":"Jorethang"},{"officename":"Buriakhop B.O","pincode":"737121","officetype":"B.O","deliverystatus":"Delivery","statename":"SIKKIM","regionname":"Calcutta HQ","circlename":"West Bengal","divisionname":"Sikkim","Taluk":"Jorethang"},{"officename":"Beyong B.O","pincode":"737134","officetype":"B.O","deliverystatus":"Delivery","statename":"SIKKIM","regionname":"Calcutta HQ","circlename":"West Bengal","divisionname":"Sikkim","Taluk":"Singtam"},{"officename":"Chakung B.O","pincode":"737121","officetype":"B.O","deliverystatus":"Delivery","statename":"SIKKIM","regionname":"Calcutta HQ","circlename":"West Bengal","divisionname":"Sikkim","Taluk":"Jorethang"},{"officename":"Chumbong B.O","pincode":"737121","officetype":"B.O","deliverystatus":"Delivery","statename":"SIKKIM","regionname":"Calcutta HQ","circlename":"West Bengal","divisionname":"Sikkim","Taluk":"Jorethang"},{"officename":"Changayshanti B.O","pincode":"737106","officetype":"B.O","deliverystatus":"Delivery","statename":"SIKKIM","regionname":"Calcutta HQ","circlename":"West Bengal","divisionname":"Sikkim","Taluk":"Pakyong"},{"officename":"Chingthang B.O","pincode":"737111","officetype":"B.O","deliverystatus":"Delivery","statename":"SIKKIM","regionname":"Calcutta HQ","circlename":"West Bengal","divisionname":"Sikkim","Taluk":"Gayzing"},{"officename":"Chujachen B.O","pincode":"737131","officetype":"B.O","deliverystatus":"Delivery","statename":"SIKKIM","regionname":"Calcutta HQ","circlename":"West Bengal","divisionname":"Sikkim","Taluk":"Rangli"},{"officename":"Damthang B.O","pincode":"737126","officetype":"B.O","deliverystatus":"Delivery","statename":"SIKKIM","regionname":"Calcutta HQ","circlename":"West Bengal","divisionname":"Sikkim","Taluk":"Namchi"},{"officename":"Darap B.O","pincode":"737113","officetype":"B.O","deliverystatus":"Delivery","statename":"SIKKIM","regionname":"Calcutta HQ","circlename":"West Bengal","divisionname":"Sikkim","Taluk":"Pelling"},{"officename":"Dentam B.O","pincode":"737113","officetype":"B.O","deliverystatus":"Delivery","statename":"SIKKIM","regionname":"Calcutta HQ","circlename":"West Bengal","divisionname":"Sikkim","Taluk":"Pelling"},{"officename":"Dhajey B.O","pincode":"737102","officetype":"B.O","deliverystatus":"Delivery","statename":"SIKKIM","regionname":"Calcutta HQ","circlename":"West Bengal","divisionname":"Sikkim","Taluk":"Gangtok"},{"officename":"Dipudara Nhpc Complex B.O","pincode":"737134","officetype":"B.O","deliverystatus":"Delivery","statename":"SIKKIM","regionname":"Calcutta HQ","circlename":"West Bengal","divisionname":"Sikkim","Taluk":"Singtam"},{"officename":"Dalapchand B.O","pincode":"737131","officetype":"B.O","deliverystatus":"Delivery","statename":"SIKKIM","regionname":"Calcutta HQ","circlename":"West Bengal","divisionname":"Sikkim","Taluk":"Rangli"},{"officename":"Duga B.O","pincode":"737132","officetype":"B.O","deliverystatus":"Delivery","statename":"SIKKIM","regionname":"Calcutta HQ","circlename":"West Bengal","divisionname":"Sikkim","Taluk":"Rangpo"},{"officename":"East Pendam B.O","pincode":"737132","officetype":"B.O","deliverystatus":"Delivery","statename":"SIKKIM","regionname":"Calcutta HQ","circlename":"West Bengal","divisionname":"Sikkim","Taluk":"Rangpo"},{"officename":"Gangkha Busty B.O","pincode":"737134","officetype":"B.O","deliverystatus":"Delivery","statename":"SIKKIM","regionname":"Calcutta HQ","circlename":"West Bengal","divisionname":"Sikkim","Taluk":"Singtam"},{"officename":"Gerathang B.O","pincode":"737111","officetype":"B.O","deliverystatus":"Delivery","statename":"SIKKIM","regionname":"Calcutta HQ","circlename":"West Bengal","divisionname":"Sikkim","Taluk":"Gayzing"},{"officename":"Ahoo Busty B.O","pincode":"737135","officetype":"B.O","deliverystatus":"Delivery","statename":"SIKKIM","regionname":"Calcutta HQ","circlename":"West Bengal","divisionname":"Sikkim","Taluk":"Ranipool"},{"officename":"Amba B.O","pincode":"737133","officetype":"B.O","deliverystatus":"Delivery","statename":"SIKKIM","regionname":"Calcutta HQ","circlename":"West Bengal","divisionname":"Sikkim","Taluk":"Rhenock"},{"officename":"Aritar B.O","pincode":"737133","officetype":"B.O","deliverystatus":"Delivery","statename":"SIKKIM","regionname":"Calcutta HQ","circlename":"West Bengal","divisionname":"Sikkim","Taluk":"Rhenock"},{"officename":"Arithang B.O","pincode":"737111","officetype":"B.O","deliverystatus":"Delivery","statename":"SIKKIM","regionname":"Calcutta HQ","circlename":"West Bengal","divisionname":"Sikkim","Taluk":"Gayzing"},{"officename":"Arubotay B.O","pincode":"737121","officetype":"B.O","deliverystatus":"Delivery","statename":"SIKKIM","regionname":"Calcutta HQ","circlename":"West Bengal","divisionname":"Sikkim","Taluk":"Jorethang"},{"officename":"Assam Lingzey B.O","pincode":"737135","officetype":"B.O","deliverystatus":"Delivery","statename":"SIKKIM","regionname":"Calcutta HQ","circlename":"West Bengal","divisionname":"Sikkim","Taluk":"Ranipool"},{"officename":"Assangthang B.O","pincode":"737126","officetype":"B.O","deliverystatus":"Delivery","statename":"SIKKIM","regionname":"Calcutta HQ","circlename":"West Bengal","divisionname":"Sikkim","Taluk":"Namchi"},{"officename":"Bardang B.O","pincode":"737134","officetype":"B.O","deliverystatus":"Delivery","statename":"SIKKIM","regionname":"Calcutta HQ","circlename":"West Bengal","divisionname":"Sikkim","Taluk":"Singtam"},{"officename":"Ben B.O","pincode":"737139","officetype":"B.O","deliverystatus":"Delivery","statename":"SIKKIM","regionname":"Calcutta HQ","circlename":"West Bengal","divisionname":"Sikkim","Taluk":"Ravangla"},{"officename":"Berang B.O","pincode":"737139","officetype":"B.O","deliverystatus":"Delivery","statename":"SIKKIM","regionname":"Calcutta HQ","circlename":"West Bengal","divisionname":"Sikkim","Taluk":"Ravangla"},{"officename":"Barfung B.O","pincode":"737139","officetype":"B.O","deliverystatus":"Delivery","statename":"SIKKIM","regionname":"Calcutta HQ","circlename":"West Bengal","divisionname":"Sikkim","Taluk":"Ravangla"},{"officename":"Bermiok B.O","pincode":"737134","officetype":"B.O","deliverystatus":"Delivery","statename":"SIKKIM","regionname":"Calcutta HQ","circlename":"West Bengal","divisionname":"Sikkim","Taluk":"Singtam"}]