[{"officename":"Fatikroy S.O","pincode":"799290","officetype":"S.O","deliverystatus":"Delivery","statename":"TRIPURA","regionname":"Shillong HQ","circlename":"North Eastern","divisionname":"Dharmanagar","Taluk":"Fatikroy"},{"officename":"Jampui S.O","pincode":"799269","officetype":"S.O","deliverystatus":"Delivery","statename":"TRIPURA","regionname":"Shillong HQ","circlename":"North Eastern","divisionname":"Dharmanagar","Taluk":"Jampui"},{"officename":"Kadamtala S.O (North Tripura)","pincode":"799261","officetype":"S.O","deliverystatus":"Delivery","statename":"TRIPURA","regionname":"Shillong HQ","circlename":"North Eastern","divisionname":"Dharmanagar","Taluk":"Kadamtala"},{"officename":"Kailashahar S.O","pincode":"799277","officetype":"S.O","deliverystatus":"Delivery","statename":"TRIPURA","regionname":"Shillong HQ","circlename":"North Eastern","divisionname":"Dharmanagar","Taluk":"Kailashahar"},{"officename":"Kamalpur S.O (Dhalai)","pincode":"799285","officetype":"S.O","deliverystatus":"Delivery","statename":"TRIPURA","regionname":"Shillong HQ","circlename":"North Eastern","divisionname":"Dharmanagar","Taluk":"Kamalpur"},{"officename":"Kanchanbari S.O","pincode":"799288","officetype":"S.O","deliverystatus":"Delivery","statename":"TRIPURA","regionname":"Shillong HQ","circlename":"North Eastern","divisionname":"Dharmanagar","Taluk":"Kanchanbari"},{"officename":"Kanchanpur S.O (North Tripura)","pincode":"799270","officetype":"S.O","deliverystatus":"Delivery","statename":"TRIPURA","regionname":"Shillong HQ","circlename":"North Eastern","divisionname":"Dharmanagar","Taluk":"Kanchanpur"},{"officename":"Kumarghat S.O","pincode":"799264","officetype":"S.O","deliverystatus":"Delivery","statename":"TRIPURA","regionname":"Shillong HQ","circlename":"North Eastern","divisionname":"Dharmanagar","Taluk":"Kumarghat"},{"officename":"Kulaibazar S.O","pincode":"799204","officetype":"S.O","deliverystatus":"Delivery","statename":"TRIPURA","regionname":"Shillong HQ","circlename":"North Eastern","divisionname":"Dharmanagar","Taluk":"Kulai"},{"officename":"Manikbhander S.O","pincode":"799287","officetype":"S.O","deliverystatus":"Delivery","statename":"TRIPURA","regionname":"Shillong HQ","circlename":"North Eastern","divisionname":"Dharmanagar","Taluk":"Manikbhander"},{"officename":"Manughat S.O","pincode":"799275","officetype":"S.O","deliverystatus":"Delivery","statename":"TRIPURA","regionname":"Shillong HQ","circlename":"North Eastern","divisionname":"Dharmanagar","Taluk":"Manughat"},{"officename":"Paiturbazar S.O","pincode":"799279","officetype":"S.O","deliverystatus":"Delivery","statename":"TRIPURA","regionname":"Shillong HQ","circlename":"North Eastern","divisionname":"Dharmanagar","Taluk":"Gournagar"},{"officename":"Panichowkibazar S.O","pincode":"799277","officetype":"S.O","deliverystatus":"Non-Delivery","statename":"TRIPURA","regionname":"Shillong HQ","circlename":"North Eastern","divisionname":"Dharmanagar","Taluk":"Kailashahar"},{"officename":"Panisagar S.O","pincode":"799260","officetype":"S.O","deliverystatus":"Delivery","statename":"TRIPURA","regionname":"Shillong HQ","circlename":"North Eastern","divisionname":"Dharmanagar","Taluk":"Panisagar"},{"officename":"Pecharthal S.O","pincode":"799263","officetype":"S.O","deliverystatus":"Delivery","statename":"TRIPURA","regionname":"Shillong HQ","circlename":"North Eastern","divisionname":"Dharmanagar","Taluk":"Pecharthal"},{"officename":"Rajbari S.O","pincode":"799253","officetype":"S.O","deliverystatus":"Delivery","statename":"TRIPURA","regionname":"Shillong HQ","circlename":"North Eastern","divisionname":"Dharmanagar","Taluk":"Dharmanagar"},{"officename":"Salema S.O","pincode":"799278","officetype":"S.O","deliverystatus":"Delivery","statename":"TRIPURA","regionname":"Shillong HQ","circlename":"North Eastern","divisionname":"Dharmanagar","Taluk":"Salema"},{"officename":"Sonamukhi Bazar S.O","pincode":"799280","officetype":"S.O","deliverystatus":"Delivery","statename":"TRIPURA","regionname":"Shillong HQ","circlename":"North Eastern","divisionname":"Dharmanagar","Taluk":"Sonamukhi"},{"officename":"Sarma S.O","pincode":"799284","officetype":"S.O","deliverystatus":"Delivery","statename":"TRIPURA","regionname":"Shillong HQ","circlename":"North Eastern","divisionname":"Dharmanagar","Taluk":"Sarma"},{"officename":"Tripura Damcherra S.O","pincode":"799256","officetype":"S.O","deliverystatus":"Delivery","statename":"TRIPURA","regionname":"Shillong HQ","circlename":"North Eastern","divisionname":"Dharmanagar","Taluk":"Damcherra"},{"officename":"Chebri S.O","pincode":"799207","officetype":"S.O","deliverystatus":"Delivery","statename":"TRIPURA","regionname":"Shillong HQ","circlename":"North Eastern","divisionname":"Dharmanagar","Taluk":"Chebri"},{"officename":"Khowai S.O","pincode":"799201","officetype":"S.O","deliverystatus":"Delivery","statename":"TRIPURA","regionname":"Shillong HQ","circlename":"North Eastern","divisionname":"Dharmanagar","Taluk":"Khowai"},{"officename":"Kalyanpur S.O (West Tripura)","pincode":"799203","officetype":"S.O","deliverystatus":"Delivery","statename":"TRIPURA","regionname":"Shillong HQ","circlename":"North Eastern","divisionname":"Dharmanagar","Taluk":"Kalyanpur"},{"officename":"Khowai Court S.O","pincode":"799202","officetype":"S.O","deliverystatus":"Delivery","statename":"TRIPURA","regionname":"Shillong HQ","circlename":"North Eastern","divisionname":"Dharmanagar","Taluk":"Khowai"},{"officename":"Teliamura S.O","pincode":"799205","officetype":"S.O","deliverystatus":"Delivery","statename":"TRIPURA","regionname":"Shillong HQ","circlename":"North Eastern","divisionname":"Dharmanagar","Taluk":"Teliamura"},{"officename":"Ambassa S.O","pincode":"799289","officetype":"S.O","deliverystatus":"Delivery","statename":"TRIPURA","regionname":"Shillong HQ","circlename":"North Eastern","divisionname":"Dharmanagar","Taluk":"Ambassa"},{"officename":"Baburbazar S.O","pincode":"799281","officetype":"S.O","deliverystatus":"Delivery","statename":"TRIPURA","regionname":"Shillong HQ","circlename":"North Eastern","divisionname":"Dharmanagar","Taluk":"Gournagar"},{"officename":"Chandrapur S.O (North Tripura)","pincode":"799251","officetype":"S.O","deliverystatus":"Delivery","statename":"TRIPURA","regionname":"Shillong HQ","circlename":"North Eastern","divisionname":"Dharmanagar","Taluk":"Chandrapur"},{"officename":"Churaibari S.O","pincode":"799262","officetype":"S.O","deliverystatus":"Delivery","statename":"TRIPURA","regionname":"Shillong HQ","circlename":"North Eastern","divisionname":"Dharmanagar","Taluk":"Churaibari"},{"officename":"Chailengta S.O","pincode":"799273","officetype":"S.O","deliverystatus":"Delivery","statename":"TRIPURA","regionname":"Shillong HQ","circlename":"North Eastern","divisionname":"Dharmanagar","Taluk":"Chailengta"},{"officename":"Dasdabazar S.O","pincode":"799271","officetype":"S.O","deliverystatus":"Delivery","statename":"TRIPURA","regionname":"Shillong HQ","circlename":"North Eastern","divisionname":"Dharmanagar","Taluk":"Dasda"},{"officename":"Halahali S.O","pincode":"799286","officetype":"S.O","deliverystatus":"Delivery","statename":"TRIPURA","regionname":"Shillong HQ","circlename":"North Eastern","divisionname":"Dharmanagar","Taluk":"Halahali"},{"officename":"Halflongcherra S.O","pincode":"799254","officetype":"S.O","deliverystatus":"Delivery","statename":"TRIPURA","regionname":"Shillong HQ","circlename":"North Eastern","divisionname":"Dharmanagar","Taluk":"Halflong"},{"officename":"Kanchancherra","pincode":"799266","officetype":"S.O","deliverystatus":"Delivery","statename":"TRIPURA","regionname":"Shillong HQ","circlename":"North Eastern","divisionname":"Dharmanagar","Taluk":"Manu"},{"officename":"Gournagar S.O","pincode":"799282","officetype":"S.O","deliverystatus":"Delivery","statename":"TRIPURA","regionname":"Shillong HQ","circlename":"North Eastern","divisionname":"Dharmanagar","Taluk":"Kailashahar"},{"officename":"Bishramganj S.O","pincode":"799103","officetype":"S.O","deliverystatus":"Delivery","statename":"TRIPURA","regionname":"Shillong HQ","circlename":"North Eastern","divisionname":"Agartala","Taluk":"Bishramganj"},{"officename":"Melaghar S.O","pincode":"799115","officetype":"S.O","deliverystatus":"Delivery","statename":"TRIPURA","regionname":"Shillong HQ","circlename":"North Eastern","divisionname":"Agartala","Taluk":"Melaghar"},{"officename":"Sonamura S.O","pincode":"799131","officetype":"S.O","deliverystatus":"Delivery","statename":"TRIPURA","regionname":"Shillong HQ","circlename":"North Eastern","divisionname":"Agartala","Taluk":"Sonamura"},{"officename":"Muhuripur S.O","pincode":"799142","officetype":"S.O","deliverystatus":"Delivery","statename":"TRIPURA","regionname":"Shillong HQ","circlename":"North Eastern","divisionname":"Agartala","Taluk":"Muhuripur"},{"officename":"Sabroom S.O","pincode":"799145","officetype":"S.O","deliverystatus":"Delivery","statename":"TRIPURA","regionname":"Shillong HQ","circlename":"North Eastern","divisionname":"Agartala","Taluk":"Sabroom"},{"officename":"Santirbazar S.O","pincode":"799144","officetype":"S.O","deliverystatus":"Delivery","statename":"TRIPURA","regionname":"Shillong HQ","circlename":"North Eastern","divisionname":"Agartala","Taluk":"Bagafa"},{"officename":"Garjee S.O","pincode":"799125","officetype":"S.O","deliverystatus":"Delivery","statename":"TRIPURA","regionname":"Shillong HQ","circlename":"North Eastern","divisionname":"Agartala","Taluk":"NA"},{"officename":"Jatanbari S.O","pincode":"799104","officetype":"S.O","deliverystatus":"Delivery","statename":"TRIPURA","regionname":"Shillong HQ","circlename":"North Eastern","divisionname":"Agartala","Taluk":"Jatanbari"},{"officename":"Gakulpur S.O","pincode":"799114","officetype":"S.O","deliverystatus":"Delivery","statename":"TRIPURA","regionname":"Shillong HQ","circlename":"North Eastern","divisionname":"Agartala","Taluk":"Matarbari"},{"officename":"Kakraban S.O","pincode":"799105","officetype":"S.O","deliverystatus":"Delivery","statename":"TRIPURA","regionname":"Shillong HQ","circlename":"North Eastern","divisionname":"Agartala","Taluk":"Kakranan"},{"officename":"Manubazar S.O","pincode":"799143","officetype":"S.O","deliverystatus":"Delivery","statename":"TRIPURA","regionname":"Shillong HQ","circlename":"North Eastern","divisionname":"Agartala","Taluk":"Satchand"},{"officename":"Hrishyamukh S.O","pincode":"799156","officetype":"S.O","deliverystatus":"Delivery","statename":"TRIPURA","regionname":"Shillong HQ","circlename":"North Eastern","divisionname":"Agartala","Taluk":"Hrishyamukh"},{"officename":"Radhanagar S.O (West Tripura)","pincode":"799153","officetype":"S.O","deliverystatus":"Delivery","statename":"TRIPURA","regionname":"Shillong HQ","circlename":"North Eastern","divisionname":"Agartala","Taluk":"Radhanagar"},{"officename":"Rajnagar S.O (South Tripura)","pincode":"799150","officetype":"S.O","deliverystatus":"Delivery","statename":"TRIPURA","regionname":"Shillong HQ","circlename":"North Eastern","divisionname":"Agartala","Taluk":"Rajnagar"},{"officename":"Matabari S.O","pincode":"799013","officetype":"S.O","deliverystatus":"Delivery","statename":"TRIPURA","regionname":"Shillong HQ","circlename":"North Eastern","divisionname":"Agartala","Taluk":"Radhakishorepur H.O"},{"officename":"Agartala Aerodrome S.O","pincode":"799009","officetype":"S.O","deliverystatus":"Delivery","statename":"TRIPURA","regionname":"Shillong HQ","circlename":"North Eastern","divisionname":"Agartala","Taluk":"Mohanpur"},{"officename":"Agartala College S.O","pincode":"799004","officetype":"S.O","deliverystatus":"Delivery","statename":"TRIPURA","regionname":"Shillong HQ","circlename":"North Eastern","divisionname":"Agartala","Taluk":"NA"},{"officename":"Abhoynagar S.O","pincode":"799005","officetype":"S.O","deliverystatus":"Delivery","statename":"TRIPURA","regionname":"Shillong HQ","circlename":"North Eastern","divisionname":"Agartala","Taluk":"NA"},{"officename":"Arundhutinagar S.O","pincode":"799003","officetype":"S.O","deliverystatus":"Delivery","statename":"TRIPURA","regionname":"Shillong HQ","circlename":"North Eastern","divisionname":"Agartala","Taluk":"Sadar"},{"officename":"Agartala ONGC S.O","pincode":"799014","officetype":"S.O","deliverystatus":"Delivery","statename":"TRIPURA","regionname":"Shillong HQ","circlename":"North Eastern","divisionname":"Agartala","Taluk":"Sadar"},{"officename":"Bishalgarh S.O","pincode":"799102","officetype":"S.O","deliverystatus":"Delivery","statename":"TRIPURA","regionname":"Shillong HQ","circlename":"North Eastern","divisionname":"Agartala","Taluk":"Bishalgarh"},{"officename":"Narayanpur Bazar S.O","pincode":"799015","officetype":"S.O","deliverystatus":"Delivery","statename":"TRIPURA","regionname":"Shillong HQ","circlename":"North Eastern","divisionname":"Agartala","Taluk":"Bimangarh"},{"officename":"Birendranagar S.O","pincode":"799045","officetype":"S.O","deliverystatus":"Delivery","statename":"TRIPURA","regionname":"Shillong HQ","circlename":"North Eastern","divisionname":"Agartala","Taluk":"NA"},{"officename":"Dhaleswar S.O","pincode":"799007","officetype":"S.O","deliverystatus":"Delivery","statename":"TRIPURA","regionname":"Shillong HQ","circlename":"North Eastern","divisionname":"Agartala","Taluk":"Sadar"},{"officename":"Kunjaban S.O","pincode":"799006","officetype":"S.O","deliverystatus":"Delivery","statename":"TRIPURA","regionname":"Shillong HQ","circlename":"North Eastern","divisionname":"Agartala","Taluk":"Sadar"},{"officename":"Kamalghat S.O","pincode":"799210","officetype":"S.O","deliverystatus":"Delivery","statename":"TRIPURA","regionname":"Shillong HQ","circlename":"North Eastern","divisionname":"Agartala","Taluk":"Kamalghat"},{"officename":"Khayerpur S.O","pincode":"799008","officetype":"S.O","deliverystatus":"Delivery","statename":"TRIPURA","regionname":"Shillong HQ","circlename":"North Eastern","divisionname":"Agartala","Taluk":"Jirania"},{"officename":"Mohanpur S.O (West Tripura)","pincode":"799211","officetype":"S.O","deliverystatus":"Delivery","statename":"TRIPURA","regionname":"Shillong HQ","circlename":"North Eastern","divisionname":"Agartala","Taluk":"Mohanpur"},{"officename":"Ramnagar S.O (West Tripura)","pincode":"799002","officetype":"S.O","deliverystatus":"Delivery","statename":"TRIPURA","regionname":"Shillong HQ","circlename":"North Eastern","divisionname":"Agartala","Taluk":"Sadar"},{"officename":"Ranirbazar S.O","pincode":"799035","officetype":"S.O","deliverystatus":"Delivery","statename":"TRIPURA","regionname":"Shillong HQ","circlename":"North Eastern","divisionname":"Agartala","Taluk":"Ranirbazar"},{"officename":"Salbagan S.O","pincode":"799012","officetype":"S.O","deliverystatus":"Delivery","statename":"TRIPURA","regionname":"Shillong HQ","circlename":"North Eastern","divisionname":"Agartala","Taluk":"Sadar"},{"officename":"Sidhai S.O","pincode":"799212","officetype":"S.O","deliverystatus":"Delivery","statename":"TRIPURA","regionname":"Shillong HQ","circlename":"North Eastern","divisionname":"Agartala","Taluk":"Sidhai"},{"officename":"Sekerkote S.O","pincode":"799130","officetype":"S.O","deliverystatus":"Delivery","statename":"TRIPURA","regionname":"Shillong HQ","circlename":"North Eastern","divisionname":"Agartala","Taluk":"NA"},{"officename":"Anandapur S.O (South Tripura)","pincode":"799157","officetype":"S.O","deliverystatus":"Delivery","statename":"TRIPURA","regionname":"Shillong HQ","circlename":"North Eastern","divisionname":"Agartala","Taluk":"NA"},{"officename":"Amarpur S.O (South Tripura)","pincode":"799101","officetype":"S.O","deliverystatus":"Delivery","statename":"TRIPURA","regionname":"Shillong HQ","circlename":"North Eastern","divisionname":"Agartala","Taluk":"Amarpur"},{"officename":"Beloniya S.O","pincode":"799155","officetype":"S.O","deliverystatus":"Delivery","statename":"TRIPURA","regionname":"Shillong HQ","circlename":"North Eastern","divisionname":"Agartala","Taluk":"NA"},{"officename":"Jolaibari S.O","pincode":"799141","officetype":"S.O","deliverystatus":"Delivery","statename":"TRIPURA","regionname":"Shillong HQ","circlename":"North Eastern","divisionname":"Agartala","Taluk":"Bagafa"},{"officename":"Tepania S.O","pincode":"799113","officetype":"S.O","deliverystatus":"Delivery","statename":"TRIPURA","regionname":"Shillong HQ","circlename":"North Eastern","divisionname":"Agartala","Taluk":"Tepania"},{"officename":"Kathalia S.O","pincode":"799132","officetype":"S.O","deliverystatus":"Delivery","statename":"TRIPURA","regionname":"Shillong HQ","circlename":"North Eastern","divisionname":"Agartala","Taluk":"Kathalia"},{"officename":"Tripura University S.O","pincode":"799022","officetype":"S.O","deliverystatus":"Delivery","statename":"TRIPURA","regionname":"Shillong HQ","circlename":"North Eastern","divisionname":"Agartala","Taluk":"Bishalgarh"},{"officename":"Agartala Court S.O","pincode":"799001","officetype":"S.O","deliverystatus":"Non-Delivery","statename":"TRIPURA","regionname":"Shillong HQ","circlename":"North Eastern","divisionname":"Agartala","Taluk":"NA"},{"officename":"Agartala Secretariat S.O","pincode":"799010","officetype":"S.O","deliverystatus":"Delivery","statename":"TRIPURA","regionname":"Shillong HQ","circlename":"North Eastern","divisionname":"Agartala","Taluk":"NA"},{"officename":"Agartala Bazar S.O","pincode":"799001","officetype":"S.O","deliverystatus":"Non-Delivery","statename":"TRIPURA","regionname":"Shillong HQ","circlename":"North Eastern","divisionname":"Agartala","Taluk":"NA"},{"officename":"Jaganath Bari Road S.O","pincode":"799001","officetype":"S.O","deliverystatus":"Non-Delivery","statename":"TRIPURA","regionname":"Shillong HQ","circlename":"North Eastern","divisionname":"Agartala","Taluk":"NA"},{"officename":"NIT Agartala S.O","pincode":"799046","officetype":"S.O","deliverystatus":"Delivery","statename":"TRIPURA","regionname":"Shillong HQ","circlename":"North Eastern","divisionname":"Agartala","Taluk":"Jirania"},{"officename":"Agartala H.O","pincode":"799001","officetype":"H.O","deliverystatus":"Delivery","statename":"TRIPURA","regionname":"Shillong HQ","circlename":"North Eastern","divisionname":"Agartala","Taluk":"Sadar"},{"officename":"Radhakishorepur H.O","pincode":"799120","officetype":"H.O","deliverystatus":"Delivery","statename":"TRIPURA","regionname":"Shillong HQ","circlename":"North Eastern","divisionname":"Agartala","Taluk":"Radhakishorepur"},{"officename":"Dharmanagar H.O","pincode":"799250","officetype":"H.O","deliverystatus":"Delivery","statename":"TRIPURA","regionname":"Shillong HQ","circlename":"North Eastern","divisionname":"Dharmanagar","Taluk":"Dharmanagar"},{"officename":"Durga Chowmuhani B.O","pincode":"799286","officetype":"B.O","deliverystatus":"Delivery","statename":"TRIPURA","regionname":"Shillong HQ","circlename":"North Eastern","divisionname":"Dharmanagar","Taluk":"Halahali"},{"officename":"Noagang B.O","pincode":"799260","officetype":"B.O","deliverystatus":"Delivery","statename":"TRIPURA","regionname":"Shillong HQ","circlename":"North Eastern","divisionname":"Dharmanagar","Taluk":"Panisagar"},{"officename":"Dhanirampur B.O","pincode":"799131","officetype":"B.O","deliverystatus":"Delivery","statename":"TRIPURA","regionname":"Shillong HQ","circlename":"North Eastern","divisionname":"Agartala","Taluk":"Sonamura"},{"officename":"Aralia B.O","pincode":"799004","officetype":"B.O","deliverystatus":"Delivery","statename":"TRIPURA","regionname":"Shillong HQ","circlename":"North Eastern","divisionname":"Agartala","Taluk":"Agartala"},{"officename":"Dhupcherra B.O","pincode":"799004","officetype":"B.O","deliverystatus":"Delivery","statename":"TRIPURA","regionname":"Shillong HQ","circlename":"North Eastern","divisionname":"Agartala","Taluk":"Agartala"},{"officename":"Chottakhola B.O","pincode":"799157","officetype":"B.O","deliverystatus":"Delivery","statename":"TRIPURA","regionname":"Shillong HQ","circlename":"North Eastern","divisionname":"Agartala","Taluk":"Anandapur"},{"officename":"Shantinagar B.O","pincode":"799045","officetype":"B.O","deliverystatus":"Delivery","statename":"TRIPURA","regionname":"Shillong HQ","circlename":"North Eastern","divisionname":"Agartala","Taluk":"West Tripura"},{"officename":"Jarul Bachai B.O","pincode":"799004","officetype":"B.O","deliverystatus":"Delivery","statename":"TRIPURA","regionname":"Shillong HQ","circlename":"North Eastern","divisionname":"Agartala","Taluk":"."},{"officename":"Bisrambari B.O.","pincode":"799045","officetype":"B.O","deliverystatus":"Delivery","statename":"TRIPURA","regionname":"Shillong HQ","circlename":"North Eastern","divisionname":"Agartala","Taluk":"."},{"officename":"Dharmanagar College B.O","pincode":"799253","officetype":"B.O","deliverystatus":"Delivery","statename":"TRIPURA","regionname":"Shillong HQ","circlename":"North Eastern","divisionname":"Dharmanagar","Taluk":"Dharmanagar"},{"officename":"Durjaynagar B.O","pincode":"799009","officetype":"B.O","deliverystatus":"Delivery","statename":"TRIPURA","regionname":"Shillong HQ","circlename":"North Eastern","divisionname":"Agartala","Taluk":"Sadar"},{"officename":"Lankamura B.O","pincode":"799009","officetype":"B.O","deliverystatus":"Delivery","statename":"TRIPURA","regionname":"Shillong HQ","circlename":"North Eastern","divisionname":"Agartala","Taluk":"Sadar"},{"officename":"Nutannagar B.O","pincode":"799009","officetype":"B.O","deliverystatus":"Delivery","statename":"TRIPURA","regionname":"Shillong HQ","circlename":"North Eastern","divisionname":"Agartala","Taluk":"Sadar"},{"officename":"Narayanpur B.O","pincode":"799009","officetype":"B.O","deliverystatus":"Delivery","statename":"TRIPURA","regionname":"Shillong HQ","circlename":"North Eastern","divisionname":"Agartala","Taluk":"Sadar"},{"officename":"Anandanagar B.O","pincode":"799004","officetype":"B.O","deliverystatus":"Delivery","statename":"TRIPURA","regionname":"Shillong HQ","circlename":"North Eastern","divisionname":"Agartala","Taluk":"Sadar"},{"officename":"Gabordi B.O","pincode":"799004","officetype":"B.O","deliverystatus":"Delivery","statename":"TRIPURA","regionname":"Shillong HQ","circlename":"North Eastern","divisionname":"Agartala","Taluk":"Sadar"},{"officename":"Nagicherra B.O","pincode":"799004","officetype":"B.O","deliverystatus":"Delivery","statename":"TRIPURA","regionname":"Shillong HQ","circlename":"North Eastern","divisionname":"Agartala","Taluk":"Sadar"},{"officename":"Purba Pratapgarh B.O","pincode":"799004","officetype":"B.O","deliverystatus":"Delivery","statename":"TRIPURA","regionname":"Shillong HQ","circlename":"North Eastern","divisionname":"Agartala","Taluk":"Sadar"},{"officename":"Renters Colony B.O","pincode":"799004","officetype":"B.O","deliverystatus":"Delivery","statename":"TRIPURA","regionname":"Shillong HQ","circlename":"North Eastern","divisionname":"Agartala","Taluk":"Sadar"},{"officename":"Srinagar Kacharipara B.O","pincode":"799004","officetype":"B.O","deliverystatus":"Delivery","statename":"TRIPURA","regionname":"Shillong HQ","circlename":"North Eastern","divisionname":"Agartala","Taluk":"Sadar"},{"officename":"Town pratapgarh B.O","pincode":"799004","officetype":"B.O","deliverystatus":"Delivery","statename":"TRIPURA","regionname":"Shillong HQ","circlename":"North Eastern","divisionname":"Agartala","Taluk":"Sadar"},{"officename":"Bhattapukur B.O","pincode":"799003","officetype":"B.O","deliverystatus":"Delivery","statename":"TRIPURA","regionname":"Shillong HQ","circlename":"North Eastern","divisionname":"Agartala","Taluk":"NA"},{"officename":"Badharghat B.O","pincode":"799003","officetype":"B.O","deliverystatus":"Delivery","statename":"TRIPURA","regionname":"Shillong HQ","circlename":"North Eastern","divisionname":"Agartala","Taluk":"Sadar"},{"officename":"Charipara B.O","pincode":"799003","officetype":"B.O","deliverystatus":"Delivery","statename":"TRIPURA","regionname":"Shillong HQ","circlename":"North Eastern","divisionname":"Agartala","Taluk":"Sadar"},{"officename":"Ishanchandranagar B.O","pincode":"799003","officetype":"B.O","deliverystatus":"Delivery","statename":"TRIPURA","regionname":"Shillong HQ","circlename":"North Eastern","divisionname":"Agartala","Taluk":"Sadar"},{"officename":"Madhuban B.O","pincode":"799003","officetype":"B.O","deliverystatus":"Delivery","statename":"TRIPURA","regionname":"Shillong HQ","circlename":"North Eastern","divisionname":"Agartala","Taluk":"Sadar"},{"officename":"Ranirkhamar B.O","pincode":"799003","officetype":"B.O","deliverystatus":"Delivery","statename":"TRIPURA","regionname":"Shillong HQ","circlename":"North Eastern","divisionname":"Agartala","Taluk":"Sadar"},{"officename":"S.D.Mission Colony B.O","pincode":"799003","officetype":"B.O","deliverystatus":"Non-Delivery","statename":"TRIPURA","regionname":"Shillong HQ","circlename":"North Eastern","divisionname":"Agartala","Taluk":"Sadar"},{"officename":"Siddhi Ashram B.O","pincode":"799003","officetype":"B.O","deliverystatus":"Delivery","statename":"TRIPURA","regionname":"Shillong HQ","circlename":"North Eastern","divisionname":"Agartala","Taluk":"Sadar"},{"officename":"Brajapur B.O","pincode":"799102","officetype":"B.O","deliverystatus":"Delivery","statename":"TRIPURA","regionname":"Shillong HQ","circlename":"North Eastern","divisionname":"Agartala","Taluk":"Bishalgarh"},{"officename":"Dhajanagar B.O","pincode":"799102","officetype":"B.O","deliverystatus":"Delivery","statename":"TRIPURA","regionname":"Shillong HQ","circlename":"North Eastern","divisionname":"Agartala","Taluk":"Bishalgarh"},{"officename":"Golaghati B.O","pincode":"799102","officetype":"B.O","deliverystatus":"Delivery","statename":"TRIPURA","regionname":"Shillong HQ","circlename":"North Eastern","divisionname":"Agartala","Taluk":"Bishalgarh"},{"officename":"Gazaria B.O","pincode":"799102","officetype":"B.O","deliverystatus":"Delivery","statename":"TRIPURA","regionname":"Shillong HQ","circlename":"North Eastern","divisionname":"Agartala","Taluk":"Bishalgarh"},{"officename":"Jampuijala Colony B.O","pincode":"799011","officetype":"B.O","deliverystatus":"Delivery","statename":"TRIPURA","regionname":"Shillong HQ","circlename":"North Eastern","divisionname":"Agartala","Taluk":"Bishalgarh"},{"officename":"Kalkalia B.O","pincode":"799102","officetype":"B.O","deliverystatus":"Delivery","statename":"TRIPURA","regionname":"Shillong HQ","circlename":"North Eastern","divisionname":"Agartala","Taluk":"NA"},{"officename":"Kalamcherra B.O","pincode":"799102","officetype":"B.O","deliverystatus":"Delivery","statename":"TRIPURA","regionname":"Shillong HQ","circlename":"North Eastern","divisionname":"Agartala","Taluk":"Bishalgarh"},{"officename":"Kanakraipara B.O","pincode":"799011","officetype":"B.O","deliverystatus":"Delivery","statename":"TRIPURA","regionname":"Shillong HQ","circlename":"North Eastern","divisionname":"Agartala","Taluk":"Bishalgarh"},{"officename":"Kalasimura B.O","pincode":"799102","officetype":"B.O","deliverystatus":"Delivery","statename":"TRIPURA","regionname":"Shillong HQ","circlename":"North Eastern","divisionname":"Agartala","Taluk":"Bishalgarh"},{"officename":"Kendraicherra B.O","pincode":"799011","officetype":"B.O","deliverystatus":"Delivery","statename":"TRIPURA","regionname":"Shillong HQ","circlename":"North Eastern","divisionname":"Agartala","Taluk":"Bishalgarh"},{"officename":"Lalsingmura B.O","pincode":"799102","officetype":"B.O","deliverystatus":"Delivery","statename":"TRIPURA","regionname":"Shillong HQ","circlename":"North Eastern","divisionname":"Agartala","Taluk":"Bishalgarh"},{"officename":"No.2 Chandranagar B.O","pincode":"799102","officetype":"B.O","deliverystatus":"Delivery","statename":"TRIPURA","regionname":"Shillong HQ","circlename":"North Eastern","divisionname":"Agartala","Taluk":"Bishalgarh"},{"officename":"Nabasantiganj Bazar B.O","pincode":"799102","officetype":"B.O","deliverystatus":"Delivery","statename":"TRIPURA","regionname":"Shillong HQ","circlename":"North Eastern","divisionname":"Agartala","Taluk":"Bishalgarh"},{"officename":"Nabinagar B.O","pincode":"799102","officetype":"B.O","deliverystatus":"Delivery","statename":"TRIPURA","regionname":"Shillong HQ","circlename":"North Eastern","divisionname":"Agartala","Taluk":"Bishalgarh"},{"officename":"Purba Laxmi Bill B.O","pincode":"799102","officetype":"B.O","deliverystatus":"Delivery","statename":"TRIPURA","regionname":"Shillong HQ","circlename":"North Eastern","divisionname":"Agartala","Taluk":"Bishalgarh"},{"officename":"Putia B.O","pincode":"799102","officetype":"B.O","deliverystatus":"Delivery","statename":"TRIPURA","regionname":"Shillong HQ","circlename":"North Eastern","divisionname":"Agartala","Taluk":"Bishalgarh"},{"officename":"Rokhia G.T Project B.O","pincode":"799102","officetype":"B.O","deliverystatus":"Delivery","statename":"TRIPURA","regionname":"Shillong HQ","circlename":"North Eastern","divisionname":"Agartala","Taluk":"Bishalgarh"},{"officename":"Rohimpur B.O","pincode":"799102","officetype":"B.O","deliverystatus":"Delivery","statename":"TRIPURA","regionname":"Shillong HQ","circlename":"North Eastern","divisionname":"Agartala","Taluk":"Bishalgarh"},{"officename":"Sepahijala B.O","pincode":"799102","officetype":"B.O","deliverystatus":"Delivery","statename":"TRIPURA","regionname":"Shillong HQ","circlename":"North Eastern","divisionname":"Agartala","Taluk":"Bishalgarh"},{"officename":"Sankumabari B.O","pincode":"799011","officetype":"B.O","deliverystatus":"Delivery","statename":"TRIPURA","regionname":"Shillong HQ","circlename":"North Eastern","divisionname":"Agartala","Taluk":"Bishalgarh"},{"officename":"Sutarmura B.O","pincode":"799102","officetype":"B.O","deliverystatus":"Delivery","statename":"TRIPURA","regionname":"Shillong HQ","circlename":"North Eastern","divisionname":"Agartala","Taluk":"Bishalgarh"},{"officename":"Takarjala B.O","pincode":"799011","officetype":"B.O","deliverystatus":"Delivery","statename":"TRIPURA","regionname":"Shillong HQ","circlename":"North Eastern","divisionname":"Agartala","Taluk":"Bishalgarh"},{"officename":"Ujan Ghaniamara B.O","pincode":"799011","officetype":"B.O","deliverystatus":"Delivery","statename":"TRIPURA","regionname":"Shillong HQ","circlename":"North Eastern","divisionname":"Agartala","Taluk":"Bishalgarh"},{"officename":"Veluarchar B.O","pincode":"799102","officetype":"B.O","deliverystatus":"Delivery","statename":"TRIPURA","regionname":"Shillong HQ","circlename":"North Eastern","divisionname":"Agartala","Taluk":"Bishalgarh"},{"officename":"Tebaria B.O","pincode":"799015","officetype":"B.O","deliverystatus":"Delivery","statename":"TRIPURA","regionname":"Shillong HQ","circlename":"North Eastern","divisionname":"Agartala","Taluk":"Sadar"},{"officename":"Ashigarh B.O","pincode":"799045","officetype":"B.O","deliverystatus":"Delivery","statename":"TRIPURA","regionname":"Shillong HQ","circlename":"North Eastern","divisionname":"Agartala","Taluk":"Birendranagar"},{"officename":"Shantinagar B.O","pincode":"799045","officetype":"B.O","deliverystatus":"Delivery","statename":"TRIPURA","regionname":"Shillong HQ","circlename":"North Eastern","divisionname":"Agartala","Taluk":"West Tripura"},{"officename":"Belbari B.O","pincode":"799045","officetype":"B.O","deliverystatus":"Delivery","statename":"TRIPURA","regionname":"Shillong HQ","circlename":"North Eastern","divisionname":"Agartala","Taluk":"Birendranagar"},{"officename":"Brigudaspara B.O","pincode":"799045","officetype":"B.O","deliverystatus":"Delivery","statename":"TRIPURA","regionname":"Shillong HQ","circlename":"North Eastern","divisionname":"Agartala","Taluk":"Birendranagar"},{"officename":"Champaknagar B.O","pincode":"799045","officetype":"B.O","deliverystatus":"Delivery","statename":"TRIPURA","regionname":"Shillong HQ","circlename":"North Eastern","divisionname":"Agartala","Taluk":"Birendranagar"},{"officename":"Gurudas Colony B.O","pincode":"799045","officetype":"B.O","deliverystatus":"Delivery","statename":"TRIPURA","regionname":"Shillong HQ","circlename":"North Eastern","divisionname":"Agartala","Taluk":"Birendranagar"},{"officename":"Janmejoynagar B.O","pincode":"799045","officetype":"B.O","deliverystatus":"Delivery","statename":"TRIPURA","regionname":"Shillong HQ","circlename":"North Eastern","divisionname":"Agartala","Taluk":"Birendranagar"},{"officename":"Mdhabbari B.O","pincode":"799045","officetype":"B.O","deliverystatus":"Delivery","statename":"TRIPURA","regionname":"Shillong HQ","circlename":"North Eastern","divisionname":"Agartala","Taluk":"Birendranagar"},{"officename":"Mandainagar B.O","pincode":"799045","officetype":"B.O","deliverystatus":"Delivery","statename":"TRIPURA","regionname":"Shillong HQ","circlename":"North Eastern","divisionname":"Agartala","Taluk":"Birendranagar"},{"officename":"Noabadi B.O","pincode":"799045","officetype":"B.O","deliverystatus":"Delivery","statename":"TRIPURA","regionname":"Shillong HQ","circlename":"North Eastern","divisionname":"Agartala","Taluk":"Birendranagar"},{"officename":"Radhamohanpur B.O","pincode":"799045","officetype":"B.O","deliverystatus":"Delivery","statename":"TRIPURA","regionname":"Shillong HQ","circlename":"North Eastern","divisionname":"Agartala","Taluk":"Birendranagar"},{"officename":"Sanchindranagar Colony B.O","pincode":"799045","officetype":"B.O","deliverystatus":"Delivery","statename":"TRIPURA","regionname":"Shillong HQ","circlename":"North Eastern","divisionname":"Agartala","Taluk":"Birendranagar"},{"officename":"Banamalipur B.O","pincode":"799007","officetype":"B.O","deliverystatus":"Delivery","statename":"TRIPURA","regionname":"Shillong HQ","circlename":"North Eastern","divisionname":"Agartala","Taluk":"NA"},{"officename":"Harishnagar T.E. B.O","pincode":"799102","officetype":"B.O","deliverystatus":"Delivery","statename":"TRIPURA","regionname":"Shillong HQ","circlename":"North Eastern","divisionname":"Agartala","Taluk":"Bishalgarh"},{"officename":"Krishnakishorenagar B.O","pincode":"799102","officetype":"B.O","deliverystatus":"Delivery","statename":"TRIPURA","regionname":"Shillong HQ","circlename":"North Eastern","divisionname":"Agartala","Taluk":"Bishalgarh"},{"officename":"Konabon B.O","pincode":"799102","officetype":"B.O","deliverystatus":"Delivery","statename":"TRIPURA","regionname":"Shillong HQ","circlename":"North Eastern","divisionname":"Agartala","Taluk":"Bishalgarh"},{"officename":"Kamalasagar B.O","pincode":"799102","officetype":"B.O","deliverystatus":"Delivery","statename":"TRIPURA","regionname":"Shillong HQ","circlename":"North Eastern","divisionname":"Agartala","Taluk":"Bishalgarh"},{"officename":"Kaiyadhepa B.O","pincode":"799102","officetype":"B.O","deliverystatus":"Delivery","statename":"TRIPURA","regionname":"Shillong HQ","circlename":"North Eastern","divisionname":"Agartala","Taluk":"Bishalgarh"},{"officename":"Madhupur B.O","pincode":"799102","officetype":"B.O","deliverystatus":"Delivery","statename":"TRIPURA","regionname":"Shillong HQ","circlename":"North Eastern","divisionname":"Agartala","Taluk":"Bishalgarh"},{"officename":"Purathalrajnagar B.O","pincode":"799102","officetype":"B.O","deliverystatus":"Delivery","statename":"TRIPURA","regionname":"Shillong HQ","circlename":"North Eastern","divisionname":"Agartala","Taluk":"Bishalgarh"},{"officename":"Purba Gokulnagar B.O","pincode":"799102","officetype":"B.O","deliverystatus":"Delivery","statename":"TRIPURA","regionname":"Shillong HQ","circlename":"North Eastern","divisionname":"Agartala","Taluk":"Bishalgarh"},{"officename":"South Nehalchandranagar B.O","pincode":"799102","officetype":"B.O","deliverystatus":"Non-Delivery","statename":"TRIPURA","regionname":"Shillong HQ","circlename":"North Eastern","divisionname":"Agartala","Taluk":"Bishalgarh"},{"officename":"West Laxmibill B.O","pincode":"799102","officetype":"B.O","deliverystatus":"Non-Delivery","statename":"TRIPURA","regionname":"Shillong HQ","circlename":"North Eastern","divisionname":"Agartala","Taluk":"Bishalgarh"},{"officename":"Bankumari E/SB B.O","pincode":"799006","officetype":"B.O","deliverystatus":"Delivery","statename":"TRIPURA","regionname":"Shillong HQ","circlename":"North Eastern","divisionname":"Agartala","Taluk":"Sadar"},{"officename":"G.B.Hospital B.O","pincode":"799006","officetype":"B.O","deliverystatus":"Delivery","statename":"TRIPURA","regionname":"Shillong HQ","circlename":"North Eastern","divisionname":"Agartala","Taluk":"Sadar"},{"officename":"Indranagar B.O","pincode":"799006","officetype":"B.O","deliverystatus":"Delivery","statename":"TRIPURA","regionname":"Shillong HQ","circlename":"North Eastern","divisionname":"Agartala","Taluk":"Sadar"},{"officename":"Kathalbagan B.O","pincode":"799006","officetype":"B.O","deliverystatus":"Delivery","statename":"TRIPURA","regionname":"Shillong HQ","circlename":"North Eastern","divisionname":"Agartala","Taluk":"Sadar"},{"officename":"Kunjabon Road B.O","pincode":"799006","officetype":"B.O","deliverystatus":"Delivery","statename":"TRIPURA","regionname":"Shillong HQ","circlename":"North Eastern","divisionname":"Agartala","Taluk":"Sadar"},{"officename":"Noagaon Krishnagar B.O","pincode":"799006","officetype":"B.O","deliverystatus":"Delivery","statename":"TRIPURA","regionname":"Shillong HQ","circlename":"North Eastern","divisionname":"Agartala","Taluk":"Sadar"},{"officename":"Nandannagar B.O","pincode":"799006","officetype":"B.O","deliverystatus":"Delivery","statename":"TRIPURA","regionname":"Shillong HQ","circlename":"North Eastern","divisionname":"Agartala","Taluk":"Sadar"},{"officename":"Kalibazar B.O","pincode":"799210","officetype":"B.O","deliverystatus":"Delivery","statename":"TRIPURA","regionname":"Shillong HQ","circlename":"North Eastern","divisionname":"Agartala","Taluk":"Kamalghat"},{"officename":"Bodhjungnagar B.O","pincode":"799210","officetype":"B.O","deliverystatus":"Delivery","statename":"TRIPURA","regionname":"Shillong HQ","circlename":"North Eastern","divisionname":"Agartala","Taluk":"Kamalghat"},{"officename":"Chechuria B.O","pincode":"799210","officetype":"B.O","deliverystatus":"Delivery","statename":"TRIPURA","regionname":"Shillong HQ","circlename":"North Eastern","divisionname":"Agartala","Taluk":"Kamalghat"},{"officename":"Fatikchhera B.O","pincode":"799210","officetype":"B.O","deliverystatus":"Delivery","statename":"TRIPURA","regionname":"Shillong HQ","circlename":"North Eastern","divisionname":"Agartala","Taluk":"Kamalghat"},{"officename":"Harendranagar T. B.O","pincode":"799210","officetype":"B.O","deliverystatus":"Delivery","statename":"TRIPURA","regionname":"Shillong HQ","circlename":"North Eastern","divisionname":"Agartala","Taluk":"Kamalghat"},{"officename":"Laifunga B.O","pincode":"799210","officetype":"B.O","deliverystatus":"Delivery","statename":"TRIPURA","regionname":"Shillong HQ","circlename":"North Eastern","divisionname":"Agartala","Taluk":"Kamalghat"},{"officename":"Lembucherra B.O","pincode":"799210","officetype":"B.O","deliverystatus":"Delivery","statename":"TRIPURA","regionname":"Shillong HQ","circlename":"North Eastern","divisionname":"Agartala","Taluk":"Kamalghat"},{"officename":"Khasnoagaon B.O","pincode":"799008","officetype":"B.O","deliverystatus":"Delivery","statename":"TRIPURA","regionname":"Shillong HQ","circlename":"North Eastern","divisionname":"Agartala","Taluk":"Khayerpur"},{"officename":"Mariamnagar B.O","pincode":"799008","officetype":"B.O","deliverystatus":"Delivery","statename":"TRIPURA","regionname":"Shillong HQ","circlename":"North Eastern","divisionname":"Agartala","Taluk":"Khayerpur"},{"officename":"Neepco B.O","pincode":"799008","officetype":"B.O","deliverystatus":"Delivery","statename":"TRIPURA","regionname":"Shillong HQ","circlename":"North Eastern","divisionname":"Agartala","Taluk":"Khayerpur"},{"officename":"Old Agartala B.O","pincode":"799008","officetype":"B.O","deliverystatus":"Delivery","statename":"TRIPURA","regionname":"Shillong HQ","circlename":"North Eastern","divisionname":"Agartala","Taluk":"Khayerpur"},{"officename":"Paschim Noabadi B.O","pincode":"799008","officetype":"B.O","deliverystatus":"Delivery","statename":"TRIPURA","regionname":"Shillong HQ","circlename":"North Eastern","divisionname":"Agartala","Taluk":"Khayerpur"},{"officename":"Paschim Champamur B.O","pincode":"799008","officetype":"B.O","deliverystatus":"Delivery","statename":"TRIPURA","regionname":"Shillong HQ","circlename":"North Eastern","divisionname":"Agartala","Taluk":"Khayerpur"},{"officename":"Reshambagan B.O","pincode":"799008","officetype":"B.O","deliverystatus":"Delivery","statename":"TRIPURA","regionname":"Shillong HQ","circlename":"North Eastern","divisionname":"Agartala","Taluk":"Khayerpur"},{"officename":"Ramachandranagar B.O","pincode":"799008","officetype":"B.O","deliverystatus":"Delivery","statename":"TRIPURA","regionname":"Shillong HQ","circlename":"North Eastern","divisionname":"Agartala","Taluk":"Khayerpur"},{"officename":"Bijoynagar Bazar B.O","pincode":"799211","officetype":"B.O","deliverystatus":"Delivery","statename":"TRIPURA","regionname":"Shillong HQ","circlename":"North Eastern","divisionname":"Agartala","Taluk":"Mohanpur"},{"officename":"Barkathalia B.O","pincode":"799211","officetype":"B.O","deliverystatus":"Delivery","statename":"TRIPURA","regionname":"Shillong HQ","circlename":"North Eastern","divisionname":"Agartala","Taluk":"Mohanpur"},{"officename":"Bamutia B.O","pincode":"799211","officetype":"B.O","deliverystatus":"Delivery","statename":"TRIPURA","regionname":"Shillong HQ","circlename":"North Eastern","divisionname":"Agartala","Taluk":"Mohanpur"},{"officename":"Baikunthapur B.O","pincode":"799211","officetype":"B.O","deliverystatus":"Delivery","statename":"TRIPURA","regionname":"Shillong HQ","circlename":"North Eastern","divisionname":"Agartala","Taluk":"Mohanpur"},{"officename":"Chachubazar B.O","pincode":"799211","officetype":"B.O","deliverystatus":"Delivery","statename":"TRIPURA","regionname":"Shillong HQ","circlename":"North Eastern","divisionname":"Agartala","Taluk":"Mohanpur"},{"officename":"Dighalia Bazar B.O","pincode":"799211","officetype":"B.O","deliverystatus":"Delivery","statename":"TRIPURA","regionname":"Shillong HQ","circlename":"North Eastern","divisionname":"Agartala","Taluk":"Mohanpur"},{"officename":"Kalkalia T.E. B.O","pincode":"799211","officetype":"B.O","deliverystatus":"Delivery","statename":"TRIPURA","regionname":"Shillong HQ","circlename":"North Eastern","divisionname":"Agartala","Taluk":"Mohanpur"},{"officename":"Kalacherra T.E. B.O","pincode":"799211","officetype":"B.O","deliverystatus":"Delivery","statename":"TRIPURA","regionname":"Shillong HQ","circlename":"North Eastern","divisionname":"Agartala","Taluk":"Mohanpur"},{"officename":"Madhuchoudhurypara B.O","pincode":"799211","officetype":"B.O","deliverystatus":"Delivery","statename":"TRIPURA","regionname":"Shillong HQ","circlename":"North Eastern","divisionname":"Agartala","Taluk":"Mohanpur"},{"officename":"Patnipara B.O","pincode":"799211","officetype":"B.O","deliverystatus":"Delivery","statename":"TRIPURA","regionname":"Shillong HQ","circlename":"North Eastern","divisionname":"Agartala","Taluk":"Mohanpur"},{"officename":"Subalsing B.O","pincode":"799211","officetype":"B.O","deliverystatus":"Delivery","statename":"TRIPURA","regionname":"Shillong HQ","circlename":"North Eastern","divisionname":"Agartala","Taluk":"Mohanpur"},{"officename":"Taranagar B.O","pincode":"799211","officetype":"B.O","deliverystatus":"Delivery","statename":"TRIPURA","regionname":"Shillong HQ","circlename":"North Eastern","divisionname":"Agartala","Taluk":"Mohanpur"},{"officename":"Thamakari B.O","pincode":"799211","officetype":"B.O","deliverystatus":"Delivery","statename":"TRIPURA","regionname":"Shillong HQ","circlename":"North Eastern","divisionname":"Agartala","Taluk":"Mohanpur"},{"officename":"Tarapur B.O","pincode":"799211","officetype":"B.O","deliverystatus":"Delivery","statename":"TRIPURA","regionname":"Shillong HQ","circlename":"North Eastern","divisionname":"Agartala","Taluk":"Mohanpur"},{"officename":"Uttar debendranagar B.O","pincode":"799211","officetype":"B.O","deliverystatus":"Delivery","statename":"TRIPURA","regionname":"Shillong HQ","circlename":"North Eastern","divisionname":"Agartala","Taluk":"Mohanpur"},{"officename":"AgartalaGuard Post B.O","pincode":"799002","officetype":"B.O","deliverystatus":"Delivery","statename":"TRIPURA","regionname":"Shillong HQ","circlename":"North Eastern","divisionname":"Agartala","Taluk":"Sadar"},{"officename":"Border Rampur B.O","pincode":"799002","officetype":"B.O","deliverystatus":"Delivery","statename":"TRIPURA","regionname":"Shillong HQ","circlename":"North Eastern","divisionname":"Agartala","Taluk":"NA"},{"officename":"Barjala B.O","pincode":"799002","officetype":"B.O","deliverystatus":"Delivery","statename":"TRIPURA","regionname":"Shillong HQ","circlename":"North Eastern","divisionname":"Agartala","Taluk":"Sadar"},{"officename":"Krishnanagar B.O","pincode":"799002","officetype":"B.O","deliverystatus":"Delivery","statename":"TRIPURA","regionname":"Shillong HQ","circlename":"North Eastern","divisionname":"Agartala","Taluk":"Sadar"},{"officename":"Puran Kalibari B.O","pincode":"799002","officetype":"B.O","deliverystatus":"Delivery","statename":"TRIPURA","regionname":"Shillong HQ","circlename":"North Eastern","divisionname":"Agartala","Taluk":"Sadar"},{"officename":"Paschim Bhubanban B.O","pincode":"799002","officetype":"B.O","deliverystatus":"Delivery","statename":"TRIPURA","regionname":"Shillong HQ","circlename":"North Eastern","divisionname":"Agartala","Taluk":"Sadar"},{"officename":"Town Rampur B.O","pincode":"799002","officetype":"B.O","deliverystatus":"Delivery","statename":"TRIPURA","regionname":"Shillong HQ","circlename":"North Eastern","divisionname":"Agartala","Taluk":"Sadar"},{"officename":"Burakha Landless Colony B.O","pincode":"799035","officetype":"B.O","deliverystatus":"Delivery","statename":"TRIPURA","regionname":"Shillong HQ","circlename":"North Eastern","divisionname":"Agartala","Taluk":"Ranirbazar"},{"officename":"Durganagar B.O","pincode":"799035","officetype":"B.O","deliverystatus":"Delivery","statename":"TRIPURA","regionname":"Shillong HQ","circlename":"North Eastern","divisionname":"Agartala","Taluk":"Ranirbazar"},{"officename":"Dinabandhupara B.O","pincode":"799035","officetype":"B.O","deliverystatus":"Delivery","statename":"TRIPURA","regionname":"Shillong HQ","circlename":"North Eastern","divisionname":"Agartala","Taluk":"Ranirbazar"},{"officename":"Majlishpur B.O","pincode":"799035","officetype":"B.O","deliverystatus":"Delivery","statename":"TRIPURA","regionname":"Shillong HQ","circlename":"North Eastern","divisionname":"Agartala","Taluk":"Ranirbazar"},{"officename":"Meghlipara B.O","pincode":"799035","officetype":"B.O","deliverystatus":"Delivery","statename":"TRIPURA","regionname":"Shillong HQ","circlename":"North Eastern","divisionname":"Agartala","Taluk":"Ranirbazar"},{"officename":"Purba Noagaon B.O","pincode":"799035","officetype":"B.O","deliverystatus":"Delivery","statename":"TRIPURA","regionname":"Shillong HQ","circlename":"North Eastern","divisionname":"Agartala","Taluk":"Ranirbazar"},{"officename":"Sonamani sepaipara B.O","pincode":"799035","officetype":"B.O","deliverystatus":"Delivery","statename":"TRIPURA","regionname":"Shillong HQ","circlename":"North Eastern","divisionname":"Agartala","Taluk":"Ranirbazar"},{"officename":"Wakinagar B.O","pincode":"799035","officetype":"B.O","deliverystatus":"Delivery","statename":"TRIPURA","regionname":"Shillong HQ","circlename":"North Eastern","divisionname":"Agartala","Taluk":"Ranirbazar"},{"officename":"Gandhigram B.O","pincode":"799012","officetype":"B.O","deliverystatus":"Delivery","statename":"TRIPURA","regionname":"Shillong HQ","circlename":"North Eastern","divisionname":"Agartala","Taluk":"Sadar"},{"officename":"Balubon B.O","pincode":"799212","officetype":"B.O","deliverystatus":"Delivery","statename":"TRIPURA","regionname":"Shillong HQ","circlename":"North Eastern","divisionname":"Agartala","Taluk":"Sidhai"},{"officename":"Darogamura B.O","pincode":"799212","officetype":"B.O","deliverystatus":"Delivery","statename":"TRIPURA","regionname":"Shillong HQ","circlename":"North Eastern","divisionname":"Agartala","Taluk":"Sidhai"},{"officename":"Ishanpur B.O","pincode":"799212","officetype":"B.O","deliverystatus":"Delivery","statename":"TRIPURA","regionname":"Shillong HQ","circlename":"North Eastern","divisionname":"Agartala","Taluk":"Sidhai"},{"officename":"Sundartilla B.O","pincode":"799212","officetype":"B.O","deliverystatus":"Delivery","statename":"TRIPURA","regionname":"Shillong HQ","circlename":"North Eastern","divisionname":"Agartala","Taluk":"Sidhai"},{"officename":"Sonaram Bazar B.O","pincode":"799212","officetype":"B.O","deliverystatus":"Delivery","statename":"TRIPURA","regionname":"Shillong HQ","circlename":"North Eastern","divisionname":"Agartala","Taluk":"Sidhai"},{"officename":"Simna Colony B.O","pincode":"799212","officetype":"B.O","deliverystatus":"Delivery","statename":"TRIPURA","regionname":"Shillong HQ","circlename":"North Eastern","divisionname":"Agartala","Taluk":"Sidhai"},{"officename":"Uttar Dasgharia B.O","pincode":"799212","officetype":"B.O","deliverystatus":"Delivery","statename":"TRIPURA","regionname":"Shillong HQ","circlename":"North Eastern","divisionname":"Agartala","Taluk":"Sidhai"},{"officename":"Amtali B.O","pincode":"799130","officetype":"B.O","deliverystatus":"Delivery","statename":"TRIPURA","regionname":"Shillong HQ","circlename":"North Eastern","divisionname":"Agartala","Taluk":"Sekerkote"},{"officename":"Champamura Bazar B.O","pincode":"799130","officetype":"B.O","deliverystatus":"Delivery","statename":"TRIPURA","regionname":"Shillong HQ","circlename":"North Eastern","divisionname":"Agartala","Taluk":"Sekerkote"},{"officename":"Kanchanmala B.O","pincode":"799130","officetype":"B.O","deliverystatus":"Delivery","statename":"TRIPURA","regionname":"Shillong HQ","circlename":"North Eastern","divisionname":"Agartala","Taluk":"Sekerkote"},{"officename":"Paschim Gokulnagar B.O","pincode":"799130","officetype":"B.O","deliverystatus":"Delivery","statename":"TRIPURA","regionname":"Shillong HQ","circlename":"North Eastern","divisionname":"Agartala","Taluk":"Sekerkote"},{"officename":"Pravapur B.O","pincode":"799130","officetype":"B.O","deliverystatus":"Delivery","statename":"TRIPURA","regionname":"Shillong HQ","circlename":"North Eastern","divisionname":"Agartala","Taluk":"Sekerkote"},{"officename":"Pandavpur B.O","pincode":"799130","officetype":"B.O","deliverystatus":"Delivery","statename":"TRIPURA","regionname":"Shillong HQ","circlename":"North Eastern","divisionname":"Agartala","Taluk":"Sekerkote"},{"officename":"Rayermura B.O","pincode":"799130","officetype":"B.O","deliverystatus":"Delivery","statename":"TRIPURA","regionname":"Shillong HQ","circlename":"North Eastern","divisionname":"Agartala","Taluk":"Sekerkote"},{"officename":"Viveknagar B.O","pincode":"799130","officetype":"B.O","deliverystatus":"Delivery","statename":"TRIPURA","regionname":"Shillong HQ","circlename":"North Eastern","divisionname":"Agartala","Taluk":"Sekerkote"},{"officename":"Gouranga Bazar B.O","pincode":"799157","officetype":"B.O","deliverystatus":"Delivery","statename":"TRIPURA","regionname":"Shillong HQ","circlename":"North Eastern","divisionname":"Agartala","Taluk":"Rajnagar"},{"officename":"Dimatali B.O","pincode":"799157","officetype":"B.O","deliverystatus":"Delivery","statename":"TRIPURA","regionname":"Shillong HQ","circlename":"North Eastern","divisionname":"Agartala","Taluk":"Anandapur"},{"officename":"Gabtali B.O","pincode":"799157","officetype":"B.O","deliverystatus":"Delivery","statename":"TRIPURA","regionname":"Shillong HQ","circlename":"North Eastern","divisionname":"Agartala","Taluk":"Anandapur"},{"officename":"Puran Rajbari B.O","pincode":"799157","officetype":"B.O","deliverystatus":"Delivery","statename":"TRIPURA","regionname":"Shillong HQ","circlename":"North Eastern","divisionname":"Agartala","Taluk":"NA"},{"officename":"South srirampur B.O","pincode":"799157","officetype":"B.O","deliverystatus":"Delivery","statename":"TRIPURA","regionname":"Shillong HQ","circlename":"North Eastern","divisionname":"Agartala","Taluk":"Anandapur"},{"officename":"Siddhinagar B.O","pincode":"799157","officetype":"B.O","deliverystatus":"Delivery","statename":"TRIPURA","regionname":"Shillong HQ","circlename":"North Eastern","divisionname":"Agartala","Taluk":"Anandapur"},{"officename":"Debbari B.O","pincode":"799101","officetype":"B.O","deliverystatus":"Delivery","statename":"TRIPURA","regionname":"Shillong HQ","circlename":"North Eastern","divisionname":"Agartala","Taluk":"Amarpur"},{"officename":"Bampur B.O","pincode":"799101","officetype":"B.O","deliverystatus":"Delivery","statename":"TRIPURA","regionname":"Shillong HQ","circlename":"North Eastern","divisionname":"Agartala","Taluk":"Amarpur"},{"officename":"Chellagong B.O","pincode":"799101","officetype":"B.O","deliverystatus":"Delivery","statename":"TRIPURA","regionname":"Shillong HQ","circlename":"North Eastern","divisionname":"Agartala","Taluk":"Amarpur"},{"officename":"Chechuajamatiabari B.O","pincode":"799101","officetype":"B.O","deliverystatus":"Delivery","statename":"TRIPURA","regionname":"Shillong HQ","circlename":"North Eastern","divisionname":"Agartala","Taluk":"Amarpur"},{"officename":"Dhanlekha B.O","pincode":"799101","officetype":"B.O","deliverystatus":"Delivery","statename":"TRIPURA","regionname":"Shillong HQ","circlename":"North Eastern","divisionname":"Agartala","Taluk":"Amarpur"},{"officename":"Dakshin taidu B.O","pincode":"799101","officetype":"B.O","deliverystatus":"Delivery","statename":"TRIPURA","regionname":"Shillong HQ","circlename":"North Eastern","divisionname":"Agartala","Taluk":"Amarpur"},{"officename":"Gamakubari B.O","pincode":"799101","officetype":"B.O","deliverystatus":"Delivery","statename":"TRIPURA","regionname":"Shillong HQ","circlename":"North Eastern","divisionname":"Agartala","Taluk":"Amarpur"},{"officename":"Kurma B.O","pincode":"799101","officetype":"B.O","deliverystatus":"Delivery","statename":"TRIPURA","regionname":"Shillong HQ","circlename":"North Eastern","divisionname":"Agartala","Taluk":"Amarpur"},{"officename":"Malbassa B.O","pincode":"799101","officetype":"B.O","deliverystatus":"Delivery","statename":"TRIPURA","regionname":"Shillong HQ","circlename":"North Eastern","divisionname":"Agartala","Taluk":"Amarpur"},{"officename":"Mahuamillan B.O","pincode":"799101","officetype":"B.O","deliverystatus":"Delivery","statename":"TRIPURA","regionname":"Shillong HQ","circlename":"North Eastern","divisionname":"Agartala","Taluk":"Amarpur"},{"officename":"Nagrai B.O","pincode":"799101","officetype":"B.O","deliverystatus":"Delivery","statename":"TRIPURA","regionname":"Shillong HQ","circlename":"North Eastern","divisionname":"Agartala","Taluk":"Amarpur"},{"officename":"Paharpur B.O","pincode":"799101","officetype":"B.O","deliverystatus":"Delivery","statename":"TRIPURA","regionname":"Shillong HQ","circlename":"North Eastern","divisionname":"Agartala","Taluk":"Amarpur"},{"officename":"Palku B.O","pincode":"799101","officetype":"B.O","deliverystatus":"Delivery","statename":"TRIPURA","regionname":"Shillong HQ","circlename":"North Eastern","divisionname":"Agartala","Taluk":"Amarpur"},{"officename":"Rangamati B.O","pincode":"799101","officetype":"B.O","deliverystatus":"Delivery","statename":"TRIPURA","regionname":"Shillong HQ","circlename":"North Eastern","divisionname":"Agartala","Taluk":"Amarpur"},{"officename":"Rangkhang B.O","pincode":"799101","officetype":"B.O","deliverystatus":"Delivery","statename":"TRIPURA","regionname":"Shillong HQ","circlename":"North Eastern","divisionname":"Agartala","Taluk":"Amarpur"},{"officename":"Sarbong B.O","pincode":"799101","officetype":"B.O","deliverystatus":"Delivery","statename":"TRIPURA","regionname":"Shillong HQ","circlename":"North Eastern","divisionname":"Agartala","Taluk":"Amarpur"},{"officename":"Taidubari B.O","pincode":"799101","officetype":"B.O","deliverystatus":"Delivery","statename":"TRIPURA","regionname":"Shillong HQ","circlename":"North Eastern","divisionname":"Agartala","Taluk":"NA"},{"officename":"Abhoyganj Bazar B.O","pincode":"799155","officetype":"B.O","deliverystatus":"Delivery","statename":"TRIPURA","regionname":"Shillong HQ","circlename":"North Eastern","divisionname":"Agartala","Taluk":"NA"},{"officename":"Barpathari B.O","pincode":"799155","officetype":"B.O","deliverystatus":"Delivery","statename":"TRIPURA","regionname":"Shillong HQ","circlename":"North Eastern","divisionname":"Agartala","Taluk":"Beloniya"},{"officename":"Belonia aerodrome B.O","pincode":"799155","officetype":"B.O","deliverystatus":"Delivery","statename":"TRIPURA","regionname":"Shillong HQ","circlename":"North Eastern","divisionname":"Agartala","Taluk":"Beloniya"},{"officename":"Baspadua B.O","pincode":"799155","officetype":"B.O","deliverystatus":"Delivery","statename":"TRIPURA","regionname":"Shillong HQ","circlename":"North Eastern","divisionname":"Agartala","Taluk":"Beloniya"},{"officename":"Chittamara B.O","pincode":"799155","officetype":"B.O","deliverystatus":"Delivery","statename":"TRIPURA","regionname":"Shillong HQ","circlename":"North Eastern","divisionname":"Agartala","Taluk":"Beloniya"},{"officename":"Debipur B.O","pincode":"799155","officetype":"B.O","deliverystatus":"Delivery","statename":"TRIPURA","regionname":"Shillong HQ","circlename":"North Eastern","divisionname":"Agartala","Taluk":"Beloniya"},{"officename":"Dakshin Sonaicharri B.O","pincode":"799155","officetype":"B.O","deliverystatus":"Delivery","statename":"TRIPURA","regionname":"Shillong HQ","circlename":"North Eastern","divisionname":"Agartala","Taluk":"Beloniya"},{"officename":"Paschim Pipariakhola B.O","pincode":"799155","officetype":"B.O","deliverystatus":"Delivery","statename":"TRIPURA","regionname":"Shillong HQ","circlename":"North Eastern","divisionname":"Agartala","Taluk":"Beloniya"},{"officename":"South Bharat Ch.Nagar B.O","pincode":"799155","officetype":"B.O","deliverystatus":"Delivery","statename":"TRIPURA","regionname":"Shillong HQ","circlename":"North Eastern","divisionname":"Agartala","Taluk":"Beloniya"},{"officename":"Sarasima B.O","pincode":"799155","officetype":"B.O","deliverystatus":"Delivery","statename":"TRIPURA","regionname":"Shillong HQ","circlename":"North Eastern","divisionname":"Agartala","Taluk":"Beloniya"},{"officename":"Subashnagar B.O","pincode":"799155","officetype":"B.O","deliverystatus":"Delivery","statename":"TRIPURA","regionname":"Shillong HQ","circlename":"North Eastern","divisionname":"Agartala","Taluk":"Beloniya"},{"officename":"Uttar Sonaicherri B.O","pincode":"799155","officetype":"B.O","deliverystatus":"Delivery","statename":"TRIPURA","regionname":"Shillong HQ","circlename":"North Eastern","divisionname":"Agartala","Taluk":"Beloniya"},{"officename":"Uttar Bharat Ch Nagar B.O","pincode":"799155","officetype":"B.O","deliverystatus":"Delivery","statename":"TRIPURA","regionname":"Shillong HQ","circlename":"North Eastern","divisionname":"Agartala","Taluk":"Beloniya"},{"officename":"Gangacherra B.O","pincode":"799125","officetype":"B.O","deliverystatus":"Delivery","statename":"TRIPURA","regionname":"Shillong HQ","circlename":"North Eastern","divisionname":"Agartala","Taluk":"Garjee"},{"officename":"Kalabon B.O","pincode":"799125","officetype":"B.O","deliverystatus":"Delivery","statename":"TRIPURA","regionname":"Shillong HQ","circlename":"North Eastern","divisionname":"Agartala","Taluk":"Garjee"},{"officename":"Paikhola B.O","pincode":"799125","officetype":"B.O","deliverystatus":"Delivery","statename":"TRIPURA","regionname":"Shillong HQ","circlename":"North Eastern","divisionname":"Agartala","Taluk":"NA"},{"officename":"Paschim Paticherri Colony B.O","pincode":"799125","officetype":"B.O","deliverystatus":"Delivery","statename":"TRIPURA","regionname":"Shillong HQ","circlename":"North Eastern","divisionname":"Agartala","Taluk":"Garjee"},{"officename":"Rajapur B.O","pincode":"799125","officetype":"B.O","deliverystatus":"Delivery","statename":"TRIPURA","regionname":"Shillong HQ","circlename":"North Eastern","divisionname":"Agartala","Taluk":"Garjee"},{"officename":"Tainani B.O","pincode":"799125","officetype":"B.O","deliverystatus":"Delivery","statename":"TRIPURA","regionname":"Shillong HQ","circlename":"North Eastern","divisionname":"Agartala","Taluk":"Garjee"},{"officename":"Takmacherra B.O","pincode":"799125","officetype":"B.O","deliverystatus":"Delivery","statename":"TRIPURA","regionname":"Shillong HQ","circlename":"North Eastern","divisionname":"Agartala","Taluk":"Garjee"},{"officename":"Boalkhali B.O","pincode":"799104","officetype":"B.O","deliverystatus":"Delivery","statename":"TRIPURA","regionname":"Shillong HQ","circlename":"North Eastern","divisionname":"Agartala","Taluk":"Jatanbari"},{"officename":"Barbil B.O","pincode":"799104","officetype":"B.O","deliverystatus":"Delivery","statename":"TRIPURA","regionname":"Shillong HQ","circlename":"North Eastern","divisionname":"Agartala","Taluk":"Jatanbari"},{"officename":"Dumburnagar B.O","pincode":"799104","officetype":"B.O","deliverystatus":"Delivery","statename":"TRIPURA","regionname":"Shillong HQ","circlename":"North Eastern","divisionname":"Agartala","Taluk":"Jatanbari"},{"officename":"Ghorakappa B.O","pincode":"799104","officetype":"B.O","deliverystatus":"Delivery","statename":"TRIPURA","regionname":"Shillong HQ","circlename":"North Eastern","divisionname":"Agartala","Taluk":"Jatanbari"},{"officename":"Jalaya B.O","pincode":"799104","officetype":"B.O","deliverystatus":"Delivery","statename":"TRIPURA","regionname":"Shillong HQ","circlename":"North Eastern","divisionname":"Agartala","Taluk":"Jatanbari"},{"officename":"Karbook B.O","pincode":"799104","officetype":"B.O","deliverystatus":"Delivery","statename":"TRIPURA","regionname":"Shillong HQ","circlename":"North Eastern","divisionname":"Agartala","Taluk":"Jatanbari"},{"officename":"Lebacherra B.O","pincode":"799104","officetype":"B.O","deliverystatus":"Delivery","statename":"TRIPURA","regionname":"Shillong HQ","circlename":"North Eastern","divisionname":"Agartala","Taluk":"Jatanbari"},{"officename":"Paticherri B.O","pincode":"799104","officetype":"B.O","deliverystatus":"Delivery","statename":"TRIPURA","regionname":"Shillong HQ","circlename":"North Eastern","divisionname":"Agartala","Taluk":"Jatanbari"},{"officename":"Purba Manikya Dewan B.O","pincode":"799104","officetype":"B.O","deliverystatus":"Delivery","statename":"TRIPURA","regionname":"Shillong HQ","circlename":"North Eastern","divisionname":"Agartala","Taluk":"Jatanbari"},{"officename":"Raima B.O","pincode":"799104","officetype":"B.O","deliverystatus":"Delivery","statename":"TRIPURA","regionname":"Shillong HQ","circlename":"North Eastern","divisionname":"Agartala","Taluk":"Jatanbari"},{"officename":"Silacharri B.O","pincode":"799104","officetype":"B.O","deliverystatus":"Delivery","statename":"TRIPURA","regionname":"Shillong HQ","circlename":"North Eastern","divisionname":"Agartala","Taluk":"Jatanbari"},{"officename":"Suknacherri B.O","pincode":"799104","officetype":"B.O","deliverystatus":"Delivery","statename":"TRIPURA","regionname":"Shillong HQ","circlename":"North Eastern","divisionname":"Agartala","Taluk":"Jatanbari"},{"officename":"Tirthamukh B.O","pincode":"799104","officetype":"B.O","deliverystatus":"Delivery","statename":"TRIPURA","regionname":"Shillong HQ","circlename":"North Eastern","divisionname":"Agartala","Taluk":"Jatanbari"},{"officename":"Uttar Chellagonj B.O","pincode":"799104","officetype":"B.O","deliverystatus":"Delivery","statename":"TRIPURA","regionname":"Shillong HQ","circlename":"North Eastern","divisionname":"Agartala","Taluk":"Jatanbari"},{"officename":"Tuichama B.O","pincode":"799104","officetype":"B.O","deliverystatus":"Delivery","statename":"TRIPURA","regionname":"Shillong HQ","circlename":"North Eastern","divisionname":"Agartala","Taluk":"Jatanbari"},{"officename":"East Bagabassa B.O","pincode":"799113","officetype":"B.O","deliverystatus":"Delivery","statename":"TRIPURA","regionname":"Shillong HQ","circlename":"North Eastern","divisionname":"Agartala","Taluk":"Udaipur"},{"officename":"Garjanmura B.O","pincode":"799113","officetype":"B.O","deliverystatus":"Delivery","statename":"TRIPURA","regionname":"Shillong HQ","circlename":"North Eastern","divisionname":"Agartala","Taluk":"Udaipur"},{"officename":"Killarbazar B.O","pincode":"799114","officetype":"B.O","deliverystatus":"Delivery","statename":"TRIPURA","regionname":"Shillong HQ","circlename":"North Eastern","divisionname":"Agartala","Taluk":"Udaipur"},{"officename":"Manikya B.O","pincode":"799114","officetype":"B.O","deliverystatus":"Delivery","statename":"TRIPURA","regionname":"Shillong HQ","circlename":"North Eastern","divisionname":"Agartala","Taluk":"Udaipur"},{"officename":"Kupilong B.O","pincode":"799113","officetype":"B.O","deliverystatus":"Delivery","statename":"TRIPURA","regionname":"Shillong HQ","circlename":"North Eastern","divisionname":"Agartala","Taluk":"Udaipur"},{"officename":"Raiyabari B.O","pincode":"799114","officetype":"B.O","deliverystatus":"Delivery","statename":"TRIPURA","regionname":"Shillong HQ","circlename":"North Eastern","divisionname":"Agartala","Taluk":"Udaipur"},{"officename":"Salgara B.O","pincode":"799113","officetype":"B.O","deliverystatus":"Delivery","statename":"TRIPURA","regionname":"Shillong HQ","circlename":"North Eastern","divisionname":"Agartala","Taluk":"Udaipur"},{"officename":"Thelakum B.O","pincode":"799114","officetype":"B.O","deliverystatus":"Delivery","statename":"TRIPURA","regionname":"Shillong HQ","circlename":"North Eastern","divisionname":"Agartala","Taluk":"Udaipur"},{"officename":"Uttar Brojendranagar B.O","pincode":"799114","officetype":"B.O","deliverystatus":"Delivery","statename":"TRIPURA","regionname":"Shillong HQ","circlename":"North Eastern","divisionname":"Agartala","Taluk":"Udaipur"},{"officename":"Dakshin Hichacherri B.O","pincode":"799141","officetype":"B.O","deliverystatus":"Delivery","statename":"TRIPURA","regionname":"Shillong HQ","circlename":"North Eastern","divisionname":"Agartala","Taluk":"NA"},{"officename":"Debdaru Bazar B.O","pincode":"799141","officetype":"B.O","deliverystatus":"Delivery","statename":"TRIPURA","regionname":"Shillong HQ","circlename":"North Eastern","divisionname":"Agartala","Taluk":"Jolaibari"},{"officename":"Kalashi Bazar B.O","pincode":"799141","officetype":"B.O","deliverystatus":"Delivery","statename":"TRIPURA","regionname":"Shillong HQ","circlename":"North Eastern","divisionname":"Agartala","Taluk":"Jolaibari"},{"officename":"Kwaifung B.O","pincode":"799141","officetype":"B.O","deliverystatus":"Delivery","statename":"TRIPURA","regionname":"Shillong HQ","circlename":"North Eastern","divisionname":"Agartala","Taluk":"Jolaibari"},{"officename":"Madhya Pillak B.O","pincode":"799141","officetype":"B.O","deliverystatus":"Delivery","statename":"TRIPURA","regionname":"Shillong HQ","circlename":"North Eastern","divisionname":"Agartala","Taluk":"Jolaibari"},{"officename":"Paschim Pillak B.O","pincode":"799141","officetype":"B.O","deliverystatus":"Delivery","statename":"TRIPURA","regionname":"Shillong HQ","circlename":"North Eastern","divisionname":"Agartala","Taluk":"Jolaibari"},{"officename":"Sakbari B.O","pincode":"799141","officetype":"B.O","deliverystatus":"Delivery","statename":"TRIPURA","regionname":"Shillong HQ","circlename":"North Eastern","divisionname":"Agartala","Taluk":"Jolaibari"},{"officename":"Thakurcherra B.O","pincode":"799141","officetype":"B.O","deliverystatus":"Delivery","statename":"TRIPURA","regionname":"Shillong HQ","circlename":"North Eastern","divisionname":"Agartala","Taluk":"Jolaibari"},{"officename":"Bazar Amtali B.O","pincode":"799105","officetype":"B.O","deliverystatus":"Delivery","statename":"TRIPURA","regionname":"Shillong HQ","circlename":"North Eastern","divisionname":"Agartala","Taluk":"Kakranan"},{"officename":"Chandul B.O","pincode":"799105","officetype":"B.O","deliverystatus":"Delivery","statename":"TRIPURA","regionname":"Shillong HQ","circlename":"North Eastern","divisionname":"Agartala","Taluk":"Kakranan"},{"officename":"Dhuptali B.O","pincode":"799105","officetype":"B.O","deliverystatus":"Delivery","statename":"TRIPURA","regionname":"Shillong HQ","circlename":"North Eastern","divisionname":"Agartala","Taluk":"Kakranan"},{"officename":"East Mirza B.O","pincode":"799105","officetype":"B.O","deliverystatus":"Delivery","statename":"TRIPURA","regionname":"Shillong HQ","circlename":"North Eastern","divisionname":"Agartala","Taluk":"Kakranan"},{"officename":"Hadra B.O","pincode":"799105","officetype":"B.O","deliverystatus":"Delivery","statename":"TRIPURA","regionname":"Shillong HQ","circlename":"North Eastern","divisionname":"Agartala","Taluk":"Kakranan"},{"officename":"Ichacherra B.O","pincode":"799105","officetype":"B.O","deliverystatus":"Delivery","statename":"TRIPURA","regionname":"Shillong HQ","circlename":"North Eastern","divisionname":"Agartala","Taluk":"Kakranan"},{"officename":"Jitendranagar B.O","pincode":"799105","officetype":"B.O","deliverystatus":"Delivery","statename":"TRIPURA","regionname":"Shillong HQ","circlename":"North Eastern","divisionname":"Agartala","Taluk":"Kakranan"},{"officename":"Kamrangatali B.O","pincode":"799105","officetype":"B.O","deliverystatus":"Delivery","statename":"TRIPURA","regionname":"Shillong HQ","circlename":"North Eastern","divisionname":"Agartala","Taluk":"Kakranan"},{"officename":"Kusumara B.O","pincode":"799105","officetype":"B.O","deliverystatus":"Delivery","statename":"TRIPURA","regionname":"Shillong HQ","circlename":"North Eastern","divisionname":"Agartala","Taluk":"Kakranan"},{"officename":"Kishoreganj B.O","pincode":"799105","officetype":"B.O","deliverystatus":"Delivery","statename":"TRIPURA","regionname":"Shillong HQ","circlename":"North Eastern","divisionname":"Agartala","Taluk":"NA"},{"officename":"Mohanbhog B.O","pincode":"799105","officetype":"B.O","deliverystatus":"Delivery","statename":"TRIPURA","regionname":"Shillong HQ","circlename":"North Eastern","divisionname":"Agartala","Taluk":"Kakranan"},{"officename":"Rani B.O","pincode":"799105","officetype":"B.O","deliverystatus":"Delivery","statename":"TRIPURA","regionname":"Shillong HQ","circlename":"North Eastern","divisionname":"Agartala","Taluk":"Kakranan"},{"officename":"Samukcherra B.O","pincode":"799105","officetype":"B.O","deliverystatus":"Delivery","statename":"TRIPURA","regionname":"Shillong HQ","circlename":"North Eastern","divisionname":"Agartala","Taluk":"Kakranan"},{"officename":"Silghati B.O","pincode":"799105","officetype":"B.O","deliverystatus":"Delivery","statename":"TRIPURA","regionname":"Shillong HQ","circlename":"North Eastern","divisionname":"Agartala","Taluk":"Kakranan"},{"officename":"Taibandal B.O","pincode":"799105","officetype":"B.O","deliverystatus":"Delivery","statename":"TRIPURA","regionname":"Shillong HQ","circlename":"North Eastern","divisionname":"Agartala","Taluk":"Kakranan"},{"officename":"Upendranagar B.O","pincode":"799105","officetype":"B.O","deliverystatus":"Delivery","statename":"TRIPURA","regionname":"Shillong HQ","circlename":"North Eastern","divisionname":"Agartala","Taluk":"Kakranan"},{"officename":"Charakbai B.O","pincode":"799142","officetype":"B.O","deliverystatus":"Delivery","statename":"TRIPURA","regionname":"Shillong HQ","circlename":"North Eastern","divisionname":"Agartala","Taluk":"Muhuripur"},{"officename":"Muhuri Ratanpur B.O","pincode":"799142","officetype":"B.O","deliverystatus":"Delivery","statename":"TRIPURA","regionname":"Shillong HQ","circlename":"North Eastern","divisionname":"Agartala","Taluk":"Muhuripur"},{"officename":"Amlighat B.O","pincode":"799143","officetype":"B.O","deliverystatus":"Delivery","statename":"TRIPURA","regionname":"Shillong HQ","circlename":"North Eastern","divisionname":"Agartala","Taluk":"Manubazar"},{"officename":"Bishnupur B.O","pincode":"799143","officetype":"B.O","deliverystatus":"Delivery","statename":"TRIPURA","regionname":"Shillong HQ","circlename":"North Eastern","divisionname":"Agartala","Taluk":"Manubazar"},{"officename":"Bhuratali B.O","pincode":"799143","officetype":"B.O","deliverystatus":"Delivery","statename":"TRIPURA","regionname":"Shillong HQ","circlename":"North Eastern","divisionname":"Agartala","Taluk":"Manubazar"},{"officename":"Dakshin Fulcherri B.O","pincode":"799143","officetype":"B.O","deliverystatus":"Delivery","statename":"TRIPURA","regionname":"Shillong HQ","circlename":"North Eastern","divisionname":"Agartala","Taluk":"Manubazar"},{"officename":"Dakshin Manubankul B.O","pincode":"799143","officetype":"B.O","deliverystatus":"Delivery","statename":"TRIPURA","regionname":"Shillong HQ","circlename":"North Eastern","divisionname":"Agartala","Taluk":"NA"},{"officename":"Guachand B.O","pincode":"799143","officetype":"B.O","deliverystatus":"Delivery","statename":"TRIPURA","regionname":"Shillong HQ","circlename":"North Eastern","divisionname":"Agartala","Taluk":"Manubazar"},{"officename":"Magurcherra B.O","pincode":"799143","officetype":"B.O","deliverystatus":"Delivery","statename":"TRIPURA","regionname":"Shillong HQ","circlename":"North Eastern","divisionname":"Agartala","Taluk":"Manubazar"},{"officename":"Sindukpathar B.O","pincode":"799143","officetype":"B.O","deliverystatus":"Delivery","statename":"TRIPURA","regionname":"Shillong HQ","circlename":"North Eastern","divisionname":"Agartala","Taluk":"Manubazar"},{"officename":"Srinagar B.O","pincode":"799143","officetype":"B.O","deliverystatus":"Delivery","statename":"TRIPURA","regionname":"Shillong HQ","circlename":"North Eastern","divisionname":"Agartala","Taluk":"Manubazar"},{"officename":"Poangbari B.O","pincode":"799143","officetype":"B.O","deliverystatus":"Delivery","statename":"TRIPURA","regionname":"Shillong HQ","circlename":"North Eastern","divisionname":"Agartala","Taluk":"Manubazar"},{"officename":"Madhabnagar B.O","pincode":"799156","officetype":"B.O","deliverystatus":"Delivery","statename":"TRIPURA","regionname":"Shillong HQ","circlename":"North Eastern","divisionname":"Agartala","Taluk":"Hrishyamukh"},{"officename":"Nalua B.O","pincode":"799156","officetype":"B.O","deliverystatus":"Delivery","statename":"TRIPURA","regionname":"Shillong HQ","circlename":"North Eastern","divisionname":"Agartala","Taluk":"Hrishyamukh"},{"officename":"South Krishnagar B.O","pincode":"799156","officetype":"B.O","deliverystatus":"Delivery","statename":"TRIPURA","regionname":"Shillong HQ","circlename":"North Eastern","divisionname":"Agartala","Taluk":"Hrishyamukh"},{"officename":"Samarendraganj B.O","pincode":"799156","officetype":"B.O","deliverystatus":"Delivery","statename":"TRIPURA","regionname":"Shillong HQ","circlename":"North Eastern","divisionname":"Agartala","Taluk":"Hrishyamukh"},{"officename":"Rangamura B.O","pincode":"799153","officetype":"B.O","deliverystatus":"Delivery","statename":"TRIPURA","regionname":"Shillong HQ","circlename":"North Eastern","divisionname":"Agartala","Taluk":"Radhanagar"},{"officename":"Kasari B.O","pincode":"799150","officetype":"B.O","deliverystatus":"Delivery","statename":"TRIPURA","regionname":"Shillong HQ","circlename":"North Eastern","divisionname":"Agartala","Taluk":"Rajnagar"},{"officename":"Betaga B.O","pincode":"799144","officetype":"B.O","deliverystatus":"Delivery","statename":"TRIPURA","regionname":"Shillong HQ","circlename":"North Eastern","divisionname":"Agartala","Taluk":"NA"},{"officename":"Bagafa B.O","pincode":"799144","officetype":"B.O","deliverystatus":"Delivery","statename":"TRIPURA","regionname":"Shillong HQ","circlename":"North Eastern","divisionname":"Agartala","Taluk":"Santirbazar"},{"officename":"Baikhora B.O","pincode":"799144","officetype":"B.O","deliverystatus":"Delivery","statename":"TRIPURA","regionname":"Shillong HQ","circlename":"North Eastern","divisionname":"Agartala","Taluk":"Santirbazar"},{"officename":"East Bagafa B.O","pincode":"799144","officetype":"B.O","deliverystatus":"Delivery","statename":"TRIPURA","regionname":"Shillong HQ","circlename":"North Eastern","divisionname":"Agartala","Taluk":"Santirbazar"},{"officename":"Kathaliacherra B.O","pincode":"799144","officetype":"B.O","deliverystatus":"Delivery","statename":"TRIPURA","regionname":"Shillong HQ","circlename":"North Eastern","divisionname":"Agartala","Taluk":"Santirbazar"},{"officename":"Kanchannagar B.O","pincode":"799144","officetype":"B.O","deliverystatus":"Delivery","statename":"TRIPURA","regionname":"Shillong HQ","circlename":"North Eastern","divisionname":"Agartala","Taluk":"NA"},{"officename":"Lowgang B.O","pincode":"799144","officetype":"B.O","deliverystatus":"Delivery","statename":"TRIPURA","regionname":"Shillong HQ","circlename":"North Eastern","divisionname":"Agartala","Taluk":"Santirbazar"},{"officename":"Laxmicherra B.O","pincode":"799144","officetype":"B.O","deliverystatus":"Delivery","statename":"TRIPURA","regionname":"Shillong HQ","circlename":"North Eastern","divisionname":"Agartala","Taluk":"Santirbazar"},{"officename":"Manpather B.O","pincode":"799144","officetype":"B.O","deliverystatus":"Delivery","statename":"TRIPURA","regionname":"Shillong HQ","circlename":"North Eastern","divisionname":"Agartala","Taluk":"Santirbazar"},{"officename":"Purba Manu B.O","pincode":"799144","officetype":"B.O","deliverystatus":"Delivery","statename":"TRIPURA","regionname":"Shillong HQ","circlename":"North Eastern","divisionname":"Agartala","Taluk":"Santirbazar"},{"officename":"Radhakishoreganj B.O","pincode":"799144","officetype":"B.O","deliverystatus":"Delivery","statename":"TRIPURA","regionname":"Shillong HQ","circlename":"North Eastern","divisionname":"Agartala","Taluk":"Santirbazar"},{"officename":"Urrat Takmacherra B.O","pincode":"799144","officetype":"B.O","deliverystatus":"Delivery","statename":"TRIPURA","regionname":"Shillong HQ","circlename":"North Eastern","divisionname":"Agartala","Taluk":"Santirbazar"},{"officename":"Uttar Debipur B.O","pincode":"799144","officetype":"B.O","deliverystatus":"Delivery","statename":"TRIPURA","regionname":"Shillong HQ","circlename":"North Eastern","divisionname":"Agartala","Taluk":"Santirbazar"},{"officename":"Bijoynagar B.O","pincode":"799145","officetype":"B.O","deliverystatus":"Delivery","statename":"TRIPURA","regionname":"Shillong HQ","circlename":"North Eastern","divisionname":"Agartala","Taluk":"Sabroom"},{"officename":"Baishnabpur B.O","pincode":"799145","officetype":"B.O","deliverystatus":"Delivery","statename":"TRIPURA","regionname":"Shillong HQ","circlename":"North Eastern","divisionname":"Agartala","Taluk":"Sabroom"},{"officename":"Chalitacherra B.O","pincode":"799145","officetype":"B.O","deliverystatus":"Delivery","statename":"TRIPURA","regionname":"Shillong HQ","circlename":"North Eastern","divisionname":"Agartala","Taluk":"Sabroom"},{"officename":"Doulbari B.O","pincode":"799145","officetype":"B.O","deliverystatus":"Delivery","statename":"TRIPURA","regionname":"Shillong HQ","circlename":"North Eastern","divisionname":"Agartala","Taluk":"Sabroom"},{"officename":"Harina Bazar B.O","pincode":"799145","officetype":"B.O","deliverystatus":"Delivery","statename":"TRIPURA","regionname":"Shillong HQ","circlename":"North Eastern","divisionname":"Agartala","Taluk":"Sabroom"},{"officename":"Harbatali B.O","pincode":"799145","officetype":"B.O","deliverystatus":"Delivery","statename":"TRIPURA","regionname":"Shillong HQ","circlename":"North Eastern","divisionname":"Agartala","Taluk":"Sabroom"},{"officename":"Jalefa Bazar B.O","pincode":"799145","officetype":"B.O","deliverystatus":"Delivery","statename":"TRIPURA","regionname":"Shillong HQ","circlename":"North Eastern","divisionname":"Agartala","Taluk":"Sabroom"},{"officename":"Kathalcherri B.O","pincode":"799145","officetype":"B.O","deliverystatus":"Delivery","statename":"TRIPURA","regionname":"Shillong HQ","circlename":"North Eastern","divisionname":"Agartala","Taluk":"Sabroom"},{"officename":"Ludhua B.O","pincode":"799145","officetype":"B.O","deliverystatus":"Delivery","statename":"TRIPURA","regionname":"Shillong HQ","circlename":"North Eastern","divisionname":"Agartala","Taluk":"Sabroom"},{"officename":"Ludhua Tea Estate B.O","pincode":"799145","officetype":"B.O","deliverystatus":"Delivery","statename":"TRIPURA","regionname":"Shillong HQ","circlename":"North Eastern","divisionname":"Agartala","Taluk":"Sabroom"},{"officename":"Rupaicherri B.O","pincode":"799145","officetype":"B.O","deliverystatus":"Delivery","statename":"TRIPURA","regionname":"Shillong HQ","circlename":"North Eastern","divisionname":"Agartala","Taluk":"Sabroom"},{"officename":"Sonaicherri B.O","pincode":"799145","officetype":"B.O","deliverystatus":"Delivery","statename":"TRIPURA","regionname":"Shillong HQ","circlename":"North Eastern","divisionname":"Agartala","Taluk":"Sabroom"},{"officename":"Abani Reangpara B.O","pincode":"799013","officetype":"B.O","deliverystatus":"Delivery","statename":"TRIPURA","regionname":"Shillong HQ","circlename":"North Eastern","divisionname":"Agartala","Taluk":"NA"},{"officename":"Dakshin Chandrapur B.O","pincode":"799013","officetype":"B.O","deliverystatus":"Delivery","statename":"TRIPURA","regionname":"Shillong HQ","circlename":"North Eastern","divisionname":"Agartala","Taluk":"Udaipur"},{"officename":"Holakhet B.O","pincode":"799013","officetype":"B.O","deliverystatus":"Delivery","statename":"TRIPURA","regionname":"Shillong HQ","circlename":"North Eastern","divisionname":"Agartala","Taluk":"Udaipur"},{"officename":"Joalikhamar B.O","pincode":"799013","officetype":"B.O","deliverystatus":"Delivery","statename":"TRIPURA","regionname":"Shillong HQ","circlename":"North Eastern","divisionname":"Agartala","Taluk":"Udaipur"},{"officename":"Murapara B.O","pincode":"799013","officetype":"B.O","deliverystatus":"Delivery","statename":"TRIPURA","regionname":"Shillong HQ","circlename":"North Eastern","divisionname":"Agartala","Taluk":"Udaipur"},{"officename":"Dakshin Maharani B.O","pincode":"799013","officetype":"B.O","deliverystatus":"Delivery","statename":"TRIPURA","regionname":"Shillong HQ","circlename":"North Eastern","divisionname":"Agartala","Taluk":"Udaipur"},{"officename":"Fulkumari B.O","pincode":"799013","officetype":"B.O","deliverystatus":"Delivery","statename":"TRIPURA","regionname":"Shillong HQ","circlename":"North Eastern","divisionname":"Agartala","Taluk":"Udaipur"},{"officename":"Jamjuri B.O","pincode":"799013","officetype":"B.O","deliverystatus":"Delivery","statename":"TRIPURA","regionname":"Shillong HQ","circlename":"North Eastern","divisionname":"Agartala","Taluk":"Udaipur"},{"officename":"Khilpara B.O","pincode":"799114","officetype":"B.O","deliverystatus":"Delivery","statename":"TRIPURA","regionname":"Shillong HQ","circlename":"North Eastern","divisionname":"Agartala","Taluk":"Gakulpur"},{"officename":"Lakshipati B.O","pincode":"799013","officetype":"B.O","deliverystatus":"Delivery","statename":"TRIPURA","regionname":"Shillong HQ","circlename":"North Eastern","divisionname":"Agartala","Taluk":"Udaipur"},{"officename":"Mogpuskarini B.O","pincode":"799105","officetype":"B.O","deliverystatus":"Delivery","statename":"TRIPURA","regionname":"Shillong HQ","circlename":"North Eastern","divisionname":"Agartala","Taluk":"Kakraban"},{"officename":"Maharani B.O","pincode":"799013","officetype":"B.O","deliverystatus":"Delivery","statename":"TRIPURA","regionname":"Shillong HQ","circlename":"North Eastern","divisionname":"Agartala","Taluk":"Udaipur"},{"officename":"Palatana B.O","pincode":"799105","officetype":"B.O","deliverystatus":"Delivery","statename":"TRIPURA","regionname":"Shillong HQ","circlename":"North Eastern","divisionname":"Agartala","Taluk":"Kakraban"},{"officename":"Pitra Bazar B.O","pincode":"799114","officetype":"B.O","deliverystatus":"Delivery","statename":"TRIPURA","regionname":"Shillong HQ","circlename":"North Eastern","divisionname":"Agartala","Taluk":"Gakulpur"},{"officename":"Paschim Mogpuskarini B.O","pincode":"799105","officetype":"B.O","deliverystatus":"Delivery","statename":"TRIPURA","regionname":"Shillong HQ","circlename":"North Eastern","divisionname":"Agartala","Taluk":"Kakraban"},{"officename":"Rajarbag B.O","pincode":"799114","officetype":"B.O","deliverystatus":"Delivery","statename":"TRIPURA","regionname":"Shillong HQ","circlename":"North Eastern","divisionname":"Agartala","Taluk":"Gakulpur"},{"officename":"Rajnagar Colony B.O","pincode":"799114","officetype":"B.O","deliverystatus":"Delivery","statename":"TRIPURA","regionname":"Shillong HQ","circlename":"North Eastern","divisionname":"Agartala","Taluk":"Gakulpur"},{"officename":"Amarendranagar B.O","pincode":"799103","officetype":"B.O","deliverystatus":"Delivery","statename":"TRIPURA","regionname":"Shillong HQ","circlename":"North Eastern","divisionname":"Agartala","Taluk":"Bishramganj"},{"officename":"Barjala B.O","pincode":"799103","officetype":"B.O","deliverystatus":"Delivery","statename":"TRIPURA","regionname":"Shillong HQ","circlename":"North Eastern","divisionname":"Agartala","Taluk":"Bishramganj"},{"officename":"Bagmara B.O","pincode":"799103","officetype":"B.O","deliverystatus":"Delivery","statename":"TRIPURA","regionname":"Shillong HQ","circlename":"North Eastern","divisionname":"Agartala","Taluk":"Bishramganj"},{"officename":"Chechrimile B.O","pincode":"799103","officetype":"B.O","deliverystatus":"Delivery","statename":"TRIPURA","regionname":"Shillong HQ","circlename":"North Eastern","divisionname":"Agartala","Taluk":"Bishramganj"},{"officename":"Charilam B.O","pincode":"799103","officetype":"B.O","deliverystatus":"Delivery","statename":"TRIPURA","regionname":"Shillong HQ","circlename":"North Eastern","divisionname":"Agartala","Taluk":"Bishramganj"},{"officename":"Goliraibari B.O","pincode":"799103","officetype":"B.O","deliverystatus":"Delivery","statename":"TRIPURA","regionname":"Shillong HQ","circlename":"North Eastern","divisionname":"Agartala","Taluk":"Bishramganj"},{"officename":"Latiacherra B.O","pincode":"799103","officetype":"B.O","deliverystatus":"Delivery","statename":"TRIPURA","regionname":"Shillong HQ","circlename":"North Eastern","divisionname":"Agartala","Taluk":"Bishramganj"},{"officename":"Pathaliaghat B.O","pincode":"799103","officetype":"B.O","deliverystatus":"Delivery","statename":"TRIPURA","regionname":"Shillong HQ","circlename":"North Eastern","divisionname":"Agartala","Taluk":"Bishramganj"},{"officename":"Padmanagar B.O","pincode":"799103","officetype":"B.O","deliverystatus":"Delivery","statename":"TRIPURA","regionname":"Shillong HQ","circlename":"North Eastern","divisionname":"Agartala","Taluk":"Bishramganj"},{"officename":"Promodenagar B.O","pincode":"799103","officetype":"B.O","deliverystatus":"Delivery","statename":"TRIPURA","regionname":"Shillong HQ","circlename":"North Eastern","divisionname":"Agartala","Taluk":"Bishramganj"},{"officename":"Ramnagar Bazar B.O","pincode":"799103","officetype":"B.O","deliverystatus":"Delivery","statename":"TRIPURA","regionname":"Shillong HQ","circlename":"North Eastern","divisionname":"Agartala","Taluk":"Bishramganj"},{"officename":"Rangamala Bazar B.O","pincode":"799103","officetype":"B.O","deliverystatus":"Delivery","statename":"TRIPURA","regionname":"Shillong HQ","circlename":"North Eastern","divisionname":"Agartala","Taluk":"Bishramganj"},{"officename":"South Charilam B.O","pincode":"799103","officetype":"B.O","deliverystatus":"Delivery","statename":"TRIPURA","regionname":"Shillong HQ","circlename":"North Eastern","divisionname":"Agartala","Taluk":"Bishramganj"},{"officename":"Tekshapara B.O","pincode":"799103","officetype":"B.O","deliverystatus":"Delivery","statename":"TRIPURA","regionname":"Shillong HQ","circlename":"North Eastern","divisionname":"Agartala","Taluk":"Bishramganj"},{"officename":"Battali B.O","pincode":"799115","officetype":"B.O","deliverystatus":"Delivery","statename":"TRIPURA","regionname":"Shillong HQ","circlename":"North Eastern","divisionname":"Agartala","Taluk":"Melaghar"},{"officename":"Bagabassa B.O","pincode":"799115","officetype":"B.O","deliverystatus":"Delivery","statename":"TRIPURA","regionname":"Shillong HQ","circlename":"North Eastern","divisionname":"Agartala","Taluk":"Melaghar"},{"officename":"Bardwal B.O","pincode":"799115","officetype":"B.O","deliverystatus":"Delivery","statename":"TRIPURA","regionname":"Shillong HQ","circlename":"North Eastern","divisionname":"Agartala","Taluk":"Melaghar"},{"officename":"Chandigarh B.O","pincode":"799115","officetype":"B.O","deliverystatus":"Delivery","statename":"TRIPURA","regionname":"Shillong HQ","circlename":"North Eastern","divisionname":"Agartala","Taluk":"Melaghar"},{"officename":"Chowmouhani B.O","pincode":"799115","officetype":"B.O","deliverystatus":"Delivery","statename":"TRIPURA","regionname":"Shillong HQ","circlename":"North Eastern","divisionname":"Agartala","Taluk":"Melaghar"},{"officename":"Durlavnarayan B.O","pincode":"799115","officetype":"B.O","deliverystatus":"Delivery","statename":"TRIPURA","regionname":"Shillong HQ","circlename":"North Eastern","divisionname":"Agartala","Taluk":"Melaghar"},{"officename":"Jumerdhepa B.O","pincode":"799115","officetype":"B.O","deliverystatus":"Delivery","statename":"TRIPURA","regionname":"Shillong HQ","circlename":"North Eastern","divisionname":"Agartala","Taluk":"Melaghar"},{"officename":"Khas Chowmouhani B.O","pincode":"799115","officetype":"B.O","deliverystatus":"Delivery","statename":"TRIPURA","regionname":"Shillong HQ","circlename":"North Eastern","divisionname":"Agartala","Taluk":"Melaghar"},{"officename":"Kemtali B.O","pincode":"799115","officetype":"B.O","deliverystatus":"Delivery","statename":"TRIPURA","regionname":"Shillong HQ","circlename":"North Eastern","divisionname":"Agartala","Taluk":"Melaghar"},{"officename":"Lakshmandhepa B.O","pincode":"799115","officetype":"B.O","deliverystatus":"Delivery","statename":"TRIPURA","regionname":"Shillong HQ","circlename":"North Eastern","divisionname":"Agartala","Taluk":"Melaghar"},{"officename":"Nalchar B.O","pincode":"799115","officetype":"B.O","deliverystatus":"Delivery","statename":"TRIPURA","regionname":"Shillong HQ","circlename":"North Eastern","divisionname":"Agartala","Taluk":"Melaghar"},{"officename":"Rudijala B.O","pincode":"799115","officetype":"B.O","deliverystatus":"Delivery","statename":"TRIPURA","regionname":"Shillong HQ","circlename":"North Eastern","divisionname":"Agartala","Taluk":"Melaghar"},{"officename":"Telkajla B.O","pincode":"799115","officetype":"B.O","deliverystatus":"Delivery","statename":"TRIPURA","regionname":"Shillong HQ","circlename":"North Eastern","divisionname":"Agartala","Taluk":"Melaghar"},{"officename":"Urmai B.O","pincode":"799115","officetype":"B.O","deliverystatus":"Delivery","statename":"TRIPURA","regionname":"Shillong HQ","circlename":"North Eastern","divisionname":"Agartala","Taluk":"Melaghar"},{"officename":"West Nalchar B.O","pincode":"799115","officetype":"B.O","deliverystatus":"Delivery","statename":"TRIPURA","regionname":"Shillong HQ","circlename":"North Eastern","divisionname":"Agartala","Taluk":"Melaghar"},{"officename":"Bejimara B.O","pincode":"799131","officetype":"B.O","deliverystatus":"Delivery","statename":"TRIPURA","regionname":"Shillong HQ","circlename":"North Eastern","divisionname":"Agartala","Taluk":"Sonamura"},{"officename":"Bhabanipur B.O","pincode":"799132","officetype":"B.O","deliverystatus":"Delivery","statename":"TRIPURA","regionname":"Shillong HQ","circlename":"North Eastern","divisionname":"Agartala","Taluk":"Sonamura"},{"officename":"Dhanpur B.O","pincode":"799131","officetype":"B.O","deliverystatus":"Delivery","statename":"TRIPURA","regionname":"Shillong HQ","circlename":"North Eastern","divisionname":"Agartala","Taluk":"Sonamura"},{"officename":"Durgapur B.O","pincode":"799131","officetype":"B.O","deliverystatus":"Delivery","statename":"TRIPURA","regionname":"Shillong HQ","circlename":"North Eastern","divisionname":"Agartala","Taluk":"Sonamura"},{"officename":"Induria B.O","pincode":"799131","officetype":"B.O","deliverystatus":"Delivery","statename":"TRIPURA","regionname":"Shillong HQ","circlename":"North Eastern","divisionname":"Agartala","Taluk":"Sonamura"},{"officename":"Jatrapur B.O","pincode":"799132","officetype":"B.O","deliverystatus":"Delivery","statename":"TRIPURA","regionname":"Shillong HQ","circlename":"North Eastern","divisionname":"Agartala","Taluk":"Sonamura"},{"officename":"Khedabari B.O","pincode":"799131","officetype":"B.O","deliverystatus":"Delivery","statename":"TRIPURA","regionname":"Shillong HQ","circlename":"North Eastern","divisionname":"Agartala","Taluk":"Sonamura"},{"officename":"Kulubari B.O","pincode":"799131","officetype":"B.O","deliverystatus":"Delivery","statename":"TRIPURA","regionname":"Shillong HQ","circlename":"North Eastern","divisionname":"Agartala","Taluk":"Sonamura"},{"officename":"Kalikrishnagar B.O","pincode":"799132","officetype":"B.O","deliverystatus":"Non-Delivery","statename":"TRIPURA","regionname":"Shillong HQ","circlename":"North Eastern","divisionname":"Agartala","Taluk":"Sonamura"},{"officename":"Kamalnagar B.O","pincode":"799131","officetype":"B.O","deliverystatus":"Delivery","statename":"TRIPURA","regionname":"Shillong HQ","circlename":"North Eastern","divisionname":"Agartala","Taluk":"Sonamura"},{"officename":"Matinagar B.O","pincode":"799131","officetype":"B.O","deliverystatus":"Delivery","statename":"TRIPURA","regionname":"Shillong HQ","circlename":"North Eastern","divisionname":"Agartala","Taluk":"Sonamura"},{"officename":"Maheshpur B.O","pincode":"799132","officetype":"B.O","deliverystatus":"Delivery","statename":"TRIPURA","regionname":"Shillong HQ","circlename":"North Eastern","divisionname":"Agartala","Taluk":"Sonamura"},{"officename":"Mnaipather B.O","pincode":"799132","officetype":"B.O","deliverystatus":"Delivery","statename":"TRIPURA","regionname":"Shillong HQ","circlename":"North Eastern","divisionname":"Agartala","Taluk":"Sonamura"},{"officename":"Nidaya B.O","pincode":"799132","officetype":"B.O","deliverystatus":"Delivery","statename":"TRIPURA","regionname":"Shillong HQ","circlename":"North Eastern","divisionname":"Agartala","Taluk":"Kathalia"},{"officename":"Nirvoypur B.O","pincode":"799132","officetype":"B.O","deliverystatus":"Delivery","statename":"TRIPURA","regionname":"Shillong HQ","circlename":"North Eastern","divisionname":"Agartala","Taluk":"Sonamura"},{"officename":"Rabindranagar Colony B.O","pincode":"799131","officetype":"B.O","deliverystatus":"Delivery","statename":"TRIPURA","regionname":"Shillong HQ","circlename":"North Eastern","divisionname":"Agartala","Taluk":"Sonamura"},{"officename":"Simna B.O","pincode":"799212","officetype":"B.O","deliverystatus":"Delivery","statename":"TRIPURA","regionname":"Shillong HQ","circlename":"North Eastern","divisionname":"Agartala","Taluk":"Simna"},{"officename":"Jogendranagar B.O","pincode":"799004","officetype":"B.O","deliverystatus":"Delivery","statename":"TRIPURA","regionname":"Shillong HQ","circlename":"North Eastern","divisionname":"Agartala","Taluk":"Sadar"},{"officename":"Boxonagar B.O","pincode":"799102","officetype":"B.O","deliverystatus":"Delivery","statename":"TRIPURA","regionname":"Shillong HQ","circlename":"North Eastern","divisionname":"Agartala","Taluk":"Boxonagar"},{"officename":"Machmara B.O","pincode":"799263","officetype":"B.O","deliverystatus":"Delivery","statename":"TRIPURA","regionname":"Shillong HQ","circlename":"North Eastern","divisionname":"Dharmanagar","Taluk":"Machmara"},{"officename":"Bagma  B.O","pincode":"799113","officetype":"B.O","deliverystatus":"Delivery","statename":"TRIPURA","regionname":"Shillong HQ","circlename":"North Eastern","divisionname":"Agartala","Taluk":"Bagma"},{"officename":"Satchand B.O","pincode":"799143","officetype":"B.O","deliverystatus":"Delivery","statename":"TRIPURA","regionname":"Shillong HQ","circlename":"North Eastern","divisionname":"Agartala","Taluk":"Manubazar"},{"officename":"Matai B.O","pincode":"799155","officetype":"B.O","deliverystatus":"Delivery","statename":"TRIPURA","regionname":"Shillong HQ","circlename":"North Eastern","divisionname":"Agartala","Taluk":"Matai"},{"officename":"Ampinagar B.O","pincode":"799101","officetype":"B.O","deliverystatus":"Delivery","statename":"TRIPURA","regionname":"Shillong HQ","circlename":"North Eastern","divisionname":"Agartala","Taluk":"Ampi"},{"officename":"Laljuri B.O","pincode":"799270","officetype":"B.O","deliverystatus":"Delivery","statename":"TRIPURA","regionname":"Shillong HQ","circlename":"North Eastern","divisionname":"Dharmanagar","Taluk":"Laljuri"},{"officename":"Dhumacherra B.O","pincode":"799275","officetype":"B.O","deliverystatus":"Delivery","statename":"TRIPURA","regionname":"Shillong HQ","circlename":"North Eastern","divisionname":"Dharmanagar","Taluk":"Dhumacherra"},{"officename":"Nayapara N.D B.O","pincode":"799251","officetype":"B.O","deliverystatus":"Non-Delivery","statename":"TRIPURA","regionname":"Shillong HQ","circlename":"North Eastern","divisionname":"Dharmanagar","Taluk":"Dharmanagar"},{"officename":"West Panisagar B.O","pincode":"799260","officetype":"B.O","deliverystatus":"Delivery","statename":"TRIPURA","regionname":"Shillong HQ","circlename":"North Eastern","divisionname":"Dharmanagar","Taluk":"Panisagar"},{"officename":"Krishnapur B.O","pincode":"799253","officetype":"B.O","deliverystatus":"Delivery","statename":"TRIPURA","regionname":"Shillong HQ","circlename":"North Eastern","divisionname":"Dharmanagar","Taluk":"Dharmanagar"},{"officename":"Jubarajnagar B.O","pincode":"799254","officetype":"B.O","deliverystatus":"Delivery","statename":"TRIPURA","regionname":"Shillong HQ","circlename":"North Eastern","divisionname":"Dharmanagar","Taluk":"Jubarajnagar"},{"officename":"Tapaspalli B.O","pincode":"799277","officetype":"B.O","deliverystatus":"Non-Delivery","statename":"TRIPURA","regionname":"Shillong HQ","circlename":"North Eastern","divisionname":"Dharmanagar","Taluk":"Kailashahar"},{"officename":"Ramchandraghat B.O","pincode":"799207","officetype":"B.O","deliverystatus":"Delivery","statename":"TRIPURA","regionname":"Shillong HQ","circlename":"North Eastern","divisionname":"Dharmanagar","Taluk":"Ramchandraghat"},{"officename":"Moharcherra B.O","pincode":"799203","officetype":"B.O","deliverystatus":"Delivery","statename":"TRIPURA","regionname":"Shillong HQ","circlename":"North Eastern","divisionname":"Dharmanagar","Taluk":"Moharcherra"},{"officename":"East Masli B.O","pincode":"799275","officetype":"B.O","deliverystatus":"Delivery","statename":"TRIPURA","regionname":"Shillong HQ","circlename":"North Eastern","divisionname":"Dharmanagar","Taluk":"Masli"},{"officename":"Karatichesdrra B.O","pincode":"799275","officetype":"B.O","deliverystatus":"Delivery","statename":"TRIPURA","regionname":"Shillong HQ","circlename":"North Eastern","divisionname":"Dharmanagar","Taluk":"Karaticherra"},{"officename":"Longtharai B.O","pincode":"799275","officetype":"B.O","deliverystatus":"Delivery","statename":"TRIPURA","regionname":"Shillong HQ","circlename":"North Eastern","divisionname":"Dharmanagar","Taluk":"Longtharai"},{"officename":"Maslicherra B.O","pincode":"799275","officetype":"B.O","deliverystatus":"Delivery","statename":"TRIPURA","regionname":"Shillong HQ","circlename":"North Eastern","divisionname":"Dharmanagar","Taluk":"Masli"},{"officename":"Mainerma B.O","pincode":"799275","officetype":"B.O","deliverystatus":"Delivery","statename":"TRIPURA","regionname":"Shillong HQ","circlename":"North Eastern","divisionname":"Dharmanagar","Taluk":"Mainerma"},{"officename":"Sindhukumarpara B.O","pincode":"799275","officetype":"B.O","deliverystatus":"Delivery","statename":"TRIPURA","regionname":"Shillong HQ","circlename":"North Eastern","divisionname":"Dharmanagar","Taluk":"Sindhukumarpara"},{"officename":"Jamircherra B.O","pincode":"799275","officetype":"B.O","deliverystatus":"Delivery","statename":"TRIPURA","regionname":"Shillong HQ","circlename":"North Eastern","divisionname":"Dharmanagar","Taluk":"Jamircherra"},{"officename":"Chandraipara B.O","pincode":"799289","officetype":"B.O","deliverystatus":"Delivery","statename":"TRIPURA","regionname":"Shillong HQ","circlename":"North Eastern","divisionname":"Dharmanagar","Taluk":"Ambassa"},{"officename":"Ganganagar Tribalcolony B.O","pincode":"799289","officetype":"B.O","deliverystatus":"Delivery","statename":"TRIPURA","regionname":"Shillong HQ","circlename":"North Eastern","divisionname":"Dharmanagar","Taluk":"Ganganagar"},{"officename":"Harincherra B.O","pincode":"799289","officetype":"B.O","deliverystatus":"Delivery","statename":"TRIPURA","regionname":"Shillong HQ","circlename":"North Eastern","divisionname":"Dharmanagar","Taluk":"Ambassa"},{"officename":"Kanchanpur Colony B.O","pincode":"799289","officetype":"B.O","deliverystatus":"Delivery","statename":"TRIPURA","regionname":"Shillong HQ","circlename":"North Eastern","divisionname":"Dharmanagar","Taluk":"Ambassa"},{"officename":"Kamalacherra B.O","pincode":"799289","officetype":"B.O","deliverystatus":"Delivery","statename":"TRIPURA","regionname":"Shillong HQ","circlename":"North Eastern","divisionname":"Dharmanagar","Taluk":"Ambassa"},{"officename":"Karnamunipara B.O","pincode":"799289","officetype":"B.O","deliverystatus":"Delivery","statename":"TRIPURA","regionname":"Shillong HQ","circlename":"North Eastern","divisionname":"Dharmanagar","Taluk":"Ambassa"},{"officename":"Lakraichowdhuripara B.O","pincode":"799289","officetype":"B.O","deliverystatus":"Delivery","statename":"TRIPURA","regionname":"Shillong HQ","circlename":"North Eastern","divisionname":"Dharmanagar","Taluk":"Ambassa"},{"officename":"Sikaribari B.O","pincode":"799289","officetype":"B.O","deliverystatus":"Delivery","statename":"TRIPURA","regionname":"Shillong HQ","circlename":"North Eastern","divisionname":"Dharmanagar","Taluk":"Ambassa"},{"officename":"Hiracherra B.O","pincode":"799281","officetype":"B.O","deliverystatus":"Delivery","statename":"TRIPURA","regionname":"Shillong HQ","circlename":"North Eastern","divisionname":"Dharmanagar","Taluk":"Gournagar"},{"officename":"Irani B.O","pincode":"799281","officetype":"B.O","deliverystatus":"Delivery","statename":"TRIPURA","regionname":"Shillong HQ","circlename":"North Eastern","divisionname":"Dharmanagar","Taluk":"Irani"},{"officename":"Latiapura B.O","pincode":"799281","officetype":"B.O","deliverystatus":"Delivery","statename":"TRIPURA","regionname":"Shillong HQ","circlename":"North Eastern","divisionname":"Dharmanagar","Taluk":"Latiapur"},{"officename":"Rangauti B.O","pincode":"799281","officetype":"B.O","deliverystatus":"Delivery","statename":"TRIPURA","regionname":"Shillong HQ","circlename":"North Eastern","divisionname":"Dharmanagar","Taluk":"Rangauti"},{"officename":"Tripura Tillabazar B.O","pincode":"799281","officetype":"B.O","deliverystatus":"Delivery","statename":"TRIPURA","regionname":"Shillong HQ","circlename":"North Eastern","divisionname":"Dharmanagar","Taluk":"Jubaraznagar"},{"officename":"Bakbaki B.O","pincode":"799251","officetype":"B.O","deliverystatus":"Delivery","statename":"TRIPURA","regionname":"Shillong HQ","circlename":"North Eastern","divisionname":"Dharmanagar","Taluk":"Bishnupur"},{"officename":"Baruakandi B.O","pincode":"799251","officetype":"B.O","deliverystatus":"Delivery","statename":"TRIPURA","regionname":"Shillong HQ","circlename":"North Eastern","divisionname":"Dharmanagar","Taluk":"Baruakandi"},{"officename":"Bhagyapur B.O","pincode":"799251","officetype":"B.O","deliverystatus":"Delivery","statename":"TRIPURA","regionname":"Shillong HQ","circlename":"North Eastern","divisionname":"Dharmanagar","Taluk":"Bhagyapur"},{"officename":"Dighalbak B.O","pincode":"799251","officetype":"B.O","deliverystatus":"Delivery","statename":"TRIPURA","regionname":"Shillong HQ","circlename":"North Eastern","divisionname":"Dharmanagar","Taluk":"South Huruah"},{"officename":"Gobindapur B.O","pincode":"799251","officetype":"B.O","deliverystatus":"Delivery","statename":"TRIPURA","regionname":"Shillong HQ","circlename":"North Eastern","divisionname":"Dharmanagar","Taluk":"Gobindapur"},{"officename":"Huruah B.O","pincode":"799251","officetype":"B.O","deliverystatus":"Delivery","statename":"TRIPURA","regionname":"Shillong HQ","circlename":"North Eastern","divisionname":"Dharmanagar","Taluk":"East Huruah"},{"officename":"Ichailalcherra B.O","pincode":"799251","officetype":"B.O","deliverystatus":"Delivery","statename":"TRIPURA","regionname":"Shillong HQ","circlename":"North Eastern","divisionname":"Dharmanagar","Taluk":"Ichailalcherra"},{"officename":"Ichaisonapur B.O","pincode":"799251","officetype":"B.O","deliverystatus":"Delivery","statename":"TRIPURA","regionname":"Shillong HQ","circlename":"North Eastern","divisionname":"Dharmanagar","Taluk":"Praytyakroy"},{"officename":"Kalacherra B.O","pincode":"799251","officetype":"B.O","deliverystatus":"Delivery","statename":"TRIPURA","regionname":"Shillong HQ","circlename":"North Eastern","divisionname":"Dharmanagar","Taluk":"Kalacherra"},{"officename":"Satnala B.O","pincode":"799270","officetype":"B.O","deliverystatus":"Delivery","statename":"TRIPURA","regionname":"Shillong HQ","circlename":"North Eastern","divisionname":"Dharmanagar","Taluk":"Satnala"},{"officename":"Sibnagar B.O","pincode":"799270","officetype":"B.O","deliverystatus":"Delivery","statename":"TRIPURA","regionname":"Shillong HQ","circlename":"North Eastern","divisionname":"Dharmanagar","Taluk":"Sibnagar"},{"officename":"Suknacherra B.O","pincode":"799270","officetype":"B.O","deliverystatus":"Delivery","statename":"TRIPURA","regionname":"Shillong HQ","circlename":"North Eastern","divisionname":"Dharmanagar","Taluk":"Suknacherra"},{"officename":"Amtilla B.O","pincode":"799261","officetype":"B.O","deliverystatus":"Delivery","statename":"TRIPURA","regionname":"Shillong HQ","circlename":"North Eastern","divisionname":"Dharmanagar","Taluk":"Saraspur"},{"officename":"Brajendranagar B.O","pincode":"799261","officetype":"B.O","deliverystatus":"Delivery","statename":"TRIPURA","regionname":"Shillong HQ","circlename":"North Eastern","divisionname":"Dharmanagar","Taluk":"Brajendranagar"},{"officename":"Kalagangar Par B.O","pincode":"799261","officetype":"B.O","deliverystatus":"Delivery","statename":"TRIPURA","regionname":"Shillong HQ","circlename":"North Eastern","divisionname":"Dharmanagar","Taluk":"Kalangangarpar"},{"officename":"Kurti B.O","pincode":"799261","officetype":"B.O","deliverystatus":"Delivery","statename":"TRIPURA","regionname":"Shillong HQ","circlename":"North Eastern","divisionname":"Dharmanagar","Taluk":"Kurti"},{"officename":"Pearacherra B.O","pincode":"799261","officetype":"B.O","deliverystatus":"Delivery","statename":"TRIPURA","regionname":"Shillong HQ","circlename":"North Eastern","divisionname":"Dharmanagar","Taluk":"Pearacherra"},{"officename":"Premtala B.O","pincode":"799261","officetype":"B.O","deliverystatus":"Delivery","statename":"TRIPURA","regionname":"Shillong HQ","circlename":"North Eastern","divisionname":"Dharmanagar","Taluk":"Premtala"},{"officename":"Rakhalgang B.O","pincode":"799261","officetype":"B.O","deliverystatus":"Delivery","statename":"TRIPURA","regionname":"Shillong HQ","circlename":"North Eastern","divisionname":"Dharmanagar","Taluk":"Bishnupur"},{"officename":"Ranibari B.O","pincode":"799261","officetype":"B.O","deliverystatus":"Delivery","statename":"TRIPURA","regionname":"Shillong HQ","circlename":"North Eastern","divisionname":"Dharmanagar","Taluk":"Ranibari"},{"officename":"Sarala B.O","pincode":"799261","officetype":"B.O","deliverystatus":"Delivery","statename":"TRIPURA","regionname":"Shillong HQ","circlename":"North Eastern","divisionname":"Dharmanagar","Taluk":"Brajendranagar"},{"officename":"Tarakpur B.O","pincode":"799261","officetype":"B.O","deliverystatus":"Delivery","statename":"TRIPURA","regionname":"Shillong HQ","circlename":"North Eastern","divisionname":"Dharmanagar","Taluk":"Tarakpur"},{"officename":"Balarambazar B.O","pincode":"799204","officetype":"B.O","deliverystatus":"Delivery","statename":"TRIPURA","regionname":"Shillong HQ","circlename":"North Eastern","divisionname":"Dharmanagar","Taluk":"Balaram"},{"officename":"Nalicherra B.O","pincode":"799204","officetype":"B.O","deliverystatus":"Delivery","statename":"TRIPURA","regionname":"Shillong HQ","circlename":"North Eastern","divisionname":"Dharmanagar","Taluk":"Nalicherra"},{"officename":"Baligaon B.O","pincode":"799285","officetype":"B.O","deliverystatus":"Delivery","statename":"TRIPURA","regionname":"Shillong HQ","circlename":"North Eastern","divisionname":"Dharmanagar","Taluk":"Baligaon"},{"officename":"Bagaicherri B.O","pincode":"799285","officetype":"B.O","deliverystatus":"Delivery","statename":"TRIPURA","regionname":"Shillong HQ","circlename":"North Eastern","divisionname":"Dharmanagar","Taluk":"Bagaicherri"},{"officename":"Chotosarma B.O","pincode":"799285","officetype":"B.O","deliverystatus":"Delivery","statename":"TRIPURA","regionname":"Shillong HQ","circlename":"North Eastern","divisionname":"Dharmanagar","Taluk":"Chotosarma"},{"officename":"Fulcherri B.O","pincode":"799285","officetype":"B.O","deliverystatus":"Non-Delivery","statename":"TRIPURA","regionname":"Shillong HQ","circlename":"North Eastern","divisionname":"Dharmanagar","Taluk":"Kamalpur"},{"officename":"Garodtilla B.O","pincode":"799285","officetype":"B.O","deliverystatus":"Delivery","statename":"TRIPURA","regionname":"Shillong HQ","circlename":"North Eastern","divisionname":"Dharmanagar","Taluk":"Kalachari"},{"officename":"Maracherra B.O","pincode":"799285","officetype":"B.O","deliverystatus":"Delivery","statename":"TRIPURA","regionname":"Shillong HQ","circlename":"North Eastern","divisionname":"Dharmanagar","Taluk":"Maracherra"},{"officename":"Noagoan B.O","pincode":"799285","officetype":"B.O","deliverystatus":"Delivery","statename":"TRIPURA","regionname":"Shillong HQ","circlename":"North Eastern","divisionname":"Dharmanagar","Taluk":"Noagaon"},{"officename":"Ramdurlavpur B.O","pincode":"799285","officetype":"B.O","deliverystatus":"Delivery","statename":"TRIPURA","regionname":"Shillong HQ","circlename":"North Eastern","divisionname":"Dharmanagar","Taluk":"Mayachari"},{"officename":"Singibill B.O","pincode":"799285","officetype":"B.O","deliverystatus":"Delivery","statename":"TRIPURA","regionname":"Shillong HQ","circlename":"North Eastern","divisionname":"Dharmanagar","Taluk":"Halhuli"},{"officename":"Kamalpur Aerodrome B.O","pincode":"799287","officetype":"B.O","deliverystatus":"Delivery","statename":"TRIPURA","regionname":"Shillong HQ","circlename":"North Eastern","divisionname":"Dharmanagar","Taluk":"Salema"},{"officename":"Kuchainala B.O","pincode":"799287","officetype":"B.O","deliverystatus":"Delivery","statename":"TRIPURA","regionname":"Shillong HQ","circlename":"North Eastern","divisionname":"Dharmanagar","Taluk":"Kuchainala"},{"officename":"Nagbangshi B.O","pincode":"799287","officetype":"B.O","deliverystatus":"Delivery","statename":"TRIPURA","regionname":"Shillong HQ","circlename":"North Eastern","divisionname":"Dharmanagar","Taluk":"Nagbangshi"},{"officename":"Srirampur Lambucherra B.O","pincode":"799287","officetype":"B.O","deliverystatus":"Delivery","statename":"TRIPURA","regionname":"Shillong HQ","circlename":"North Eastern","divisionname":"Dharmanagar","Taluk":"Srirampur Lambucherra"},{"officename":"Demchedrra Colony B.O","pincode":"799275","officetype":"B.O","deliverystatus":"Delivery","statename":"TRIPURA","regionname":"Shillong HQ","circlename":"North Eastern","divisionname":"Dharmanagar","Taluk":"Demcherra"},{"officename":"Paschimchandrapur B.O","pincode":"799251","officetype":"B.O","deliverystatus":"Delivery","statename":"TRIPURA","regionname":"Shillong HQ","circlename":"North Eastern","divisionname":"Dharmanagar","Taluk":"Chandrapur"},{"officename":"Pratyekroy B.O","pincode":"799251","officetype":"B.O","deliverystatus":"Delivery","statename":"TRIPURA","regionname":"Shillong HQ","circlename":"North Eastern","divisionname":"Dharmanagar","Taluk":"Prayekroy"},{"officename":"Raghna B.O","pincode":"799251","officetype":"B.O","deliverystatus":"Delivery","statename":"TRIPURA","regionname":"Shillong HQ","circlename":"North Eastern","divisionname":"Dharmanagar","Taluk":"Raghna"},{"officename":"Sakaibari B.O","pincode":"799251","officetype":"B.O","deliverystatus":"Delivery","statename":"TRIPURA","regionname":"Shillong HQ","circlename":"North Eastern","divisionname":"Dharmanagar","Taluk":"Pratyakroy"},{"officename":"Sonarurbassa B.O","pincode":"799251","officetype":"B.O","deliverystatus":"Delivery","statename":"TRIPURA","regionname":"Shillong HQ","circlename":"North Eastern","divisionname":"Dharmanagar","Taluk":"Pratyekroy"},{"officename":"Thana Road B.O","pincode":"799251","officetype":"B.O","deliverystatus":"Non-Delivery","statename":"TRIPURA","regionname":"Shillong HQ","circlename":"North Eastern","divisionname":"Dharmanagar","Taluk":"Dharmanagar"},{"officename":"Balicherra B.O","pincode":"799262","officetype":"B.O","deliverystatus":"Delivery","statename":"TRIPURA","regionname":"Shillong HQ","circlename":"North Eastern","divisionname":"Dharmanagar","Taluk":"Balicherra"},{"officename":"Fulbari B.O","pincode":"799262","officetype":"B.O","deliverystatus":"Delivery","statename":"TRIPURA","regionname":"Shillong HQ","circlename":"North Eastern","divisionname":"Dharmanagar","Taluk":"Fulbari"},{"officename":"Kheranjuri B.O","pincode":"799262","officetype":"B.O","deliverystatus":"Delivery","statename":"TRIPURA","regionname":"Shillong HQ","circlename":"North Eastern","divisionname":"Dharmanagar","Taluk":"Lakhinagar"},{"officename":"Sanicherra B.O","pincode":"799262","officetype":"B.O","deliverystatus":"Delivery","statename":"TRIPURA","regionname":"Shillong HQ","circlename":"North Eastern","divisionname":"Dharmanagar","Taluk":"Sanicherra"},{"officename":"Bindulal Karbaripara B.O","pincode":"799273","officetype":"B.O","deliverystatus":"Delivery","statename":"TRIPURA","regionname":"Shillong HQ","circlename":"North Eastern","divisionname":"Dharmanagar","Taluk":"Lalcherra"},{"officename":"Agnipassa B.O","pincode":"799260","officetype":"B.O","deliverystatus":"Delivery","statename":"TRIPURA","regionname":"Shillong HQ","circlename":"North Eastern","divisionname":"Dharmanagar","Taluk":"NA"},{"officename":"Bilthai B.O","pincode":"799260","officetype":"B.O","deliverystatus":"Delivery","statename":"TRIPURA","regionname":"Shillong HQ","circlename":"North Eastern","divisionname":"Dharmanagar","Taluk":"Panisagar"},{"officename":"Deocherra B.O","pincode":"799260","officetype":"B.O","deliverystatus":"Delivery","statename":"TRIPURA","regionname":"Shillong HQ","circlename":"North Eastern","divisionname":"Dharmanagar","Taluk":"Deocherra"},{"officename":"Indurail B.O","pincode":"799260","officetype":"B.O","deliverystatus":"Delivery","statename":"TRIPURA","regionname":"Shillong HQ","circlename":"North Eastern","divisionname":"Dharmanagar","Taluk":"Indurail"},{"officename":"Jalabazar B.O","pincode":"799260","officetype":"B.O","deliverystatus":"Delivery","statename":"TRIPURA","regionname":"Shillong HQ","circlename":"North Eastern","divisionname":"Dharmanagar","Taluk":"Chandrahalampara"},{"officename":"Jalebassa B.O","pincode":"799260","officetype":"B.O","deliverystatus":"Delivery","statename":"TRIPURA","regionname":"Shillong HQ","circlename":"North Eastern","divisionname":"Dharmanagar","Taluk":"Jlebassa"},{"officename":"Janata College B.O","pincode":"799260","officetype":"B.O","deliverystatus":"Delivery","statename":"TRIPURA","regionname":"Shillong HQ","circlename":"North Eastern","divisionname":"Dharmanagar","Taluk":"Ramnagar"},{"officename":"North Padmabil B.O","pincode":"799260","officetype":"B.O","deliverystatus":"Delivery","statename":"TRIPURA","regionname":"Shillong HQ","circlename":"North Eastern","divisionname":"Dharmanagar","Taluk":"Padmabil"},{"officename":"Padmabil B.O","pincode":"799260","officetype":"B.O","deliverystatus":"Delivery","statename":"TRIPURA","regionname":"Shillong HQ","circlename":"North Eastern","divisionname":"Dharmanagar","Taluk":"Padmabil"},{"officename":"Pekucherr B.O","pincode":"799260","officetype":"B.O","deliverystatus":"Delivery","statename":"TRIPURA","regionname":"Shillong HQ","circlename":"North Eastern","divisionname":"Dharmanagar","Taluk":"Pekucherra"},{"officename":"Rahumcherra B.O","pincode":"799260","officetype":"B.O","deliverystatus":"Delivery","statename":"TRIPURA","regionname":"Shillong HQ","circlename":"North Eastern","divisionname":"Dharmanagar","Taluk":"Rahumcherra"},{"officename":"Rowabazar B.O","pincode":"799260","officetype":"B.O","deliverystatus":"Delivery","statename":"TRIPURA","regionname":"Shillong HQ","circlename":"North Eastern","divisionname":"Dharmanagar","Taluk":"Rowa"},{"officename":"Tilthai B.O","pincode":"799260","officetype":"B.O","deliverystatus":"Delivery","statename":"TRIPURA","regionname":"Shillong HQ","circlename":"North Eastern","divisionname":"Dharmanagar","Taluk":"Tilthai"},{"officename":"Tilthai Nutanbazar B.O","pincode":"799260","officetype":"B.O","deliverystatus":"Delivery","statename":"TRIPURA","regionname":"Shillong HQ","circlename":"North Eastern","divisionname":"Dharmanagar","Taluk":"Tilthai"},{"officename":"Ujan Sailenbari B.O","pincode":"799260","officetype":"B.O","deliverystatus":"Delivery","statename":"TRIPURA","regionname":"Shillong HQ","circlename":"North Eastern","divisionname":"Dharmanagar","Taluk":"Panisagar"},{"officename":"Uptakhali B.O","pincode":"799260","officetype":"B.O","deliverystatus":"Delivery","statename":"TRIPURA","regionname":"Shillong HQ","circlename":"North Eastern","divisionname":"Dharmanagar","Taluk":"Uptakhali"},{"officename":"Juri R.F B.O","pincode":"799260","officetype":"B.O","deliverystatus":"Delivery","statename":"TRIPURA","regionname":"Shillong HQ","circlename":"North Eastern","divisionname":"Dharmanagar","Taluk":"Juri"},{"officename":"Andharcherra B.O","pincode":"799263","officetype":"B.O","deliverystatus":"Delivery","statename":"TRIPURA","regionname":"Shillong HQ","circlename":"North Eastern","divisionname":"Dharmanagar","Taluk":"Pecharthal"},{"officename":"Dhanicherra B.O","pincode":"799263","officetype":"B.O","deliverystatus":"Delivery","statename":"TRIPURA","regionname":"Shillong HQ","circlename":"North Eastern","divisionname":"Dharmanagar","Taluk":"Dhanicherra"},{"officename":"Karaicherra B.O","pincode":"799263","officetype":"B.O","deliverystatus":"Delivery","statename":"TRIPURA","regionname":"Shillong HQ","circlename":"North Eastern","divisionname":"Dharmanagar","Taluk":"Karaicherra"},{"officename":"Krishnatilla B.O","pincode":"799263","officetype":"B.O","deliverystatus":"Delivery","statename":"TRIPURA","regionname":"Shillong HQ","circlename":"North Eastern","divisionname":"Dharmanagar","Taluk":"Ramguna"},{"officename":"Nalkata B.O","pincode":"799263","officetype":"B.O","deliverystatus":"Delivery","statename":"TRIPURA","regionname":"Shillong HQ","circlename":"North Eastern","divisionname":"Dharmanagar","Taluk":"Nalkata"},{"officename":"Ramgunapara B.O","pincode":"799263","officetype":"B.O","deliverystatus":"Delivery","statename":"TRIPURA","regionname":"Shillong HQ","circlename":"North Eastern","divisionname":"Dharmanagar","Taluk":"Ramgunapara"},{"officename":"Ugalcherra B.O","pincode":"799263","officetype":"B.O","deliverystatus":"Delivery","statename":"TRIPURA","regionname":"Shillong HQ","circlename":"North Eastern","divisionname":"Dharmanagar","Taluk":"Uttar Dhanicherra"},{"officename":"Govidabari B.O","pincode":"799263","officetype":"B.O","deliverystatus":"Delivery","statename":"TRIPURA","regionname":"Shillong HQ","circlename":"North Eastern","divisionname":"Dharmanagar","Taluk":"Nabincherra"},{"officename":"Nabincherra B.O","pincode":"799263","officetype":"B.O","deliverystatus":"Delivery","statename":"TRIPURA","regionname":"Shillong HQ","circlename":"North Eastern","divisionname":"Dharmanagar","Taluk":"Nabincherra"},{"officename":"Bhagabannagar B.O","pincode":"799282","officetype":"B.O","deliverystatus":"Delivery","statename":"TRIPURA","regionname":"Shillong HQ","circlename":"North Eastern","divisionname":"Dharmanagar","Taluk":"Bhagabannagar"},{"officename":"Chantail B.O","pincode":"799279","officetype":"B.O","deliverystatus":"Delivery","statename":"TRIPURA","regionname":"Shillong HQ","circlename":"North Eastern","divisionname":"Dharmanagar","Taluk":"Chantail"},{"officename":"Chinibagan B.O","pincode":"799282","officetype":"B.O","deliverystatus":"Delivery","statename":"TRIPURA","regionname":"Shillong HQ","circlename":"North Eastern","divisionname":"Dharmanagar","Taluk":"Deoracherra"},{"officename":"Deora Cherra B.O","pincode":"799279","officetype":"B.O","deliverystatus":"Delivery","statename":"TRIPURA","regionname":"Shillong HQ","circlename":"North Eastern","divisionname":"Dharmanagar","Taluk":"Deoracherra"},{"officename":"Goldharpur B.O","pincode":"799279","officetype":"B.O","deliverystatus":"Delivery","statename":"TRIPURA","regionname":"Shillong HQ","circlename":"North Eastern","divisionname":"Dharmanagar","Taluk":"Goldharpur"},{"officename":"Kirtantali B.O","pincode":"799279","officetype":"B.O","deliverystatus":"Delivery","statename":"TRIPURA","regionname":"Shillong HQ","circlename":"North Eastern","divisionname":"Dharmanagar","Taluk":"Gournagar"},{"officename":"Zarultali B.O","pincode":"799279","officetype":"B.O","deliverystatus":"Delivery","statename":"TRIPURA","regionname":"Shillong HQ","circlename":"North Eastern","divisionname":"Dharmanagar","Taluk":"Zamurtali"},{"officename":"Algapur B.O","pincode":"799253","officetype":"B.O","deliverystatus":"Delivery","statename":"TRIPURA","regionname":"Shillong HQ","circlename":"North Eastern","divisionname":"Dharmanagar","Taluk":"Baruakandi"},{"officename":"Bagbassa B.O","pincode":"799253","officetype":"B.O","deliverystatus":"Delivery","statename":"TRIPURA","regionname":"Shillong HQ","circlename":"North Eastern","divisionname":"Dharmanagar","Taluk":"Bagbassa"},{"officename":"Dharmanagar Bazar B.O","pincode":"799253","officetype":"B.O","deliverystatus":"Non-Delivery","statename":"TRIPURA","regionname":"Shillong HQ","circlename":"North Eastern","divisionname":"Dharmanagar","Taluk":"Dharmanagar"},{"officename":"Dhupirbond B.O","pincode":"799253","officetype":"B.O","deliverystatus":"Delivery","statename":"TRIPURA","regionname":"Shillong HQ","circlename":"North Eastern","divisionname":"Dharmanagar","Taluk":"Dhupirbond"},{"officename":"East Huruah B.O","pincode":"799253","officetype":"B.O","deliverystatus":"Delivery","statename":"TRIPURA","regionname":"Shillong HQ","circlename":"North Eastern","divisionname":"Dharmanagar","Taluk":"Huruah"},{"officename":"East Kamesawar B.O","pincode":"799253","officetype":"B.O","deliverystatus":"Delivery","statename":"TRIPURA","regionname":"Shillong HQ","circlename":"North Eastern","divisionname":"Dharmanagar","Taluk":"Kameswar"},{"officename":"Kakrirpar B.O","pincode":"799253","officetype":"B.O","deliverystatus":"Delivery","statename":"TRIPURA","regionname":"Shillong HQ","circlename":"North Eastern","divisionname":"Dharmanagar","Taluk":"Dharmanagar"},{"officename":"Kameswargaon B.O","pincode":"799253","officetype":"B.O","deliverystatus":"Delivery","statename":"TRIPURA","regionname":"Shillong HQ","circlename":"North Eastern","divisionname":"Dharmanagar","Taluk":"Kameswar"},{"officename":"Lalcherra Colony B.O","pincode":"799253","officetype":"B.O","deliverystatus":"Delivery","statename":"TRIPURA","regionname":"Shillong HQ","circlename":"North Eastern","divisionname":"Dharmanagar","Taluk":"Lalcherra"},{"officename":"Padmapur B.O","pincode":"799253","officetype":"B.O","deliverystatus":"Non-Delivery","statename":"TRIPURA","regionname":"Shillong HQ","circlename":"North Eastern","divisionname":"Dharmanagar","Taluk":"Dharmanagar"},{"officename":"Radhapur B.O","pincode":"799253","officetype":"B.O","deliverystatus":"Delivery","statename":"TRIPURA","regionname":"Shillong HQ","circlename":"North Eastern","divisionname":"Dharmanagar","Taluk":"Radhapur"},{"officename":"Chawmanu B.O","pincode":"799273","officetype":"B.O","deliverystatus":"Delivery","statename":"TRIPURA","regionname":"Shillong HQ","circlename":"North Eastern","divisionname":"Dharmanagar","Taluk":"Chawmanu"},{"officename":"Durgacherra B.O","pincode":"799273","officetype":"B.O","deliverystatus":"Delivery","statename":"TRIPURA","regionname":"Shillong HQ","circlename":"North Eastern","divisionname":"Dharmanagar","Taluk":"Durgacherra"},{"officename":"Laldingabari B.O","pincode":"799273","officetype":"B.O","deliverystatus":"Delivery","statename":"TRIPURA","regionname":"Shillong HQ","circlename":"North Eastern","divisionname":"Dharmanagar","Taluk":"Labancherra"},{"officename":"Manikpur B.O","pincode":"799273","officetype":"B.O","deliverystatus":"Delivery","statename":"TRIPURA","regionname":"Shillong HQ","circlename":"North Eastern","divisionname":"Dharmanagar","Taluk":"Manikpur"},{"officename":"Natinmanu B.O","pincode":"799273","officetype":"B.O","deliverystatus":"Delivery","statename":"TRIPURA","regionname":"Shillong HQ","circlename":"North Eastern","divisionname":"Dharmanagar","Taluk":"Natinmanu"},{"officename":"Anandabazar B.O","pincode":"799271","officetype":"B.O","deliverystatus":"Delivery","statename":"TRIPURA","regionname":"Shillong HQ","circlename":"North Eastern","divisionname":"Dharmanagar","Taluk":"Anandabazar"},{"officename":"Barhaldi B.O","pincode":"799271","officetype":"B.O","deliverystatus":"Delivery","statename":"TRIPURA","regionname":"Shillong HQ","circlename":"North Eastern","divisionname":"Dharmanagar","Taluk":"Dasda"},{"officename":"Garchirampara B.O","pincode":"799271","officetype":"B.O","deliverystatus":"Delivery","statename":"TRIPURA","regionname":"Shillong HQ","circlename":"North Eastern","divisionname":"Dharmanagar","Taluk":"Garchirampara"},{"officename":"Kalapania B.O","pincode":"799271","officetype":"B.O","deliverystatus":"Delivery","statename":"TRIPURA","regionname":"Shillong HQ","circlename":"North Eastern","divisionname":"Dharmanagar","Taluk":"Kalapani"},{"officename":"Sakhan Serhmun B.O","pincode":"799271","officetype":"B.O","deliverystatus":"Delivery","statename":"TRIPURA","regionname":"Shillong HQ","circlename":"North Eastern","divisionname":"Dharmanagar","Taluk":"Sakhan Serhmun"},{"officename":"Tuichama B.O","pincode":"799271","officetype":"B.O","deliverystatus":"Delivery","statename":"TRIPURA","regionname":"Shillong HQ","circlename":"North Eastern","divisionname":"Dharmanagar","Taluk":"Tuichama"},{"officename":"Emrapassa B.O","pincode":"799290","officetype":"B.O","deliverystatus":"Delivery","statename":"TRIPURA","regionname":"Shillong HQ","circlename":"North Eastern","divisionname":"Dharmanagar","Taluk":"West Rataceherra"},{"officename":"Fatikcherra B.O","pincode":"799290","officetype":"B.O","deliverystatus":"Delivery","statename":"TRIPURA","regionname":"Shillong HQ","circlename":"North Eastern","divisionname":"Dharmanagar","Taluk":"Fatikcherra"},{"officename":"Gakulnagar B.O","pincode":"799290","officetype":"B.O","deliverystatus":"Delivery","statename":"TRIPURA","regionname":"Shillong HQ","circlename":"North Eastern","divisionname":"Dharmanagar","Taluk":"Gakulnagar"},{"officename":"Ganganagar B.O","pincode":"799290","officetype":"B.O","deliverystatus":"Delivery","statename":"TRIPURA","regionname":"Shillong HQ","circlename":"North Eastern","divisionname":"Dharmanagar","Taluk":"Ganganagar"},{"officename":"Noagaon Bazar B.O","pincode":"799290","officetype":"B.O","deliverystatus":"Delivery","statename":"TRIPURA","regionname":"Shillong HQ","circlename":"North Eastern","divisionname":"Dharmanagar","Taluk":"Ganganagar"},{"officename":"Paschimratacherra B.O","pincode":"799290","officetype":"B.O","deliverystatus":"Delivery","statename":"TRIPURA","regionname":"Shillong HQ","circlename":"North Eastern","divisionname":"Dharmanagar","Taluk":"West Ratacherra"},{"officename":"Rajkandi B.O","pincode":"799290","officetype":"B.O","deliverystatus":"Delivery","statename":"TRIPURA","regionname":"Shillong HQ","circlename":"North Eastern","divisionname":"Dharmanagar","Taluk":"Rajkandi"},{"officename":"Ratacherra B.O","pincode":"799290","officetype":"B.O","deliverystatus":"Delivery","statename":"TRIPURA","regionname":"Shillong HQ","circlename":"North Eastern","divisionname":"Dharmanagar","Taluk":"Ratacherra"},{"officename":"Saidarpar B.O","pincode":"799290","officetype":"B.O","deliverystatus":"Delivery","statename":"TRIPURA","regionname":"Shillong HQ","circlename":"North Eastern","divisionname":"Dharmanagar","Taluk":"Saidarpar"},{"officename":"Teghari B.O","pincode":"799290","officetype":"B.O","deliverystatus":"Delivery","statename":"TRIPURA","regionname":"Shillong HQ","circlename":"North Eastern","divisionname":"Dharmanagar","Taluk":"Krishnanagar"},{"officename":"Tarapur B.O","pincode":"799290","officetype":"B.O","deliverystatus":"Delivery","statename":"TRIPURA","regionname":"Shillong HQ","circlename":"North Eastern","divisionname":"Dharmanagar","Taluk":"Kriahnanagar"},{"officename":"Uttar Radhanagar B.O","pincode":"799290","officetype":"B.O","deliverystatus":"Delivery","statename":"TRIPURA","regionname":"Shillong HQ","circlename":"North Eastern","divisionname":"Dharmanagar","Taluk":"Krishnanagar"},{"officename":"Balidhum B.O","pincode":"799254","officetype":"B.O","deliverystatus":"Delivery","statename":"TRIPURA","regionname":"Shillong HQ","circlename":"North Eastern","divisionname":"Dharmanagar","Taluk":"Balidhum"},{"officename":"Dewanpassa B.O","pincode":"799254","officetype":"B.O","deliverystatus":"Delivery","statename":"TRIPURA","regionname":"Shillong HQ","circlename":"North Eastern","divisionname":"Dharmanagar","Taluk":"Dewanpassa"},{"officename":"Paschim Radhapur B.O","pincode":"799254","officetype":"B.O","deliverystatus":"Delivery","statename":"TRIPURA","regionname":"Shillong HQ","circlename":"North Eastern","divisionname":"Dharmanagar","Taluk":"Radhapur"},{"officename":"Baithangbari B.O","pincode":"799254","officetype":"B.O","deliverystatus":"Delivery","statename":"TRIPURA","regionname":"Shillong HQ","circlename":"North Eastern","divisionname":"Dharmanagar","Taluk":"Balidhum"},{"officename":"Rajnagar Laxmipur B.O","pincode":"799254","officetype":"B.O","deliverystatus":"Delivery","statename":"TRIPURA","regionname":"Shillong HQ","circlename":"North Eastern","divisionname":"Dharmanagar","Taluk":"Rajnagar"},{"officename":"Abhanga B.O","pincode":"799286","officetype":"B.O","deliverystatus":"Delivery","statename":"TRIPURA","regionname":"Shillong HQ","circlename":"North Eastern","divisionname":"Dharmanagar","Taluk":"Abhanga"},{"officename":"Apareshkar B.O","pincode":"799286","officetype":"B.O","deliverystatus":"Delivery","statename":"TRIPURA","regionname":"Shillong HQ","circlename":"North Eastern","divisionname":"Dharmanagar","Taluk":"Abhanga"},{"officename":"Mahavir T.E. B.O","pincode":"799286","officetype":"B.O","deliverystatus":"Delivery","statename":"TRIPURA","regionname":"Shillong HQ","circlename":"North Eastern","divisionname":"Dharmanagar","Taluk":"Bamancherra"},{"officename":"Baralutma B.O","pincode":"799286","officetype":"B.O","deliverystatus":"Delivery","statename":"TRIPURA","regionname":"Shillong HQ","circlename":"North Eastern","divisionname":"Dharmanagar","Taluk":"Baralutma"},{"officename":"Chengkap B.O","pincode":"799286","officetype":"B.O","deliverystatus":"Delivery","statename":"TRIPURA","regionname":"Shillong HQ","circlename":"North Eastern","divisionname":"Dharmanagar","Taluk":"Chengkap"},{"officename":"Jamthing B.O","pincode":"799286","officetype":"B.O","deliverystatus":"Delivery","statename":"TRIPURA","regionname":"Shillong HQ","circlename":"North Eastern","divisionname":"Dharmanagar","Taluk":"Jamthing"},{"officename":"Katalutma B.O","pincode":"799286","officetype":"B.O","deliverystatus":"Delivery","statename":"TRIPURA","regionname":"Shillong HQ","circlename":"North Eastern","divisionname":"Dharmanagar","Taluk":"Katalutma"},{"officename":"Belianchief B.O","pincode":"799269","officetype":"B.O","deliverystatus":"Delivery","statename":"TRIPURA","regionname":"Shillong HQ","circlename":"North Eastern","divisionname":"Dharmanagar","Taluk":"Bhangmun"},{"officename":"Hmungchuan B.O","pincode":"799269","officetype":"B.O","deliverystatus":"Delivery","statename":"TRIPURA","regionname":"Shillong HQ","circlename":"North Eastern","divisionname":"Dharmanagar","Taluk":"Vhamgmun"},{"officename":"Hmunpui B.O","pincode":"799269","officetype":"B.O","deliverystatus":"Delivery","statename":"TRIPURA","regionname":"Shillong HQ","circlename":"North Eastern","divisionname":"Dharmanagar","Taluk":"Paschim Hmunpui"},{"officename":"Kalagong B.O","pincode":"799269","officetype":"B.O","deliverystatus":"Delivery","statename":"TRIPURA","regionname":"Shillong HQ","circlename":"North Eastern","divisionname":"Dharmanagar","Taluk":"Kalagong"},{"officename":"Kangrai B.O","pincode":"799269","officetype":"B.O","deliverystatus":"Delivery","statename":"TRIPURA","regionname":"Shillong HQ","circlename":"North Eastern","divisionname":"Dharmanagar","Taluk":"Kangrai"},{"officename":"Phuldengsai B.O","pincode":"799269","officetype":"B.O","deliverystatus":"Delivery","statename":"TRIPURA","regionname":"Shillong HQ","circlename":"North Eastern","divisionname":"Dharmanagar","Taluk":"Vhangmun"},{"officename":"Sabual B.O","pincode":"799269","officetype":"B.O","deliverystatus":"Delivery","statename":"TRIPURA","regionname":"Shillong HQ","circlename":"North Eastern","divisionname":"Dharmanagar","Taluk":"Sabual"},{"officename":"Sailo B.O","pincode":"799269","officetype":"B.O","deliverystatus":"Delivery","statename":"TRIPURA","regionname":"Shillong HQ","circlename":"North Eastern","divisionname":"Dharmanagar","Taluk":"Vhangmun"},{"officename":"Tlangsang B.O","pincode":"799269","officetype":"B.O","deliverystatus":"Delivery","statename":"TRIPURA","regionname":"Shillong HQ","circlename":"North Eastern","divisionname":"Dharmanagar","Taluk":"Tiangsang"},{"officename":"Chandipur B.O","pincode":"799277","officetype":"B.O","deliverystatus":"Delivery","statename":"TRIPURA","regionname":"Shillong HQ","circlename":"North Eastern","divisionname":"Dharmanagar","Taluk":"Chandipur"},{"officename":"Gulakpur T.E B.O","pincode":"799277","officetype":"B.O","deliverystatus":"Delivery","statename":"TRIPURA","regionname":"Shillong HQ","circlename":"North Eastern","divisionname":"Dharmanagar","Taluk":"Gulakpur"},{"officename":"Ichabpur B.O","pincode":"799277","officetype":"B.O","deliverystatus":"Delivery","statename":"TRIPURA","regionname":"Shillong HQ","circlename":"North Eastern","divisionname":"Dharmanagar","Taluk":"Ichabpur"},{"officename":"Kalishashan B.O","pincode":"799277","officetype":"B.O","deliverystatus":"Delivery","statename":"TRIPURA","regionname":"Shillong HQ","circlename":"North Eastern","divisionname":"Dharmanagar","Taluk":"Sorojini"},{"officename":"Manuvelly B.O","pincode":"799277","officetype":"B.O","deliverystatus":"Delivery","statename":"TRIPURA","regionname":"Shillong HQ","circlename":"North Eastern","divisionname":"Dharmanagar","Taluk":"Manuvelly"},{"officename":"Noorpur B.O","pincode":"799277","officetype":"B.O","deliverystatus":"Delivery","statename":"TRIPURA","regionname":"Shillong HQ","circlename":"North Eastern","divisionname":"Dharmanagar","Taluk":"Noorpur"},{"officename":"Rangrung B.O","pincode":"799277","officetype":"B.O","deliverystatus":"Delivery","statename":"TRIPURA","regionname":"Shillong HQ","circlename":"North Eastern","divisionname":"Dharmanagar","Taluk":"Rangrung"},{"officename":"Sadhanasram B.O","pincode":"799277","officetype":"B.O","deliverystatus":"Delivery","statename":"TRIPURA","regionname":"Shillong HQ","circlename":"North Eastern","divisionname":"Dharmanagar","Taluk":"Murticherra"},{"officename":"Samrurpar B.O","pincode":"799277","officetype":"B.O","deliverystatus":"Delivery","statename":"TRIPURA","regionname":"Shillong HQ","circlename":"North Eastern","divisionname":"Dharmanagar","Taluk":"Samrurpar"},{"officename":"Sreerampur B.O","pincode":"799277","officetype":"B.O","deliverystatus":"Delivery","statename":"TRIPURA","regionname":"Shillong HQ","circlename":"North Eastern","divisionname":"Dharmanagar","Taluk":"Sreerampur"},{"officename":"Jamtolibari B.O","pincode":"799277","officetype":"B.O","deliverystatus":"Delivery","statename":"TRIPURA","regionname":"Shillong HQ","circlename":"North Eastern","divisionname":"Dharmanagar","Taluk":"Rangrung"},{"officename":"Bhadrapally B.O","pincode":"799277","officetype":"B.O","deliverystatus":"Delivery","statename":"TRIPURA","regionname":"Shillong HQ","circlename":"North Eastern","divisionname":"Dharmanagar","Taluk":"Samrurpar"},{"officename":"Betcherra B.O","pincode":"799266","officetype":"B.O","deliverystatus":"Delivery","statename":"TRIPURA","regionname":"Shillong HQ","circlename":"North Eastern","divisionname":"Dharmanagar","Taluk":"Betchesrra"},{"officename":"Bhatisonaimuri B.O","pincode":"799264","officetype":"B.O","deliverystatus":"Delivery","statename":"TRIPURA","regionname":"Shillong HQ","circlename":"North Eastern","divisionname":"Dharmanagar","Taluk":"Sonaimuri"},{"officename":"East Kanchanbari B.O","pincode":"799264","officetype":"B.O","deliverystatus":"Delivery","statename":"TRIPURA","regionname":"Shillong HQ","circlename":"North Eastern","divisionname":"Dharmanagar","Taluk":"Kumarghat"},{"officename":"Darchai B.O","pincode":"799264","officetype":"B.O","deliverystatus":"Delivery","statename":"TRIPURA","regionname":"Shillong HQ","circlename":"North Eastern","divisionname":"Dharmanagar","Taluk":"Darchai"},{"officename":"Karamcherra B.O","pincode":"799266","officetype":"B.O","deliverystatus":"Delivery","statename":"TRIPURA","regionname":"Shillong HQ","circlename":"North Eastern","divisionname":"Dharmanagar","Taluk":"Karamcherra"},{"officename":"Notting Chedrra B.O","pincode":"799264","officetype":"B.O","deliverystatus":"Delivery","statename":"TRIPURA","regionname":"Shillong HQ","circlename":"North Eastern","divisionname":"Dharmanagar","Taluk":"Karamcherra"},{"officename":"Pabiacherra B.O","pincode":"799264","officetype":"B.O","deliverystatus":"Delivery","statename":"TRIPURA","regionname":"Shillong HQ","circlename":"North Eastern","divisionname":"Dharmanagar","Taluk":"Sukantanagar"},{"officename":"South Ganganagar B.O","pincode":"799253","officetype":"B.O","deliverystatus":"Delivery","statename":"TRIPURA","regionname":"Shillong HQ","circlename":"North Eastern","divisionname":"Dharmanagar","Taluk":"South Ganganagar"},{"officename":"Tripura Ganganagar B.O","pincode":"799253","officetype":"B.O","deliverystatus":"Delivery","statename":"TRIPURA","regionname":"Shillong HQ","circlename":"North Eastern","divisionname":"Dharmanagar","Taluk":"Northganganagar"},{"officename":"Zaithang B.O","pincode":"799253","officetype":"B.O","deliverystatus":"Delivery","statename":"TRIPURA","regionname":"Shillong HQ","circlename":"North Eastern","divisionname":"Dharmanagar","Taluk":"Zaithang"},{"officename":"Balehar B.O","pincode":"799280","officetype":"B.O","deliverystatus":"Delivery","statename":"TRIPURA","regionname":"Shillong HQ","circlename":"North Eastern","divisionname":"Dharmanagar","Taluk":"Jalai"},{"officename":"Birchandranagar B.O","pincode":"799280","officetype":"B.O","deliverystatus":"Delivery","statename":"TRIPURA","regionname":"Shillong HQ","circlename":"North Eastern","divisionname":"Dharmanagar","Taluk":"Birchandranagar"},{"officename":"Laxmipur B.O","pincode":"799284","officetype":"B.O","deliverystatus":"Delivery","statename":"TRIPURA","regionname":"Shillong HQ","circlename":"North Eastern","divisionname":"Dharmanagar","Taluk":"Laxmipur"},{"officename":"Ranipukur B.O","pincode":"799284","officetype":"B.O","deliverystatus":"Delivery","statename":"TRIPURA","regionname":"Shillong HQ","circlename":"North Eastern","divisionname":"Dharmanagar","Taluk":"Ranipukur"},{"officename":"Kacharicherra B.O","pincode":"799256","officetype":"B.O","deliverystatus":"Delivery","statename":"TRIPURA","regionname":"Shillong HQ","circlename":"North Eastern","divisionname":"Dharmanagar","Taluk":"Kacharicherra"},{"officename":"Narendranagar B.O","pincode":"799256","officetype":"B.O","deliverystatus":"Delivery","statename":"TRIPURA","regionname":"Shillong HQ","circlename":"North Eastern","divisionname":"Dharmanagar","Taluk":"Narendranagar"},{"officename":"Piplacherra B.O","pincode":"799256","officetype":"B.O","deliverystatus":"Delivery","statename":"TRIPURA","regionname":"Shillong HQ","circlename":"North Eastern","divisionname":"Dharmanagar","Taluk":"Piplacherra"},{"officename":"Khedacherra B.O","pincode":"799256","officetype":"B.O","deliverystatus":"Delivery","statename":"TRIPURA","regionname":"Shillong HQ","circlename":"North Eastern","divisionname":"Dharmanagar","Taluk":"Khedacherra"},{"officename":"Baijalbari B.O","pincode":"799207","officetype":"B.O","deliverystatus":"Delivery","statename":"TRIPURA","regionname":"Shillong HQ","circlename":"North Eastern","divisionname":"Dharmanagar","Taluk":"Dakshin Padmabil"},{"officename":"Bharatsardarbari B.O","pincode":"799207","officetype":"B.O","deliverystatus":"Delivery","statename":"TRIPURA","regionname":"Shillong HQ","circlename":"North Eastern","divisionname":"Dharmanagar","Taluk":"Bharatsardarbari"},{"officename":"Chankhala B.O","pincode":"799207","officetype":"B.O","deliverystatus":"Delivery","statename":"TRIPURA","regionname":"Shillong HQ","circlename":"North Eastern","divisionname":"Dharmanagar","Taluk":"Chankhala"},{"officename":"Gouranga Tilla B.O","pincode":"799207","officetype":"B.O","deliverystatus":"Delivery","statename":"TRIPURA","regionname":"Shillong HQ","circlename":"North Eastern","divisionname":"Dharmanagar","Taluk":"Lakshminarayan Pur"},{"officename":"Paglabari B.O","pincode":"799207","officetype":"B.O","deliverystatus":"Delivery","statename":"TRIPURA","regionname":"Shillong HQ","circlename":"North Eastern","divisionname":"Dharmanagar","Taluk":"Paglabari"},{"officename":"Rajnagar Khowai B.O","pincode":"799207","officetype":"B.O","deliverystatus":"Delivery","statename":"TRIPURA","regionname":"Shillong HQ","circlename":"North Eastern","divisionname":"Dharmanagar","Taluk":"Badlabari"},{"officename":"Sonatala B.O","pincode":"799207","officetype":"B.O","deliverystatus":"Delivery","statename":"TRIPURA","regionname":"Shillong HQ","circlename":"North Eastern","divisionname":"Dharmanagar","Taluk":"Sonatala"},{"officename":"Uttarchebri B.O","pincode":"799207","officetype":"B.O","deliverystatus":"Delivery","statename":"TRIPURA","regionname":"Shillong HQ","circlename":"North Eastern","divisionname":"Dharmanagar","Taluk":"Uttarchebri"},{"officename":"Asharambari B.O","pincode":"799201","officetype":"B.O","deliverystatus":"Delivery","statename":"TRIPURA","regionname":"Shillong HQ","circlename":"North Eastern","divisionname":"Dharmanagar","Taluk":"Asharambari"},{"officename":"Banbazar B.O","pincode":"799201","officetype":"B.O","deliverystatus":"Delivery","statename":"TRIPURA","regionname":"Shillong HQ","circlename":"North Eastern","divisionname":"Dharmanagar","Taluk":"Banbazar"},{"officename":"Behalabari B.O","pincode":"799201","officetype":"B.O","deliverystatus":"Delivery","statename":"TRIPURA","regionname":"Shillong HQ","circlename":"North Eastern","divisionname":"Dharmanagar","Taluk":"Behalabari"},{"officename":"Champahaor B.O","pincode":"799201","officetype":"B.O","deliverystatus":"Delivery","statename":"TRIPURA","regionname":"Shillong HQ","circlename":"North Eastern","divisionname":"Dharmanagar","Taluk":"Ramchandraghat"},{"officename":"East Bachaibari B.O","pincode":"799201","officetype":"B.O","deliverystatus":"Delivery","statename":"TRIPURA","regionname":"Shillong HQ","circlename":"North Eastern","divisionname":"Dharmanagar","Taluk":"Tulashikhar"},{"officename":"Karingicherra B.O","pincode":"799201","officetype":"B.O","deliverystatus":"Delivery","statename":"TRIPURA","regionname":"Shillong HQ","circlename":"North Eastern","divisionname":"Dharmanagar","Taluk":"Paschim Karingicherra"},{"officename":"Paschim Laxmicherra B.O","pincode":"799201","officetype":"B.O","deliverystatus":"Delivery","statename":"TRIPURA","regionname":"Shillong HQ","circlename":"North Eastern","divisionname":"Dharmanagar","Taluk":"Paschim Laxmicherra"},{"officename":"Singicherra B.O","pincode":"799201","officetype":"B.O","deliverystatus":"Delivery","statename":"TRIPURA","regionname":"Shillong HQ","circlename":"North Eastern","divisionname":"Dharmanagar","Taluk":"Singicherra"},{"officename":"Agagartilla B.O","pincode":"799201","officetype":"B.O","deliverystatus":"Delivery","statename":"TRIPURA","regionname":"Shillong HQ","circlename":"North Eastern","divisionname":"Dharmanagar","Taluk":"Paschim Sonatala"},{"officename":"Belcherra B.O","pincode":"799201","officetype":"B.O","deliverystatus":"Delivery","statename":"TRIPURA","regionname":"Shillong HQ","circlename":"North Eastern","divisionname":"Dharmanagar","Taluk":"Belcherra"},{"officename":"Gakulbari B.O","pincode":"799201","officetype":"B.O","deliverystatus":"Delivery","statename":"TRIPURA","regionname":"Shillong HQ","circlename":"North Eastern","divisionname":"Dharmanagar","Taluk":"Gakulbari"},{"officename":"Ganki B.O","pincode":"799201","officetype":"B.O","deliverystatus":"Delivery","statename":"TRIPURA","regionname":"Shillong HQ","circlename":"North Eastern","divisionname":"Dharmanagar","Taluk":"Ganki"},{"officename":"Khowai T. E B.O","pincode":"799201","officetype":"B.O","deliverystatus":"Delivery","statename":"TRIPURA","regionname":"Shillong HQ","circlename":"North Eastern","divisionname":"Dharmanagar","Taluk":"Khowai"},{"officename":"Paharmora B.O","pincode":"799201","officetype":"B.O","deliverystatus":"Delivery","statename":"TRIPURA","regionname":"Shillong HQ","circlename":"North Eastern","divisionname":"Dharmanagar","Taluk":"Paharmora"},{"officename":"Bachaibari B.O","pincode":"799201","officetype":"B.O","deliverystatus":"Delivery","statename":"TRIPURA","regionname":"Shillong HQ","circlename":"North Eastern","divisionname":"Dharmanagar","Taluk":"Bachaibari"},{"officename":"Paschim Belcherra B.O","pincode":"799201","officetype":"B.O","deliverystatus":"Delivery","statename":"TRIPURA","regionname":"Shillong HQ","circlename":"North Eastern","divisionname":"Dharmanagar","Taluk":"Paschimbelcherra"},{"officename":"Ratanpurbazar B.O","pincode":"799201","officetype":"B.O","deliverystatus":"Delivery","statename":"TRIPURA","regionname":"Shillong HQ","circlename":"North Eastern","divisionname":"Dharmanagar","Taluk":"Padmabil"},{"officename":"Subashpark B.O","pincode":"799201","officetype":"B.O","deliverystatus":"Non-Delivery","statename":"TRIPURA","regionname":"Shillong HQ","circlename":"North Eastern","divisionname":"Dharmanagar","Taluk":"Khowai"},{"officename":"Samatal Padmabil B.O","pincode":"799201","officetype":"B.O","deliverystatus":"Delivery","statename":"TRIPURA","regionname":"Shillong HQ","circlename":"North Eastern","divisionname":"Dharmanagar","Taluk":"Samatal Padmabil"},{"officename":"Barmaidan Bazar B.O","pincode":"799203","officetype":"B.O","deliverystatus":"Delivery","statename":"TRIPURA","regionname":"Shillong HQ","circlename":"North Eastern","divisionname":"Dharmanagar","Taluk":"Baramaidan"},{"officename":"Dakshin Promode L. L.Colony B.O","pincode":"799203","officetype":"B.O","deliverystatus":"Delivery","statename":"TRIPURA","regionname":"Shillong HQ","circlename":"North Eastern","divisionname":"Dharmanagar","Taluk":"Promodenagar"},{"officename":"Durgapur B.O","pincode":"799203","officetype":"B.O","deliverystatus":"Delivery","statename":"TRIPURA","regionname":"Shillong HQ","circlename":"North Eastern","divisionname":"Dharmanagar","Taluk":"Durgapur"},{"officename":"Dwarikapur B.O","pincode":"799203","officetype":"B.O","deliverystatus":"Delivery","statename":"TRIPURA","regionname":"Shillong HQ","circlename":"North Eastern","divisionname":"Dharmanagar","Taluk":"Paschimkalyanpur"},{"officename":"Ghilatali B.O","pincode":"799203","officetype":"B.O","deliverystatus":"Delivery","statename":"TRIPURA","regionname":"Shillong HQ","circlename":"North Eastern","divisionname":"Dharmanagar","Taluk":"Ghilatali"},{"officename":"Kalyanpur T. E B.O","pincode":"799203","officetype":"B.O","deliverystatus":"Delivery","statename":"TRIPURA","regionname":"Shillong HQ","circlename":"North Eastern","divisionname":"Dharmanagar","Taluk":"Dwarikapur"},{"officename":"Dalugaon B.O","pincode":"799280","officetype":"B.O","deliverystatus":"Delivery","statename":"TRIPURA","regionname":"Shillong HQ","circlename":"North Eastern","divisionname":"Dharmanagar","Taluk":"Bilashpur"},{"officename":"Dhanbilash B.O","pincode":"799280","officetype":"B.O","deliverystatus":"Delivery","statename":"TRIPURA","regionname":"Shillong HQ","circlename":"North Eastern","divisionname":"Dharmanagar","Taluk":"Dhanbilash"},{"officename":"Fultali B.O","pincode":"799280","officetype":"B.O","deliverystatus":"Delivery","statename":"TRIPURA","regionname":"Shillong HQ","circlename":"North Eastern","divisionname":"Dharmanagar","Taluk":"Fultali"},{"officename":"Jagannathpur B.O","pincode":"799280","officetype":"B.O","deliverystatus":"Delivery","statename":"TRIPURA","regionname":"Shillong HQ","circlename":"North Eastern","divisionname":"Dharmanagar","Taluk":"Jagannathpur"},{"officename":"Pechardahar B.O","pincode":"799280","officetype":"B.O","deliverystatus":"Delivery","statename":"TRIPURA","regionname":"Shillong HQ","circlename":"North Eastern","divisionname":"Dharmanagar","Taluk":"Pechardahar"},{"officename":"Kachucherra B.O","pincode":"799278","officetype":"B.O","deliverystatus":"Delivery","statename":"TRIPURA","regionname":"Shillong HQ","circlename":"North Eastern","divisionname":"Dharmanagar","Taluk":"Kachucherra"},{"officename":"Maharani Bus Stop B.O","pincode":"799278","officetype":"B.O","deliverystatus":"Delivery","statename":"TRIPURA","regionname":"Shillong HQ","circlename":"North Eastern","divisionname":"Dharmanagar","Taluk":"Maharanipur"},{"officename":"Mendihaor B.O","pincode":"799278","officetype":"B.O","deliverystatus":"Delivery","statename":"TRIPURA","regionname":"Shillong HQ","circlename":"North Eastern","divisionname":"Dharmanagar","Taluk":"Mendihaor"},{"officename":"Mechuria B.O","pincode":"799278","officetype":"B.O","deliverystatus":"Delivery","statename":"TRIPURA","regionname":"Shillong HQ","circlename":"North Eastern","divisionname":"Dharmanagar","Taluk":"Mechuria"},{"officename":"Paschim Dalucherra B.O","pincode":"799278","officetype":"B.O","deliverystatus":"Delivery","statename":"TRIPURA","regionname":"Shillong HQ","circlename":"North Eastern","divisionname":"Dharmanagar","Taluk":"Paschim Dalucherra"},{"officename":"Bhagirathpara B.O","pincode":"799284","officetype":"B.O","deliverystatus":"Delivery","statename":"TRIPURA","regionname":"Shillong HQ","circlename":"North Eastern","divisionname":"Dharmanagar","Taluk":"Bhagirathpara"},{"officename":"Bullongbassa B.O","pincode":"799284","officetype":"B.O","deliverystatus":"Delivery","statename":"TRIPURA","regionname":"Shillong HQ","circlename":"North Eastern","divisionname":"Dharmanagar","Taluk":"Bullongbassa"},{"officename":"Dalapatipara B.O","pincode":"799284","officetype":"B.O","deliverystatus":"Delivery","statename":"TRIPURA","regionname":"Shillong HQ","circlename":"North Eastern","divisionname":"Dharmanagar","Taluk":"Dalapatipara"},{"officename":"Jagabandhu Para B.O","pincode":"799284","officetype":"B.O","deliverystatus":"Delivery","statename":"TRIPURA","regionname":"Shillong HQ","circlename":"North Eastern","divisionname":"Dharmanagar","Taluk":"Jagabandhupara"},{"officename":"Purba Betcherra B.O","pincode":"799266","officetype":"B.O","deliverystatus":"Delivery","statename":"TRIPURA","regionname":"Shillong HQ","circlename":"North Eastern","divisionname":"Dharmanagar","Taluk":"Betcherra"},{"officename":"Sayedabari B.O","pincode":"799264","officetype":"B.O","deliverystatus":"Delivery","statename":"TRIPURA","regionname":"Shillong HQ","circlename":"North Eastern","divisionname":"Dharmanagar","Taluk":"Ambedkarnagar"},{"officename":"South Unokoti B.O","pincode":"799264","officetype":"B.O","deliverystatus":"Delivery","statename":"TRIPURA","regionname":"Shillong HQ","circlename":"North Eastern","divisionname":"Dharmanagar","Taluk":"Unokoti"},{"officename":"West Nalkata B.O","pincode":"799266","officetype":"B.O","deliverystatus":"Delivery","statename":"TRIPURA","regionname":"Shillong HQ","circlename":"North Eastern","divisionname":"Dharmanagar","Taluk":"Nalkata"},{"officename":"Dengdung B.O","pincode":"799288","officetype":"B.O","deliverystatus":"Delivery","statename":"TRIPURA","regionname":"Shillong HQ","circlename":"North Eastern","divisionname":"Dharmanagar","Taluk":"Demdun"},{"officename":"Dudhpur B.O","pincode":"799288","officetype":"B.O","deliverystatus":"Delivery","statename":"TRIPURA","regionname":"Shillong HQ","circlename":"North Eastern","divisionname":"Dharmanagar","Taluk":"Dudhpur"},{"officename":"Laljuri East B.O","pincode":"799288","officetype":"B.O","deliverystatus":"Delivery","statename":"TRIPURA","regionname":"Shillong HQ","circlename":"North Eastern","divisionname":"Dharmanagar","Taluk":"Laljuri"},{"officename":"Masauli B.O","pincode":"799288","officetype":"B.O","deliverystatus":"Delivery","statename":"TRIPURA","regionname":"Shillong HQ","circlename":"North Eastern","divisionname":"Dharmanagar","Taluk":"Masauli"},{"officename":"Nepaltilla B.O","pincode":"799288","officetype":"B.O","deliverystatus":"Delivery","statename":"TRIPURA","regionname":"Shillong HQ","circlename":"North Eastern","divisionname":"Dharmanagar","Taluk":"Kathalcherra"},{"officename":"Ujan Dodhpur B.O","pincode":"799288","officetype":"B.O","deliverystatus":"Delivery","statename":"TRIPURA","regionname":"Shillong HQ","circlename":"North Eastern","divisionname":"Dharmanagar","Taluk":"Ujandodhpur"},{"officename":"Taraninagar B.O","pincode":"799288","officetype":"B.O","deliverystatus":"Delivery","statename":"TRIPURA","regionname":"Shillong HQ","circlename":"North Eastern","divisionname":"Dharmanagar","Taluk":"Taraninagar"},{"officename":"Joyasree B.O","pincode":"799270","officetype":"B.O","deliverystatus":"Delivery","statename":"TRIPURA","regionname":"Shillong HQ","circlename":"North Eastern","divisionname":"Dharmanagar","Taluk":"Uttarlaljuri"},{"officename":"Paschim Kalyanpur B.O","pincode":"799203","officetype":"B.O","deliverystatus":"Delivery","statename":"TRIPURA","regionname":"Shillong HQ","circlename":"North Eastern","divisionname":"Dharmanagar","Taluk":"Kalyanpur"},{"officename":"Paschim Kunjaban B.O","pincode":"799203","officetype":"B.O","deliverystatus":"Delivery","statename":"TRIPURA","regionname":"Shillong HQ","circlename":"North Eastern","divisionname":"Dharmanagar","Taluk":"Kunjaban"},{"officename":"Paschim Santinagar B.O","pincode":"799203","officetype":"B.O","deliverystatus":"Delivery","statename":"TRIPURA","regionname":"Shillong HQ","circlename":"North Eastern","divisionname":"Dharmanagar","Taluk":"Santinagar"},{"officename":"Ramdayal Lendless Colony B.O","pincode":"799203","officetype":"B.O","deliverystatus":"Delivery","statename":"TRIPURA","regionname":"Shillong HQ","circlename":"North Eastern","divisionname":"Dharmanagar","Taluk":"Paschim Ddwarikapur"},{"officename":"Ratia B.O","pincode":"799203","officetype":"B.O","deliverystatus":"Delivery","statename":"TRIPURA","regionname":"Shillong HQ","circlename":"North Eastern","divisionname":"Dharmanagar","Taluk":"Ratia"},{"officename":"Tablabari B.O","pincode":"799203","officetype":"B.O","deliverystatus":"Delivery","statename":"TRIPURA","regionname":"Shillong HQ","circlename":"North Eastern","divisionname":"Dharmanagar","Taluk":"Tablabari Madhya Ganki"},{"officename":"Uttat Pulinpur B.O","pincode":"799203","officetype":"B.O","deliverystatus":"Delivery","statename":"TRIPURA","regionname":"Shillong HQ","circlename":"North Eastern","divisionname":"Dharmanagar","Taluk":"Pulinpur"},{"officename":"Ataromura B.O","pincode":"799205","officetype":"B.O","deliverystatus":"Delivery","statename":"TRIPURA","regionname":"Shillong HQ","circlename":"North Eastern","divisionname":"Dharmanagar","Taluk":"Teliamura"},{"officename":"Brahmacherra B.O","pincode":"799205","officetype":"B.O","deliverystatus":"Delivery","statename":"TRIPURA","regionname":"Shillong HQ","circlename":"North Eastern","divisionname":"Dharmanagar","Taluk":"Brahmacherra"},{"officename":"Chakmaghat B.O","pincode":"799205","officetype":"B.O","deliverystatus":"Delivery","statename":"TRIPURA","regionname":"Shillong HQ","circlename":"North Eastern","divisionname":"Dharmanagar","Taluk":"Chakmaghat"},{"officename":"Hadrai B.O","pincode":"799205","officetype":"B.O","deliverystatus":"Delivery","statename":"TRIPURA","regionname":"Shillong HQ","circlename":"North Eastern","divisionname":"Dharmanagar","Taluk":"Hadrai"},{"officename":"Howaibari B.O","pincode":"799205","officetype":"B.O","deliverystatus":"Delivery","statename":"TRIPURA","regionname":"Shillong HQ","circlename":"North Eastern","divisionname":"Dharmanagar","Taluk":"Howaibari"},{"officename":"Kalitilla B.O","pincode":"799205","officetype":"B.O","deliverystatus":"Non-Delivery","statename":"TRIPURA","regionname":"Shillong HQ","circlename":"North Eastern","divisionname":"Dharmanagar","Taluk":"Teliamura"},{"officename":"Karailong B.O","pincode":"799205","officetype":"B.O","deliverystatus":"Delivery","statename":"TRIPURA","regionname":"Shillong HQ","circlename":"North Eastern","divisionname":"Dharmanagar","Taluk":"Karailong"},{"officename":"Khasiamangal B.O","pincode":"799205","officetype":"B.O","deliverystatus":"Delivery","statename":"TRIPURA","regionname":"Shillong HQ","circlename":"North Eastern","divisionname":"Dharmanagar","Taluk":"Khasiamangal"},{"officename":"Maharanipur B.O","pincode":"799205","officetype":"B.O","deliverystatus":"Delivery","statename":"TRIPURA","regionname":"Shillong HQ","circlename":"North Eastern","divisionname":"Dharmanagar","Taluk":"Maharanipur"},{"officename":"Mongtukupara B.O","pincode":"799205","officetype":"B.O","deliverystatus":"Delivery","statename":"TRIPURA","regionname":"Shillong HQ","circlename":"North Eastern","divisionname":"Dharmanagar","Taluk":"Madhya Krishnapur"},{"officename":"Maigonga B.O","pincode":"799205","officetype":"B.O","deliverystatus":"Delivery","statename":"TRIPURA","regionname":"Shillong HQ","circlename":"North Eastern","divisionname":"Dharmanagar","Taluk":"Maigonga"},{"officename":"Nabakumar Rankhal Para B.O","pincode":"799205","officetype":"B.O","deliverystatus":"Delivery","statename":"TRIPURA","regionname":"Shillong HQ","circlename":"North Eastern","divisionname":"Dharmanagar","Taluk":"Sandukarkari"},{"officename":"Netajinagar B.O","pincode":"799205","officetype":"B.O","deliverystatus":"Non-Delivery","statename":"TRIPURA","regionname":"Shillong HQ","circlename":"North Eastern","divisionname":"Dharmanagar","Taluk":"Teliamura"},{"officename":"Nunacherra B.O","pincode":"799205","officetype":"B.O","deliverystatus":"Delivery","statename":"TRIPURA","regionname":"Shillong HQ","circlename":"North Eastern","divisionname":"Dharmanagar","Taluk":"Nunacherra"},{"officename":"Uttar Gakulnagar B.O","pincode":"799205","officetype":"B.O","deliverystatus":"Delivery","statename":"TRIPURA","regionname":"Shillong HQ","circlename":"North Eastern","divisionname":"Dharmanagar","Taluk":"Gakulnagar"},{"officename":"Rupacherra B.O","pincode":"799205","officetype":"B.O","deliverystatus":"Delivery","statename":"TRIPURA","regionname":"Shillong HQ","circlename":"North Eastern","divisionname":"Dharmanagar","Taluk":"Rupacherra"},{"officename":"Barmura Project B.O","pincode":"799205","officetype":"B.O","deliverystatus":"Delivery","statename":"TRIPURA","regionname":"Shillong HQ","circlename":"North Eastern","divisionname":"Dharmanagar","Taluk":"Barmura"},{"officename":"Golabari B.O","pincode":"799205","officetype":"B.O","deliverystatus":"Delivery","statename":"TRIPURA","regionname":"Shillong HQ","circlename":"North Eastern","divisionname":"Dharmanagar","Taluk":"Golabari"}]